	Time Stamps	Temp	Dew Point	Humidity	Pressure	Visibility	Wind Direction	Wind Speed	Gust Speed	Precipitation	Events	Conditions
0	7/27/1997 -- 12:51 AM	79.0 °F	71.1 °F	77%	29.96 in	6.0 mi	SSW	6.9 mph	  -	N/A	"	 "	Haze
1	7/27/1997 -- 1:51 AM	77.0 °F	72.0 °F	84%	29.95 in	5.0 mi	SW	10.4 mph	  -	N/A	"	 "	Haze
2	7/27/1997 -- 2:51 AM	75.9 °F	73.0 °F	91%	29.94 in	4.0 mi	SW	8.1 mph	  -	N/A	"	 "	Clear
3	7/27/1997 -- 3:34 AM	75.2 °F	73.4 °F	94%	29.95 in	4.0 mi	WSW	8.1 mph	  -	N/A	"	 "	Partly Cloudy
4	7/27/1997 -- 3:51 AM	75.0 °F	73.9 °F	96%	29.93 in	5.0 mi	SW	9.2 mph	  -	N/A	"	 "	Mostly Cloudy
5	7/27/1997 -- 4:00 AM	75.2 °F	73.4 °F	94%	29.94 in	3.0 mi	WSW	6.9 mph	  -	N/A	"	 "	Mostly Cloudy
6	7/27/1997 -- 4:51 AM	75.0 °F	73.9 °F	96%	29.92 in	3.0 mi	SW	8.1 mph	  -	N/A	"	 "	Overcast
7	7/27/1997 -- 5:27 AM	73.4 °F	73.4 °F	100%	29.94 in	2.5 mi	WSW	4.6 mph	  -	N/A	"	 "	Mostly Cloudy
8	7/27/1997 -- 5:51 AM	75.0 °F	73.9 °F	96%	29.94 in	3.0 mi	WSW	6.9 mph	  -	N/A	"	 "	Overcast
9	7/27/1997 -- 6:00 AM	75.2 °F	73.4 °F	94%	29.95 in	2.5 mi	SW	6.9 mph	  -	N/A	"	 "	Overcast
10	7/27/1997 -- 6:18 AM	75.2 °F	73.4 °F	94%	29.95 in	1.5 mi	SW	8.1 mph	  -	N/A	"	 "	Mostly Cloudy
11	7/27/1997 -- 6:51 AM	75.0 °F	73.9 °F	96%	29.94 in	1.5 mi	SW	9.2 mph	  -	N/A	"	 "	Overcast
12	7/27/1997 -- 7:51 AM	77.0 °F	73.9 °F	90%	29.94 in	1.5 mi	SW	10.4 mph	  -	N/A	"	 "	Overcast
13	7/27/1997 -- 8:08 AM	77.0 °F	73.4 °F	89%	29.95 in	2.5 mi	WSW	9.2 mph	  -	N/A	"	 "	Overcast
14	7/27/1997 -- 8:43 AM	78.8 °F	73.4 °F	83%	29.95 in	2.5 mi	SW	12.7 mph	  -	N/A	"	 "	Overcast
15	7/27/1997 -- 8:51 AM	79.0 °F	73.9 °F	84%	29.94 in	2.5 mi	SW	11.5 mph	  -	N/A	"	 "	Haze
16	7/27/1997 -- 9:11 AM	78.8 °F	75.2 °F	89%	29.95 in	2.5 mi	SW	10.4 mph	  -	N/A	"	 "	Overcast
17	7/27/1997 -- 9:51 AM	81.0 °F	75.0 °F	82%	29.95 in	2.5 mi	SW	5.8 mph	  -	N/A	"	 "	Haze
18	7/27/1997 -- 10:30 AM	84.2 °F	75.2 °F	74%	29.95 in	4.0 mi	Variable	6.9 mph	  -	N/A	"	 "	Haze
19	7/27/1997 -- 10:51 AM	86.0 °F	75.0 °F	70%	29.94 in	5.0 mi	West	6.9 mph	  -	N/A	"	 "	Haze
20	7/27/1997 -- 11:51 AM	88.0 °F	75.0 °F	65%	29.93 in	5.0 mi	Variable	4.6 mph	  -	N/A	"	 "	Haze
21	7/27/1997 -- 12:51 PM	90.0 °F	75.0 °F	61%	29.91 in	6.0 mi	Variable	4.6 mph	  -	N/A	"	 "	Haze
22	7/27/1997 -- 1:51 PM	91.0 °F	73.0 °F	55%	29.90 in	7.0 mi	SW	4.6 mph	  -	N/A	"	 "	Mostly Cloudy
23	7/27/1997 -- 2:51 PM	93.0 °F	75.0 °F	56%	29.89 in	7.0 mi	SW	9.2 mph	  -	N/A	"	 "	Mostly Cloudy
24	7/27/1997 -- 3:51 PM	90.0 °F	75.0 °F	61%	29.88 in	6.0 mi	WSW	8.1 mph	  -	N/A	"	 "	Haze
25	7/27/1997 -- 4:51 PM	91.9 °F	73.9 °F	55%	29.86 in	7.0 mi	WSW	9.2 mph	  -	N/A	"	 "	Scattered Clouds
26	7/27/1997 -- 5:51 PM	91.9 °F	75.0 °F	58%	29.86 in	7.0 mi	WSW	8.1 mph	  -	N/A	"	 "	Mostly Cloudy
27	7/27/1997 -- 6:51 PM	90.0 °F	75.0 °F	61%	29.86 in	7.0 mi	WSW	8.1 mph	  -	N/A	"	 "	Mostly Cloudy
28	7/27/1997 -- 7:51 PM	86.0 °F	75.9 °F	72%	29.86 in	7.0 mi	WSW	4.6 mph	  -	N/A	"	 "	Scattered Clouds
29	7/27/1997 -- 8:51 PM	84.9 °F	75.9 °F	74%	29.87 in	7.0 mi	Calm	Calm	  -	N/A	"	 "	Scattered Clouds
30	7/27/1997 -- 9:51 PM	82.9 °F	75.9 °F	79%	29.89 in	7.0 mi	Calm	Calm	  -	N/A	"	 "	Clear
31	7/27/1997 -- 10:51 PM	81.0 °F	75.9 °F	85%	29.89 in	6.0 mi	Calm	Calm	  -	N/A	"	 "	Haze
32	7/27/1997 -- 11:51 PM	80.1 °F	75.9 °F	87%	29.91 in	7.0 mi	Calm	Calm	  -	N/A	"	 "	Clear
33	1/8/1997 -- 12:51 AM	34.0 °F	12.0 °F	40%	30.21 in	10.0 mi	Variable	3.5 mph	  -	N/A	"	 "	Scattered Clouds
34	1/8/1997 -- 1:51 AM	32.0 °F	12.9 °F	45%	30.22 in	10.0 mi	NNE	3.5 mph	  -	N/A	"	 "	Scattered Clouds
35	1/8/1997 -- 2:51 AM	30.0 °F	14.0 °F	51%	30.24 in	10.0 mi	NE	3.5 mph	  -	N/A	"	 "	Scattered Clouds
36	1/8/1997 -- 3:51 AM	28.9 °F	15.1 °F	56%	30.23 in	10.0 mi	NW	3.5 mph	  -	N/A	"	 "	Scattered Clouds
37	1/8/1997 -- 4:51 AM	30.0 °F	14.0 °F	51%	30.25 in	10.0 mi	North	4.6 mph	  -	N/A	"	 "	Scattered Clouds
38	1/8/1997 -- 5:51 AM	28.9 °F	14.0 °F	54%	30.26 in	10.0 mi	Calm	Calm	  -	N/A	"	 "	Scattered Clouds
39	1/8/1997 -- 6:51 AM	28.0 °F	14.0 °F	56%	30.28 in	10.0 mi	North	3.5 mph	  -	N/A	"	 "	Scattered Clouds
40	1/8/1997 -- 7:51 AM	28.0 °F	16.0 °F	61%	30.29 in	10.0 mi	NE	4.6 mph	  -	N/A	"	 "	Mostly Cloudy
41	1/8/1997 -- 8:51 AM	32.0 °F	15.1 °F	50%	30.30 in	10.0 mi	North	8.1 mph	  -	N/A	"	 "	Scattered Clouds
42	1/8/1997 -- 9:51 AM	35.1 °F	14.0 °F	42%	30.32 in	10.0 mi	Variable	3.5 mph	  -	N/A	"	 "	Scattered Clouds
43	1/8/1997 -- 10:51 AM	37.9 °F	14.0 °F	38%	30.31 in	10.0 mi	NNE	6.9 mph	  -	N/A	"	 "	Scattered Clouds
44	1/8/1997 -- 11:51 AM	42.1 °F	12.9 °F	31%	30.27 in	10.0 mi	North	6.9 mph	  -	N/A	"	 "	Partly Cloudy
45	1/8/1997 -- 12:51 PM	44.1 °F	12.9 °F	28%	30.24 in	10.0 mi	NE	8.1 mph	  -	N/A	"	 "	Scattered Clouds
46	1/8/1997 -- 1:51 PM	44.1 °F	10.9 °F	26%	30.22 in	10.0 mi	Variable	3.5 mph	  -	N/A	"	 "	Mostly Cloudy
47	1/8/1997 -- 2:51 PM	45.0 °F	10.9 °F	25%	30.22 in	10.0 mi	ENE	5.8 mph	  -	N/A	"	 "	Overcast
48	1/8/1997 -- 3:51 PM	45.0 °F	12.9 °F	27%	30.20 in	10.0 mi	NE	9.2 mph	  -	N/A	"	 "	Mostly Cloudy
49	1/8/1997 -- 4:51 PM	44.1 °F	15.1 °F	31%	30.22 in	10.0 mi	Calm	Calm	  -	N/A	"	 "	Overcast
50	1/8/1997 -- 5:51 PM	43.0 °F	18.0 °F	37%	30.24 in	10.0 mi	Calm	Calm	  -	N/A	"	 "	Overcast
51	1/8/1997 -- 6:51 PM	41.0 °F	23.0 °F	49%	30.23 in	10.0 mi	ENE	4.6 mph	  -	N/A	"	 "	Overcast
52	1/8/1997 -- 7:51 PM	41.0 °F	18.0 °F	40%	30.19 in	10.0 mi	East	5.8 mph	  -	N/A	"	 "	Overcast
53	1/8/1997 -- 8:51 PM	41.0 °F	17.1 °F	38%	30.14 in	10.0 mi	East	6.9 mph	  -	N/A	"	 "	Overcast
54	1/8/1997 -- 9:51 PM	42.1 °F	17.1 °F	37%	30.18 in	10.0 mi	Calm	Calm	  -	N/A	"	 "	Overcast
55	1/8/1997 -- 10:51 PM	39.9 °F	18.0 °F	41%	30.19 in	7.0 mi	Calm	Calm	  -	0.01 in	Rain	Light Ice Pellets
56	1/8/1997 -- 11:51 PM	34.0 °F	32.0 °F	92%	30.18 in	6.0 mi	Calm	Calm	  -	0.07 in	Rain	Light Ice Pellets
57	6/22/1996 -- 12:00 AM	73.0 °F	72.0 °F	96%	29.89 in	10.5 mi	Calm	Calm	  -	N/A	Fog	Fog
58	6/22/1996 -- 1:00 AM	72.0 °F	71.1 °F	97%	29.88 in	3.2 mi	Calm	Calm	  -	N/A	Fog	Fog
59	6/22/1996 -- 2:00 AM	71.1 °F	70.0 °F	96%	29.89 in	2.0 mi	Calm	Calm	  -	N/A	Fog	Fog
60	6/22/1996 -- 3:00 AM	71.1 °F	70.0 °F	96%	29.87 in	2.0 mi	Calm	Calm	  -	N/A	Fog	Fog
61	6/22/1996 -- 4:00 AM	70.0 °F	70.0 °F	100%	29.88 in	2.0 mi	Calm	Calm	  -	N/A	Fog	Fog
62	6/22/1996 -- 5:00 AM	69.1 °F	69.1 °F	100%	29.88 in	2.8 mi	Calm	Calm	  -	N/A	Fog	Fog
63	6/22/1996 -- 5:16 AM	  -	  -	N/A%	29.88 in	5.5 mi	Calm	Calm	  -	N/A	Fog	Fog
64	6/22/1996 -- 6:00 AM	68.0 °F	68.0 °F	100%	29.89 in	1.0 mi	Calm	Calm	  -	0.01 in	Fog	Fog
65	6/22/1996 -- 7:00 AM	69.1 °F	68.0 °F	96%	29.91 in	1.0 mi	Calm	Calm	  -	N/A	Fog	Fog
66	6/22/1996 -- 7:35 AM	  -	  -	N/A%	29.91 in	2.0 mi	Calm	Calm	  -	N/A	Fog	Fog
67	6/22/1996 -- 8:00 AM	75.0 °F	72.0 °F	90%	29.91 in	10.5 mi	Calm	Calm	  -	N/A	Fog	Fog
68	6/22/1996 -- 8:09 AM	  -	  -	N/A%	29.91 in	3.0 mi	Calm	Calm	  -	N/A	Fog	Fog
69	6/22/1996 -- 9:00 AM	78.1 °F	70.0 °F	76%	29.91 in	5.0 mi	NW	3.5 mph	  -	N/A	"	 "	Drizzle
70	6/22/1996 -- 10:00 AM	82.9 °F	72.0 °F	69%	29.91 in	5.0 mi	West	4.6 mph	  -	N/A	"	 "	Drizzle
71	6/22/1996 -- 11:00 AM	87.1 °F	72.0 °F	61%	29.91 in	5.0 mi	SW	5.8 mph	  -	N/A	"	 "	Drizzle
72	6/22/1996 -- 12:00 PM	90.0 °F	72.0 °F	55%	29.89 in	7.0 mi	SW	10.4 mph	  -	N/A	"	 "	Unknown
73	6/22/1996 -- 1:00 PM	91.0 °F	73.0 °F	55%	29.90 in	7.0 mi	WSW	6.9 mph	  -	N/A	"	 "	Unknown
74	6/22/1996 -- 2:00 PM	91.9 °F	73.9 °F	55%	29.88 in	7.0 mi	WSW	8.1 mph	  -	N/A	"	 "	Clear
75	6/22/1996 -- 3:00 PM	93.0 °F	72.0 °F	50%	29.86 in	7.0 mi	West	8.1 mph	  -	N/A	"	 "	Unknown
76	6/22/1996 -- 4:00 PM	93.9 °F	71.1 °F	47%	29.85 in	7.0 mi	WSW	9.2 mph	  -	N/A	"	 "	Unknown
77	6/22/1996 -- 5:00 PM	93.9 °F	71.1 °F	47%	29.83 in	7.0 mi	WSW	10.4 mph	  -	N/A	"	 "	Unknown
78	6/22/1996 -- 6:00 PM	91.9 °F	73.0 °F	54%	29.83 in	7.0 mi	WSW	9.2 mph	  -	N/A	"	 "	Unknown
79	6/22/1996 -- 7:00 PM	89.1 °F	73.0 °F	59%	29.81 in	7.0 mi	WSW	4.6 mph	  -	N/A	"	 "	Unknown
80	6/22/1996 -- 8:00 PM	84.9 °F	73.0 °F	67%	29.82 in	5.0 mi	WSW	4.6 mph	  -	N/A	"	 "	Drizzle
81	6/22/1996 -- 9:00 PM	81.0 °F	73.9 °F	79%	29.84 in	5.0 mi	SW	3.5 mph	  -	N/A	"	 "	Drizzle
82	6/22/1996 -- 10:00 PM	79.0 °F	73.9 °F	84%	29.85 in	5.0 mi	SW	3.5 mph	  -	N/A	"	 "	Drizzle
83	6/22/1996 -- 11:00 PM	77.0 °F	73.9 °F	90%	29.85 in	4.0 mi	WSW	4.6 mph	  -	N/A	Fog	Fog
84	12/5/1995 -- 12:00 AM	45.0 °F	37.9 °F	76%	30.21 in	7.0 mi	ESE	8.1 mph	  -	N/A	"	 "	Clear
85	12/5/1995 -- 1:00 AM	45.0 °F	36.0 °F	71%	30.19 in	10.0 mi	ESE	8.1 mph	  -	N/A	"	 "	Scattered Clouds
86	12/5/1995 -- 2:00 AM	44.1 °F	35.1 °F	71%	30.19 in	10.0 mi	ESE	9.2 mph	  -	N/A	"	 "	Partly Cloudy
87	12/5/1995 -- 3:00 AM	43.0 °F	34.0 °F	71%	30.20 in	10.0 mi	ESE	8.1 mph	  -	N/A	"	 "	Mostly Cloudy
88	12/5/1995 -- 4:00 AM	42.1 °F	34.0 °F	73%	30.21 in	10.0 mi	East	6.9 mph	  -	N/A	"	 "	Mostly Cloudy
89	12/5/1995 -- 5:00 AM	41.0 °F	33.1 °F	73%	30.21 in	10.0 mi	East	5.8 mph	  -	N/A	"	 "	Mostly Cloudy
90	12/5/1995 -- 6:00 AM	41.0 °F	33.1 °F	73%	30.22 in	10.0 mi	East	9.2 mph	  -	N/A	"	 "	Unknown
91	12/5/1995 -- 7:00 AM	41.0 °F	33.1 °F	73%	30.20 in	10.0 mi	East	12.7 mph	  -	N/A	"	 "	Mostly Cloudy
92	12/5/1995 -- 8:00 AM	42.1 °F	33.1 °F	70%	30.22 in	10.0 mi	ENE	6.9 mph	  -	N/A	"	 "	Mostly Cloudy
93	12/5/1995 -- 9:00 AM	41.0 °F	35.1 °F	79%	30.24 in	7.0 mi	ENE	6.9 mph	  -	N/A	"	 "	Mostly Cloudy
94	12/5/1995 -- 10:00 AM	46.9 °F	34.0 °F	61%	30.25 in	7.0 mi	NNE	6.9 mph	  -	N/A	"	 "	Overcast
95	12/5/1995 -- 11:00 AM	48.9 °F	35.1 °F	59%	30.23 in	7.0 mi	East	9.2 mph	  -	N/A	"	 "	Overcast
96	12/5/1995 -- 12:00 PM	48.9 °F	36.0 °F	61%	30.21 in	7.0 mi	ESE	5.8 mph	  -	N/A	"	 "	Overcast
97	12/5/1995 -- 1:00 PM	50.0 °F	39.0 °F	66%	30.18 in	7.0 mi	SE	5.8 mph	  -	N/A	"	 "	Mostly Cloudy
98	12/5/1995 -- 2:00 PM	51.1 °F	37.9 °F	61%	30.15 in	7.0 mi	ENE	4.6 mph	  -	N/A	Rain	Light Rain
99	12/5/1995 -- 3:00 PM	52.0 °F	39.0 °F	61%	30.13 in	10.0 mi	ESE	4.6 mph	  -	N/A	"	 "	Overcast
100	12/5/1995 -- 4:00 PM	52.0 °F	39.0 °F	61%	30.13 in	10.0 mi	NE	4.6 mph	  -	N/A	"	 "	Overcast
101	12/5/1995 -- 5:00 PM	51.1 °F	41.0 °F	68%	30.13 in	7.0 mi	NNE	3.5 mph	  -	N/A	"	 "	Overcast
102	12/5/1995 -- 6:00 PM	50.0 °F	43.0 °F	77%	30.12 in	7.0 mi	East	3.5 mph	  -	N/A	"	 "	Overcast
103	12/5/1995 -- 7:00 PM	50.0 °F	41.0 °F	71%	30.12 in	7.0 mi	Calm	Calm	  -	N/A	"	 "	Unknown
104	12/5/1995 -- 8:00 PM	48.9 °F	42.1 °F	77%	30.13 in	7.0 mi	Calm	Calm	  -	N/A	Rain	Light Rain
105	12/5/1995 -- 9:00 PM	48.0 °F	44.1 °F	86%	30.12 in	7.0 mi	NNW	3.5 mph	  -	N/A	"	 "	Unknown
106	12/5/1995 -- 10:00 PM	48.0 °F	44.1 °F	86%	30.13 in	6.0 mi	NW	5.8 mph	  -	N/A	Fog	Fog
107	12/5/1995 -- 11:00 PM	46.9 °F	44.1 °F	90%	30.10 in	6.0 mi	Calm	Calm	  -	N/A	Fog	Fog
108	5/19/1995 -- 12:00 AM	75.9 °F	64.0 °F	67%	29.73 in	10.0 mi	SSW	9.2 mph	  -	N/A	"	 "	Mostly Cloudy
109	5/19/1995 -- 1:00 AM	75.9 °F	64.9 °F	69%	29.71 in	10.0 mi	SSW	10.4 mph	  -	N/A	"	 "	Mostly Cloudy
110	5/19/1995 -- 2:00 AM	75.9 °F	66.0 °F	71%	29.71 in	10.0 mi	SSW	9.2 mph	  -	N/A	"	 "	Mostly Cloudy
111	5/19/1995 -- 3:00 AM	75.9 °F	66.9 °F	74%	29.70 in	10.0 mi	SSW	9.2 mph	  -	N/A	"	 "	Overcast
112	5/19/1995 -- 4:00 AM	77.0 °F	66.9 °F	71%	29.67 in	10.0 mi	SSW	13.8 mph	  -	N/A	"	 "	Mostly Cloudy
113	5/19/1995 -- 5:00 AM	75.9 °F	68.0 °F	76%	29.66 in	10.0 mi	SW	11.5 mph	  -	N/A	"	 "	Mostly Cloudy
114	5/19/1995 -- 6:00 AM	75.9 °F	68.0 °F	76%	29.66 in	10.0 mi	SW	11.5 mph	  -	N/A	"	 "	Overcast
115	5/19/1995 -- 6:18 AM	  -	  -	N/A%	29.70 in	7.0 mi	WNW	10.4 mph	  -	N/A	Thunderstorm	Thunderstorm
116	5/19/1995 -- 6:35 AM	  -	  -	N/A%	29.73 in	0.5 mi	WNW	18.4 mph	27.6 mph	N/A	Rain	"	,"
117	5/19/1995 -- 7:00 AM	69.1 °F	69.1 °F	100%	29.70 in	7.0 mi	WSW	10.4 mph	  -	0.27 in	"	 "	Overcast
118	5/19/1995 -- 8:00 AM	68.0 °F	66.0 °F	93%	29.73 in	7.0 mi	West	9.2 mph	  -	0.02 in	Rain	Light Rain
119	5/19/1995 -- 8:24 AM	  -	  -	N/A%	29.79 in	2.0 mi	West	36.8 mph	  -	N/A	Rain	"	,"
120	5/19/1995 -- 8:35 AM	  -	  -	N/A%	29.76 in	4.0 mi	WSW	13.8 mph	  -	N/A	Rain	"	,"
121	5/19/1995 -- 9:00 AM	63.0 °F	63.0 °F	100%	29.74 in	4.0 mi	WSW	11.5 mph	  -	0.23 in	Fog	"	,"
122	5/19/1995 -- 9:14 AM	  -	  -	N/A%	29.74 in	6.0 mi	SW	5.8 mph	  -	N/A	Fog	Fog
123	5/19/1995 -- 10:00 AM	64.9 °F	64.9 °F	100%	29.74 in	6.0 mi	WSW	11.5 mph	  -	N/A	Fog	"	,"
124	5/19/1995 -- 10:04 AM	  -	  -	N/A%	29.75 in	6.0 mi	WSW	11.5 mph	  -	N/A	Fog	"	,"
125	5/19/1995 -- 10:30 AM	  -	  -	N/A%	29.75 in	4.0 mi	SW	9.2 mph	  -	N/A	Fog	"	,"
126	5/19/1995 -- 11:00 AM	66.0 °F	66.0 °F	100%	29.73 in	6.0 mi	SW	4.6 mph	  -	0.13 in	Fog	"	,"
127	5/19/1995 -- 12:00 PM	71.1 °F	68.0 °F	90%	29.71 in	6.0 mi	SW	10.4 mph	  -	N/A	Fog	Fog
128	5/19/1995 -- 12:15 PM	  -	  -	N/A%	29.73 in	6.0 mi	SW	12.7 mph	  -	N/A	Fog	Fog
129	5/19/1995 -- 1:00 PM	73.9 °F	70.0 °F	87%	29.70 in	7.0 mi	SW	13.8 mph	  -	N/A	"	 "	Overcast
130	5/19/1995 -- 2:00 PM	75.9 °F	69.1 °F	79%	29.69 in	7.0 mi	WSW	11.5 mph	  -	N/A	"	 "	Mostly Cloudy
131	5/19/1995 -- 2:22 PM	  -	  -	N/A%	29.68 in	7.0 mi	WSW	10.4 mph	  -	N/A	"	 "	Overcast
132	5/19/1995 -- 3:00 PM	80.1 °F	70.0 °F	71%	29.67 in	7.0 mi	West	6.9 mph	  -	N/A	"	 "	Mostly Cloudy
133	5/19/1995 -- 3:33 PM	  -	  -	N/A%	29.67 in	7.0 mi	SW	10.4 mph	  -	N/A	Rain	"	,"
134	5/19/1995 -- 4:00 PM	73.0 °F	70.0 °F	90%	29.65 in	7.0 mi	SSW	6.9 mph	  -	N/A	Rain	"	,"
135	5/19/1995 -- 5:00 PM	73.0 °F	66.9 °F	81%	29.65 in	7.0 mi	SW	6.9 mph	  -	N/A	"	 "	Overcast
136	5/19/1995 -- 6:00 PM	72.0 °F	66.0 °F	81%	29.66 in	10.0 mi	SSW	6.9 mph	  -	N/A	"	 "	Mostly Cloudy
137	5/19/1995 -- 7:00 PM	71.1 °F	66.9 °F	87%	29.67 in	10.0 mi	SSW	6.9 mph	  -	N/A	"	 "	Overcast
138	5/19/1995 -- 8:00 PM	68.0 °F	66.0 °F	93%	29.70 in	10.0 mi	SW	5.8 mph	  -	N/A	"	 "	Mostly Cloudy
139	5/19/1995 -- 8:30 PM	  -	  -	N/A%	29.75 in	10.0 mi	North	13.8 mph	  -	N/A	"	 "	Scattered Clouds
140	5/19/1995 -- 9:00 PM	68.0 °F	57.0 °F	68%	29.75 in	10.0 mi	North	12.7 mph	  -	N/A	"	 "	Scattered Clouds
141	5/19/1995 -- 10:00 PM	64.9 °F	53.1 °F	65%	29.78 in	10.0 mi	North	10.4 mph	  -	N/A	"	 "	Scattered Clouds
142	5/19/1995 -- 11:00 PM	62.1 °F	52.0 °F	70%	29.81 in	10.0 mi	North	8.1 mph	  -	N/A	"	 "	Clear
143	10/31/1994 -- 12:00 AM	61.0 °F	59.0 °F	93%	30.09 in	15.0 mi	Calm	Calm	  -	N/A	"	 "	Overcast
144	10/31/1994 -- 1:00 AM	62.1 °F	60.1 °F	93%	30.08 in	10.0 mi	NNE	4.6 mph	  -	N/A	"	 "	Mostly Cloudy
145	10/31/1994 -- 1:28 AM	  -	  -	N/A%	30.09 in	10.0 mi	North	3.5 mph	  -	N/A	"	 "	Overcast
146	10/31/1994 -- 1:42 AM	  -	  -	N/A%	30.09 in	10.0 mi	Calm	Calm	  -	N/A	"	 "	Overcast
147	10/31/1994 -- 2:00 AM	62.1 °F	59.0 °F	90%	30.07 in	10.0 mi	Calm	Calm	  -	N/A	"	 "	Overcast
148	10/31/1994 -- 3:00 AM	63.0 °F	61.0 °F	93%	30.05 in	10.0 mi	Calm	Calm	  -	N/A	"	 "	Mostly Cloudy
149	10/31/1994 -- 3:14 AM	  -	  -	N/A%	30.05 in	7.0 mi	Calm	Calm	  -	N/A	"	 "	Overcast
150	10/31/1994 -- 4:00 AM	63.0 °F	63.0 °F	100%	30.04 in	7.0 mi	Calm	Calm	  -	N/A	"	 "	Overcast
151	10/31/1994 -- 5:00 AM	61.0 °F	60.1 °F	97%	30.04 in	7.0 mi	North	4.6 mph	  -	N/A	"	 "	Overcast
152	10/31/1994 -- 5:02 AM	  -	  -	N/A%	30.05 in	6.0 mi	Calm	Calm	  -	N/A	Fog	Fog
153	10/31/1994 -- 6:00 AM	62.1 °F	60.1 °F	93%	30.05 in	4.0 mi	NNW	3.5 mph	  -	N/A	Fog	Light Drizzle
154	10/31/1994 -- 6:29 AM	  -	  -	N/A%	30.04 in	4.0 mi	NNE	4.6 mph	  -	N/A	Fog	Fog
155	10/31/1994 -- 7:00 AM	61.0 °F	60.1 °F	97%	30.04 in	4.0 mi	Calm	Calm	  -	N/A	Fog	Fog
156	10/31/1994 -- 7:26 AM	  -	  -	N/A%	30.03 in	6.0 mi	Calm	Calm	  -	N/A	Fog	Fog
157	10/31/1994 -- 7:40 AM	  -	  -	N/A%	30.03 in	5.0 mi	NE	4.6 mph	  -	N/A	Fog	Fog
158	10/31/1994 -- 8:00 AM	64.0 °F	62.1 °F	93%	30.03 in	6.0 mi	ESE	3.5 mph	  -	N/A	Fog	Fog
159	10/31/1994 -- 8:25 AM	  -	  -	N/A%	30.04 in	6.0 mi	Calm	Calm	  -	N/A	Fog	Fog
160	10/31/1994 -- 9:00 AM	66.0 °F	64.0 °F	93%	30.04 in	2.0 mi	Calm	Calm	  -	N/A	Fog	Fog
161	10/31/1994 -- 9:02 AM	  -	  -	N/A%	30.04 in	2.0 mi	Calm	Calm	  -	N/A	Fog	Fog
162	10/31/1994 -- 9:26 AM	  -	  -	N/A%	30.04 in	5.0 mi	NE	3.5 mph	  -	N/A	Fog	Light Drizzle
163	10/31/1994 -- 9:40 AM	  -	  -	N/A%	30.04 in	5.0 mi	NW	4.6 mph	  -	N/A	Fog	Fog
164	10/31/1994 -- 10:00 AM	71.1 °F	64.0 °F	78%	30.03 in	5.0 mi	NNW	3.5 mph	  -	N/A	Fog	Fog
165	10/31/1994 -- 11:00 AM	73.0 °F	64.9 °F	76%	30.03 in	6.0 mi	NW	6.9 mph	  -	N/A	Fog	Fog
166	10/31/1994 -- 12:00 PM	73.9 °F	64.9 °F	73%	29.98 in	7.0 mi	NNE	4.6 mph	  -	N/A	"	 "	Overcast
167	10/31/1994 -- 12:10 PM	  -	  -	N/A%	29.97 in	7.0 mi	East	4.6 mph	  -	N/A	"	 "	Overcast
168	10/31/1994 -- 12:35 PM	  -	  -	N/A%	29.96 in	10.0 mi	South	4.6 mph	  -	N/A	"	 "	Overcast
169	10/31/1994 -- 1:00 PM	75.0 °F	64.9 °F	71%	29.94 in	10.0 mi	SSE	4.6 mph	  -	N/A	"	 "	Unknown
170	10/31/1994 -- 2:00 PM	75.9 °F	64.9 °F	69%	29.91 in	10.0 mi	SSW	6.9 mph	  -	N/A	"	 "	Unknown
171	10/31/1994 -- 3:00 PM	78.1 °F	63.0 °F	60%	29.87 in	10.0 mi	WSW	8.1 mph	  -	N/A	"	 "	Mostly Cloudy
172	10/31/1994 -- 4:00 PM	73.9 °F	63.0 °F	68%	29.87 in	10.0 mi	SW	9.2 mph	  -	N/A	"	 "	Mostly Cloudy
173	10/31/1994 -- 5:00 PM	73.0 °F	63.0 °F	71%	29.86 in	10.0 mi	SSW	5.8 mph	  -	N/A	"	 "	Mostly Cloudy
174	10/31/1994 -- 6:00 PM	68.0 °F	63.0 °F	84%	29.86 in	10.0 mi	South	3.5 mph	  -	N/A	"	 "	Mostly Cloudy
175	10/31/1994 -- 7:00 PM	66.0 °F	62.1 °F	87%	29.86 in	10.0 mi	Calm	Calm	  -	N/A	"	 "	Mostly Cloudy
176	10/31/1994 -- 8:00 PM	66.0 °F	63.0 °F	90%	29.85 in	10.0 mi	South	8.1 mph	  -	N/A	"	 "	Partly Cloudy
177	10/31/1994 -- 9:00 PM	66.0 °F	64.0 °F	93%	29.83 in	10.0 mi	South	6.9 mph	  -	N/A	"	 "	Overcast
178	10/31/1994 -- 10:00 PM	66.0 °F	64.0 °F	93%	29.81 in	9.0 mi	South	8.1 mph	  -	N/A	"	 "	Scattered Clouds
179	10/31/1994 -- 11:00 PM	64.9 °F	64.0 °F	97%	29.79 in	6.0 mi	South	8.1 mph	  -	N/A	"	 "	Smoke
180	4/14/1994 -- 12:00 AM	69.1 °F	62.1 °F	78%	29.85 in	15.0 mi	WSW	6.9 mph	  -	N/A	"	 "	Mostly Cloudy
181	4/14/1994 -- 1:00 AM	66.9 °F	57.0 °F	70%	29.87 in	10.0 mi	WSW	6.9 mph	  -	N/A	"	 "	Partly Cloudy
182	4/14/1994 -- 2:00 AM	64.0 °F	53.1 °F	67%	29.89 in	10.0 mi	West	6.9 mph	  -	N/A	"	 "	Partly Cloudy
183	4/14/1994 -- 3:00 AM	61.0 °F	51.1 °F	70%	29.89 in	10.0 mi	SW	6.9 mph	  -	N/A	"	 "	Partly Cloudy
184	4/14/1994 -- 4:00 AM	59.0 °F	48.0 °F	67%	29.90 in	10.0 mi	West	4.6 mph	  -	N/A	"	 "	Clear
185	4/14/1994 -- 5:00 AM	57.0 °F	46.9 °F	69%	29.91 in	10.0 mi	SW	4.6 mph	  -	N/A	"	 "	Clear
186	4/14/1994 -- 6:00 AM	55.0 °F	45.0 °F	69%	29.93 in	10.0 mi	WSW	5.8 mph	  -	N/A	"	 "	Partly Cloudy
187	4/14/1994 -- 7:00 AM	52.0 °F	44.1 °F	74%	29.97 in	10.0 mi	Calm	Calm	  -	N/A	"	 "	Mostly Cloudy
188	4/14/1994 -- 8:00 AM	57.0 °F	45.0 °F	64%	30.01 in	10.0 mi	West	4.6 mph	  -	N/A	"	 "	Partly Cloudy
189	4/14/1994 -- 9:00 AM	62.1 °F	45.0 °F	53%	30.04 in	10.0 mi	WSW	5.8 mph	  -	N/A	"	 "	Partly Cloudy
190	4/14/1994 -- 10:00 AM	70.0 °F	41.0 °F	35%	30.05 in	10.0 mi	WNW	4.6 mph	  -	N/A	"	 "	Mostly Cloudy
191	4/14/1994 -- 11:00 AM	72.0 °F	39.0 °F	30%	30.06 in	10.0 mi	WSW	5.8 mph	  -	N/A	"	 "	Mostly Cloudy
192	4/14/1994 -- 12:00 PM	75.0 °F	39.9 °F	28%	30.07 in	10.0 mi	WNW	4.6 mph	  -	N/A	"	 "	Partly Cloudy
193	4/14/1994 -- 1:00 PM	77.0 °F	39.9 °F	26%	30.06 in	10.0 mi	SW	5.8 mph	  -	N/A	"	 "	Partly Cloudy
194	4/14/1994 -- 2:00 PM	79.0 °F	39.9 °F	25%	30.03 in	10.0 mi	WNW	5.8 mph	  -	N/A	"	 "	Clear
195	4/14/1994 -- 3:00 PM	81.0 °F	42.1 °F	25%	30.04 in	10.0 mi	SSW	5.8 mph	  -	N/A	"	 "	Partly Cloudy
196	4/14/1994 -- 4:00 PM	81.0 °F	42.1 °F	25%	30.01 in	10.0 mi	South	9.2 mph	  -	N/A	"	 "	Partly Cloudy
197	4/14/1994 -- 5:00 PM	82.0 °F	39.9 °F	22%	30.00 in	10.0 mi	South	6.9 mph	  -	N/A	"	 "	Partly Cloudy
198	4/14/1994 -- 6:00 PM	81.0 °F	41.0 °F	24%	30.01 in	10.0 mi	South	5.8 mph	  -	N/A	"	 "	Partly Cloudy
199	4/14/1994 -- 7:00 PM	77.0 °F	43.0 °F	30%	30.01 in	10.0 mi	SSE	8.1 mph	  -	N/A	"	 "	Mostly Cloudy
200	4/14/1994 -- 8:00 PM	73.0 °F	43.0 °F	34%	30.03 in	10.0 mi	SSE	8.1 mph	  -	N/A	"	 "	Mostly Cloudy
201	4/14/1994 -- 9:00 PM	72.0 °F	42.1 °F	34%	30.06 in	10.0 mi	South	6.9 mph	  -	N/A	"	 "	Partly Cloudy
202	4/14/1994 -- 10:00 PM	69.1 °F	41.0 °F	36%	30.08 in	10.0 mi	South	6.9 mph	  -	N/A	"	 "	Partly Cloudy
203	4/14/1994 -- 11:00 PM	66.9 °F	39.9 °F	37%	30.10 in	10.0 mi	SSW	6.9 mph	  -	N/A	"	 "	Clear
204	9/26/1993 -- 12:00 AM	71.1 °F	70.0 °F	96%	30.02 in	6.0 mi	South	5.8 mph	  -	N/A	Fog	Fog
205	9/26/1993 -- 12:09 AM	  -	  -	N/A%	30.02 in	6.0 mi	South	8.1 mph	  -	N/A	Fog	Fog
206	9/26/1993 -- 1:00 AM	73.0 °F	70.0 °F	90%	29.99 in	5.0 mi	South	10.4 mph	  -	N/A	Fog	Fog
207	9/26/1993 -- 2:00 AM	73.9 °F	72.0 °F	93%	29.98 in	5.0 mi	SSW	10.4 mph	  -	N/A	Fog	Fog
208	9/26/1993 -- 3:00 AM	73.9 °F	72.0 °F	93%	29.96 in	5.0 mi	South	11.5 mph	  -	N/A	Fog	Fog
209	9/26/1993 -- 4:00 AM	73.0 °F	71.1 °F	93%	29.95 in	5.0 mi	SSW	10.4 mph	  -	N/A	Fog	Fog
210	9/26/1993 -- 4:38 AM	  -	  -	N/A%	29.96 in	5.0 mi	SSW	11.5 mph	18.4 mph	N/A	Fog	Fog
211	9/26/1993 -- 5:00 AM	73.9 °F	71.1 °F	91%	29.95 in	5.0 mi	South	11.5 mph	  -	N/A	Fog	Fog
212	9/26/1993 -- 6:00 AM	73.9 °F	71.1 °F	91%	29.96 in	6.0 mi	SSW	11.5 mph	  -	N/A	Fog	Fog
213	9/26/1993 -- 7:00 AM	73.9 °F	71.1 °F	91%	29.98 in	6.0 mi	SSW	10.4 mph	18.4 mph	N/A	Fog	Fog
214	9/26/1993 -- 8:00 AM	75.0 °F	71.1 °F	87%	29.99 in	6.0 mi	SSW	13.8 mph	  -	N/A	Fog	Fog
215	9/26/1993 -- 9:00 AM	75.9 °F	72.0 °F	87%	29.99 in	6.0 mi	SSW	10.4 mph	  -	N/A	Fog	Fog
216	9/26/1993 -- 10:00 AM	79.0 °F	72.0 °F	79%	29.99 in	7.0 mi	SSW	11.5 mph	  -	N/A	"	 "	Scattered Clouds
217	9/26/1993 -- 11:00 AM	82.0 °F	72.0 °F	71%	29.99 in	7.0 mi	SW	12.7 mph	  -	N/A	"	 "	Scattered Clouds
218	9/26/1993 -- 12:00 PM	84.9 °F	72.0 °F	65%	29.97 in	7.0 mi	SW	13.8 mph	  -	N/A	"	 "	Scattered Clouds
219	9/26/1993 -- 1:00 PM	86.0 °F	71.1 °F	61%	29.96 in	7.0 mi	SW	16.1 mph	24.2 mph	N/A	"	 "	Scattered Clouds
220	9/26/1993 -- 2:00 PM	89.1 °F	69.1 °F	52%	29.95 in	7.0 mi	SW	17.3 mph	24.2 mph	N/A	"	 "	Scattered Clouds
221	9/26/1993 -- 3:00 PM	89.1 °F	66.0 °F	46%	29.92 in	7.0 mi	WSW	16.1 mph	  -	N/A	"	 "	Scattered Clouds
222	9/26/1993 -- 4:00 PM	89.1 °F	69.1 °F	52%	29.91 in	7.0 mi	SSW	10.4 mph	18.4 mph	N/A	"	 "	Scattered Clouds
223	9/26/1993 -- 5:00 PM	87.1 °F	68.0 °F	53%	29.92 in	7.0 mi	SSW	13.8 mph	21.9 mph	N/A	"	 "	Scattered Clouds
224	9/26/1993 -- 6:00 PM	86.0 °F	69.1 °F	57%	29.92 in	7.0 mi	SW	8.1 mph	  -	N/A	"	 "	Clear
225	9/26/1993 -- 7:00 PM	81.0 °F	70.0 °F	69%	29.94 in	7.0 mi	SW	8.1 mph	  -	N/A	"	 "	Clear
226	9/26/1993 -- 8:00 PM	80.1 °F	68.0 °F	67%	29.94 in	7.0 mi	South	6.9 mph	  -	N/A	"	 "	Clear
227	9/26/1993 -- 9:00 PM	78.1 °F	68.0 °F	71%	29.95 in	7.0 mi	South	8.1 mph	  -	N/A	"	 "	Clear
228	9/26/1993 -- 10:00 PM	75.0 °F	68.0 °F	79%	29.96 in	7.0 mi	South	5.8 mph	  -	N/A	"	 "	Clear
229	9/26/1993 -- 11:00 PM	75.9 °F	70.0 °F	82%	29.98 in	7.0 mi	South	9.2 mph	  -	N/A	"	 "	Clear
230	3/10/1993 -- 12:00 AM	37.0 °F	32.0 °F	82%	30.11 in	15.0 mi	NE	4.6 mph	  -	N/A	"	 "	Scattered Clouds
231	3/10/1993 -- 1:00 AM	39.9 °F	33.1 °F	77%	30.13 in	15.0 mi	NE	5.8 mph	  -	N/A	"	 "	Mostly Cloudy
232	3/10/1993 -- 2:00 AM	43.0 °F	28.0 °F	56%	30.12 in	15.0 mi	ENE	8.1 mph	  -	N/A	"	 "	Partly Cloudy
233	3/10/1993 -- 3:00 AM	42.1 °F	27.0 °F	55%	30.12 in	15.0 mi	East	5.8 mph	  -	N/A	"	 "	Overcast
234	3/10/1993 -- 4:00 AM	43.0 °F	28.0 °F	56%	30.10 in	15.0 mi	ESE	8.1 mph	  -	N/A	"	 "	Mostly Cloudy
235	3/10/1993 -- 5:00 AM	39.9 °F	28.0 °F	63%	30.06 in	15.0 mi	ESE	9.2 mph	  -	N/A	"	 "	Mostly Cloudy
236	3/10/1993 -- 6:00 AM	39.9 °F	28.9 °F	65%	30.05 in	15.0 mi	ESE	10.4 mph	  -	N/A	"	 "	Scattered Clouds
237	3/10/1993 -- 7:00 AM	39.0 °F	30.0 °F	70%	30.05 in	15.0 mi	ENE	8.1 mph	  -	N/A	"	 "	Overcast
238	3/10/1993 -- 8:00 AM	42.1 °F	30.0 °F	62%	30.05 in	15.0 mi	East	11.5 mph	  -	N/A	"	 "	Overcast
239	3/10/1993 -- 9:00 AM	46.9 °F	30.9 °F	54%	30.01 in	15.0 mi	ESE	12.7 mph	  -	N/A	"	 "	Mostly Cloudy
240	3/10/1993 -- 10:00 AM	53.1 °F	33.1 °F	47%	29.98 in	15.0 mi	SSE	9.2 mph	  -	N/A	"	 "	Mostly Cloudy
241	3/10/1993 -- 11:00 AM	60.1 °F	41.0 °F	49%	29.92 in	15.0 mi	South	11.5 mph	  -	N/A	"	 "	Mostly Cloudy
242	3/10/1993 -- 12:00 PM	64.9 °F	45.0 °F	48%	29.88 in	15.0 mi	SSE	13.8 mph	  -	N/A	"	 "	Mostly Cloudy
243	3/10/1993 -- 1:00 PM	71.1 °F	46.0 °F	41%	29.80 in	15.0 mi	SSW	11.5 mph	  -	N/A	"	 "	Mostly Cloudy
244	3/10/1993 -- 2:00 PM	75.0 °F	39.9 °F	28%	29.74 in	15.0 mi	SW	18.4 mph	  -	N/A	"	 "	Mostly Cloudy
245	3/10/1993 -- 3:00 PM	78.1 °F	48.9 °F	36%	29.69 in	15.0 mi	SSW	26.5 mph	36.8 mph	N/A	"	 "	Clear
246	3/10/1993 -- 4:00 PM	78.1 °F	28.9 °F	17%	29.67 in	15.0 mi	SW	23.0 mph	42.6 mph	N/A	"	 "	Clear
247	3/10/1993 -- 5:00 PM	77.0 °F	34.0 °F	21%	29.65 in	15.0 mi	SW	24.2 mph	35.7 mph	N/A	"	 "	Clear
248	3/10/1993 -- 6:00 PM	73.9 °F	36.0 °F	25%	29.65 in	15.0 mi	SW	23.0 mph	35.7 mph	N/A	"	 "	Scattered Clouds
249	3/10/1993 -- 7:00 PM	72.0 °F	36.0 °F	27%	29.66 in	15.0 mi	SW	16.1 mph	23.0 mph	N/A	"	 "	Scattered Clouds
250	3/10/1993 -- 8:00 PM	71.1 °F	37.9 °F	30%	29.69 in	15.0 mi	WSW	17.3 mph	25.3 mph	N/A	"	 "	Scattered Clouds
251	3/10/1993 -- 9:00 PM	70.0 °F	39.0 °F	32%	29.70 in	8.0 mi	SW	16.1 mph	23.0 mph	N/A	"	 "	Mostly Cloudy
252	3/10/1993 -- 10:00 PM	68.0 °F	39.9 °F	36%	29.74 in	10.0 mi	NNW	11.5 mph	  -	N/A	"	 "	Mostly Cloudy
253	3/10/1993 -- 11:00 PM	57.0 °F	39.0 °F	51%	29.79 in	10.0 mi	North	10.4 mph	  -	N/A	"	 "	Scattered Clouds
254	8/22/1992 -- 12:00 AM	69.1 °F	63.0 °F	81%	30.27 in	7.0 mi	ESE	6.9 mph	  -	N/A	"	 "	Overcast
255	8/22/1992 -- 1:00 AM	68.0 °F	62.1 °F	81%	30.27 in	8.0 mi	ESE	6.9 mph	  -	N/A	"	 "	Overcast
256	8/22/1992 -- 2:00 AM	66.9 °F	61.0 °F	81%	30.27 in	8.0 mi	East	6.9 mph	  -	N/A	"	 "	Overcast
257	8/22/1992 -- 3:00 AM	66.0 °F	61.0 °F	84%	30.25 in	8.0 mi	Calm	Calm	  -	N/A	"	 "	Overcast
258	8/22/1992 -- 4:00 AM	66.0 °F	62.1 °F	87%	30.25 in	8.0 mi	Calm	Calm	  -	N/A	"	 "	Overcast
259	8/22/1992 -- 5:00 AM	64.9 °F	62.1 °F	90%	30.25 in	8.0 mi	NE	4.6 mph	  -	N/A	"	 "	Overcast
260	8/22/1992 -- 6:00 AM	64.0 °F	62.1 °F	93%	30.27 in	7.0 mi	NE	4.6 mph	  -	N/A	"	 "	Overcast
261	8/22/1992 -- 7:00 AM	63.0 °F	62.1 °F	97%	30.28 in	4.0 mi	Calm	Calm	  -	N/A	Fog	Fog
262	8/22/1992 -- 8:00 AM	64.9 °F	63.0 °F	93%	30.29 in	4.0 mi	Calm	Calm	  -	N/A	Fog	Fog
263	8/22/1992 -- 9:00 AM	69.1 °F	63.0 °F	81%	30.30 in	5.0 mi	East	8.1 mph	  -	N/A	"	 "	Drizzle
264	8/22/1992 -- 10:00 AM	73.0 °F	63.0 °F	71%	30.31 in	6.0 mi	ENE	5.8 mph	  -	N/A	"	 "	Drizzle
265	8/22/1992 -- 11:00 AM	75.0 °F	62.1 °F	64%	30.30 in	6.0 mi	East	9.2 mph	  -	N/A	"	 "	Drizzle
266	8/22/1992 -- 12:00 PM	75.9 °F	62.1 °F	62%	30.30 in	6.0 mi	ENE	10.4 mph	  -	N/A	"	 "	Drizzle
267	8/22/1992 -- 1:00 PM	78.1 °F	63.0 °F	60%	30.29 in	6.0 mi	NE	11.5 mph	  -	N/A	"	 "	Drizzle
268	8/22/1992 -- 2:00 PM	78.1 °F	64.0 °F	62%	30.27 in	6.0 mi	NE	9.2 mph	  -	N/A	"	 "	Drizzle
269	8/22/1992 -- 3:00 PM	78.1 °F	64.0 °F	62%	30.27 in	6.0 mi	NE	9.2 mph	  -	N/A	"	 "	Drizzle
270	8/22/1992 -- 4:00 PM	79.0 °F	64.0 °F	60%	30.25 in	6.0 mi	East	9.2 mph	  -	N/A	"	 "	Drizzle
271	8/22/1992 -- 5:00 PM	78.1 °F	64.0 °F	62%	30.24 in	7.0 mi	East	8.1 mph	  -	N/A	"	 "	Overcast
272	8/22/1992 -- 6:00 PM	78.1 °F	62.1 °F	58%	30.25 in	8.0 mi	East	9.2 mph	  -	N/A	"	 "	Mostly Cloudy
273	8/22/1992 -- 7:00 PM	73.9 °F	64.0 °F	71%	30.26 in	10.0 mi	ESE	5.8 mph	  -	N/A	"	 "	Mostly Cloudy
274	8/22/1992 -- 8:00 PM	72.0 °F	64.0 °F	76%	30.26 in	10.0 mi	East	5.8 mph	  -	N/A	"	 "	Mostly Cloudy
275	8/22/1992 -- 9:00 PM	71.1 °F	63.0 °F	75%	30.27 in	10.0 mi	ENE	5.8 mph	  -	N/A	"	 "	Mostly Cloudy
276	8/22/1992 -- 10:00 PM	70.0 °F	64.0 °F	81%	30.27 in	10.0 mi	ENE	6.9 mph	  -	N/A	"	 "	Overcast
277	8/22/1992 -- 11:00 PM	70.0 °F	63.0 °F	78%	30.27 in	10.0 mi	ENE	5.8 mph	  -	N/A	"	 "	Overcast
278	2/4/1992 -- 12:00 AM	44.1 °F	24.1 °F	45%	30.01 in	15.0 mi	ESE	10.4 mph	  -	N/A	"	 "	Overcast
279	2/4/1992 -- 1:00 AM	43.0 °F	23.0 °F	45%	30.03 in	15.0 mi	SSW	3.5 mph	  -	N/A	"	 "	Partly Cloudy
280	2/4/1992 -- 2:00 AM	37.9 °F	24.1 °F	57%	30.01 in	15.0 mi	Calm	Calm	  -	N/A	"	 "	Partly Cloudy
281	2/4/1992 -- 3:00 AM	35.1 °F	25.0 °F	67%	30.00 in	15.0 mi	NNE	3.5 mph	  -	N/A	"	 "	Scattered Clouds
282	2/4/1992 -- 4:00 AM	36.0 °F	24.1 °F	62%	29.99 in	15.0 mi	ESE	5.8 mph	  -	N/A	"	 "	Scattered Clouds
283	2/4/1992 -- 5:00 AM	35.1 °F	25.0 °F	67%	29.98 in	15.0 mi	ESE	4.6 mph	  -	N/A	"	 "	Partly Cloudy
284	2/4/1992 -- 6:00 AM	35.1 °F	25.0 °F	67%	29.99 in	15.0 mi	Calm	Calm	  -	N/A	"	 "	Scattered Clouds
285	2/4/1992 -- 7:00 AM	30.9 °F	25.0 °F	79%	29.99 in	15.0 mi	Calm	Calm	  -	N/A	"	 "	Clear
286	2/4/1992 -- 8:00 AM	34.0 °F	27.0 °F	75%	29.99 in	15.0 mi	NNW	3.5 mph	  -	N/A	"	 "	Clear
287	2/4/1992 -- 9:00 AM	39.9 °F	26.1 °F	58%	29.99 in	10.0 mi	North	5.8 mph	  -	N/A	"	 "	Partly Cloudy
288	2/4/1992 -- 10:00 AM	46.9 °F	27.0 °F	46%	29.97 in	10.0 mi	NNW	3.5 mph	  -	N/A	"	 "	Unknown
289	2/4/1992 -- 11:00 AM	55.0 °F	28.0 °F	35%	29.94 in	10.0 mi	WSW	4.6 mph	  -	N/A	"	 "	Partly Cloudy
290	2/4/1992 -- 12:00 PM	60.1 °F	26.1 °F	27%	29.90 in	10.0 mi	WSW	6.9 mph	  -	N/A	"	 "	Partly Cloudy
291	2/4/1992 -- 1:00 PM	64.9 °F	25.0 °F	22%	29.86 in	10.0 mi	SW	11.5 mph	  -	N/A	"	 "	Clear
292	2/4/1992 -- 2:00 PM	68.0 °F	26.1 °F	21%	29.82 in	10.0 mi	SW	12.7 mph	  -	N/A	"	 "	Clear
293	2/4/1992 -- 3:00 PM	69.1 °F	25.0 °F	19%	29.78 in	10.0 mi	WSW	15.0 mph	  -	N/A	"	 "	Clear
294	2/4/1992 -- 4:00 PM	70.0 °F	24.1 °F	18%	29.75 in	10.0 mi	WSW	12.7 mph	  -	N/A	"	 "	Clear
295	2/4/1992 -- 5:00 PM	66.0 °F	24.1 °F	20%	29.74 in	10.0 mi	SW	16.1 mph	  -	N/A	"	 "	Partly Cloudy
296	2/4/1992 -- 6:00 PM	62.1 °F	27.0 °F	26%	29.75 in	10.0 mi	SW	11.5 mph	  -	N/A	"	 "	Partly Cloudy
297	2/4/1992 -- 7:00 PM	59.0 °F	27.0 °F	29%	29.76 in	10.0 mi	SW	9.2 mph	  -	N/A	"	 "	Partly Cloudy
298	2/4/1992 -- 8:00 PM	57.0 °F	28.0 °F	33%	29.76 in	10.0 mi	SW	9.2 mph	  -	N/A	"	 "	Partly Cloudy
299	2/4/1992 -- 9:00 PM	54.0 °F	28.0 °F	37%	29.76 in	10.0 mi	SW	8.1 mph	  -	N/A	"	 "	Partly Cloudy
300	2/4/1992 -- 10:00 PM	52.0 °F	28.0 °F	40%	29.76 in	10.0 mi	WSW	10.4 mph	  -	N/A	"	 "	Mostly Cloudy
301	2/4/1992 -- 11:00 PM	53.1 °F	28.0 °F	38%	29.77 in	10.0 mi	WSW	8.1 mph	  -	N/A	"	 "	Mostly Cloudy
302	7/19/1991 -- 12:00 AM	71.1 °F	70.0 °F	96%	30.09 in	7.0 mi	SSW	4.6 mph	  -	N/A	"	 "	Mostly Cloudy
303	7/19/1991 -- 1:00 AM	71.1 °F	70.0 °F	96%	30.08 in	7.0 mi	SSW	5.8 mph	  -	N/A	"	 "	Mostly Cloudy
304	7/19/1991 -- 2:00 AM	70.0 °F	69.1 °F	97%	30.08 in	6.0 mi	SSW	4.6 mph	  -	N/A	Fog	Fog
305	7/19/1991 -- 3:00 AM	70.0 °F	69.1 °F	97%	30.09 in	6.0 mi	South	3.5 mph	  -	N/A	Fog	Fog
306	7/19/1991 -- 4:00 AM	71.1 °F	70.0 °F	96%	30.09 in	5.0 mi	South	4.6 mph	  -	N/A	Fog	Fog
307	7/19/1991 -- 4:28 AM	  -	  -	N/A%	30.11 in	5.0 mi	South	4.6 mph	  -	N/A	Fog	Fog
308	7/19/1991 -- 5:00 AM	72.0 °F	71.1 °F	97%	30.10 in	5.0 mi	South	6.9 mph	  -	N/A	Fog	Fog
309	7/19/1991 -- 6:00 AM	72.0 °F	71.1 °F	97%	30.11 in	5.0 mi	South	6.9 mph	  -	N/A	Fog	Fog
310	7/19/1991 -- 6:07 AM	  -	  -	N/A%	30.12 in	4.0 mi	SSW	9.2 mph	  -	N/A	Fog	Fog
311	7/19/1991 -- 6:24 AM	  -	  -	N/A%	30.12 in	2.0 mi	SW	9.2 mph	  -	N/A	Fog	Fog
312	7/19/1991 -- 7:00 AM	73.0 °F	72.0 °F	96%	30.11 in	2.0 mi	SW	8.1 mph	  -	N/A	Fog	Fog
313	7/19/1991 -- 8:00 AM	73.9 °F	72.0 °F	93%	30.12 in	2.0 mi	SW	9.2 mph	  -	N/A	Fog	Fog
314	7/19/1991 -- 9:00 AM	75.0 °F	73.0 °F	94%	30.13 in	4.0 mi	SSW	9.2 mph	  -	N/A	Fog	Fog
315	7/19/1991 -- 10:00 AM	77.0 °F	72.0 °F	84%	30.13 in	5.0 mi	SW	12.7 mph	  -	N/A	Fog	Fog
316	7/19/1991 -- 11:00 AM	80.1 °F	73.0 °F	79%	30.13 in	7.0 mi	SSW	8.1 mph	  -	N/A	"	 "	Mostly Cloudy
317	7/19/1991 -- 12:00 PM	82.9 °F	73.9 °F	74%	30.13 in	7.0 mi	WSW	11.5 mph	  -	N/A	"	 "	Mostly Cloudy
318	7/19/1991 -- 1:00 PM	84.9 °F	75.0 °F	72%	30.12 in	7.0 mi	South	6.9 mph	  -	N/A	"	 "	Scattered Clouds
319	7/19/1991 -- 2:00 PM	86.0 °F	73.9 °F	67%	30.10 in	7.0 mi	South	11.5 mph	  -	N/A	"	 "	Mostly Cloudy
320	7/19/1991 -- 3:00 PM	84.9 °F	73.9 °F	69%	30.10 in	7.0 mi	South	12.7 mph	  -	N/A	"	 "	Mostly Cloudy
321	7/19/1991 -- 4:00 PM	86.0 °F	73.9 °F	67%	30.09 in	7.0 mi	South	10.4 mph	  -	N/A	Rain	Light Rain Showers
322	7/19/1991 -- 5:00 PM	87.1 °F	73.9 °F	65%	30.08 in	7.0 mi	SSW	11.5 mph	  -	N/A	"	 "	Scattered Clouds
323	7/19/1991 -- 6:00 PM	84.9 °F	72.0 °F	65%	30.06 in	7.0 mi	SSW	6.9 mph	  -	N/A	"	 "	Scattered Clouds
324	7/19/1991 -- 7:00 PM	84.0 °F	75.0 °F	74%	30.06 in	7.0 mi	South	4.6 mph	  -	N/A	"	 "	Mostly Cloudy
325	7/19/1991 -- 8:00 PM	82.0 °F	75.0 °F	79%	30.06 in	7.0 mi	South	9.2 mph	  -	N/A	"	 "	Mostly Cloudy
326	7/19/1991 -- 9:00 PM	80.1 °F	73.0 °F	79%	30.09 in	10.0 mi	SSW	10.4 mph	  -	N/A	"	 "	Mostly Cloudy
327	7/19/1991 -- 10:00 PM	78.1 °F	73.0 °F	84%	30.12 in	10.0 mi	SSW	6.9 mph	  -	N/A	"	 "	Overcast
328	7/19/1991 -- 11:00 PM	77.0 °F	73.0 °F	88%	30.13 in	10.0 mi	South	6.9 mph	  -	N/A	"	 "	Overcast
329	12/31/1990 -- 12:00 AM	69.1 °F	64.0 °F	84%	30.01 in	10.0 mi	SW	17.3 mph	  -	N/A	"	 "	Overcast
330	12/31/1990 -- 1:00 AM	69.1 °F	63.0 °F	81%	29.99 in	10.0 mi	SSW	10.4 mph	  -	N/A	"	 "	Mostly Cloudy
331	12/31/1990 -- 2:00 AM	69.1 °F	64.0 °F	84%	29.99 in	5.0 mi	SSW	11.5 mph	20.7 mph	N/A	Rain	Light Rain Showers
332	12/31/1990 -- 2:17 AM	  -	  -	N/A%	30.01 in	6.0 mi	SSW	11.5 mph	  -	N/A	Rain	Light Rain Showers
333	12/31/1990 -- 3:00 AM	68.0 °F	64.0 °F	87%	30.01 in	7.0 mi	SSW	11.5 mph	  -	0.01 in	Rain	Light Rain Showers
334	12/31/1990 -- 4:00 AM	66.9 °F	63.0 °F	87%	30.02 in	7.0 mi	WSW	10.4 mph	  -	0.03 in	Rain	Light Rain Showers
335	12/31/1990 -- 5:00 AM	64.9 °F	63.0 °F	93%	30.01 in	7.0 mi	WSW	5.8 mph	  -	N/A	Rain	Light Rain Showers
336	12/31/1990 -- 6:00 AM	64.9 °F	62.1 °F	90%	30.06 in	10.0 mi	NW	12.7 mph	  -	0.02 in	Rain	Light Rain Showers
337	12/31/1990 -- 6:07 AM	  -	  -	N/A%	30.09 in	7.0 mi	NW	12.7 mph	  -	N/A	Rain	Light Rain
338	12/31/1990 -- 6:38 AM	  -	  -	N/A%	30.11 in	10.0 mi	NNW	13.8 mph	  -	N/A	"	 "	Overcast
339	12/31/1990 -- 7:00 AM	62.1 °F	57.9 °F	86%	30.12 in	10.0 mi	NW	10.4 mph	  -	N/A	"	 "	Overcast
340	12/31/1990 -- 8:00 AM	57.0 °F	46.9 °F	69%	30.16 in	10.0 mi	NW	10.4 mph	  -	N/A	"	 "	Overcast
341	12/31/1990 -- 9:00 AM	54.0 °F	42.1 °F	64%	30.21 in	10.0 mi	NNW	13.8 mph	  -	N/A	"	 "	Overcast
342	12/31/1990 -- 10:00 AM	53.1 °F	39.0 °F	59%	30.26 in	10.0 mi	North	15.0 mph	  -	N/A	"	 "	Overcast
343	12/31/1990 -- 11:00 AM	51.1 °F	37.9 °F	61%	30.29 in	10.0 mi	NNE	12.7 mph	  -	N/A	"	 "	Mostly Cloudy
344	12/31/1990 -- 12:00 PM	54.0 °F	34.0 °F	47%	30.30 in	10.0 mi	North	15.0 mph	  -	N/A	"	 "	Mostly Cloudy
345	12/31/1990 -- 1:00 PM	55.9 °F	32.0 °F	40%	30.29 in	15.0 mi	North	16.1 mph	  -	N/A	"	 "	Mostly Cloudy
346	12/31/1990 -- 2:00 PM	57.0 °F	30.0 °F	36%	30.30 in	15.0 mi	North	9.2 mph	  -	N/A	"	 "	Mostly Cloudy
347	12/31/1990 -- 3:00 PM	55.9 °F	30.0 °F	37%	30.31 in	15.0 mi	North	10.4 mph	  -	N/A	"	 "	Mostly Cloudy
348	12/31/1990 -- 4:00 PM	53.1 °F	28.0 °F	38%	30.32 in	15.0 mi	North	11.5 mph	  -	N/A	"	 "	Mostly Cloudy
349	12/31/1990 -- 5:00 PM	51.1 °F	28.0 °F	41%	30.35 in	15.0 mi	NNW	10.4 mph	  -	N/A	"	 "	Mostly Cloudy
350	12/31/1990 -- 6:00 PM	46.9 °F	28.0 °F	48%	30.38 in	15.0 mi	NNW	9.2 mph	  -	N/A	"	 "	Mostly Cloudy
351	12/31/1990 -- 7:00 PM	46.9 °F	28.9 °F	50%	30.41 in	15.0 mi	North	9.2 mph	  -	N/A	"	 "	Mostly Cloudy
352	12/31/1990 -- 8:00 PM	45.0 °F	27.0 °F	49%	30.44 in	15.0 mi	North	8.1 mph	  -	N/A	"	 "	Mostly Cloudy
353	12/31/1990 -- 9:00 PM	43.0 °F	28.0 °F	56%	30.47 in	15.0 mi	NNE	9.2 mph	  -	N/A	"	 "	Overcast
354	12/31/1990 -- 10:00 PM	43.0 °F	27.0 °F	53%	30.48 in	15.0 mi	North	12.7 mph	  -	N/A	"	 "	Overcast
355	12/31/1990 -- 11:00 PM	41.0 °F	26.1 °F	55%	30.51 in	15.0 mi	North	11.5 mph	  -	N/A	"	 "	Mostly Cloudy
356	12/31/1990 -- 11:25 PM	  -	  -	N/A%	30.50 in	15.0 mi	NNE	9.2 mph	  -	N/A	"	 "	Overcast
357	6/14/1990 -- 12:00 AM	64.0 °F	60.1 °F	87%	30.12 in	10.0 mi	ESE	4.6 mph	  -	N/A	"	 "	Mostly Cloudy
358	6/14/1990 -- 1:00 AM	63.0 °F	60.1 °F	90%	30.10 in	10.0 mi	ESE	3.5 mph	  -	N/A	"	 "	Partly Cloudy
359	6/14/1990 -- 2:00 AM	63.0 °F	61.0 °F	93%	30.09 in	8.0 mi	Calm	Calm	  -	N/A	"	 "	Clear
360	6/14/1990 -- 3:00 AM	63.0 °F	60.1 °F	90%	30.08 in	8.0 mi	Calm	Calm	  -	N/A	"	 "	Clear
361	6/14/1990 -- 4:00 AM	62.1 °F	60.1 °F	93%	30.08 in	7.0 mi	Calm	Calm	  -	N/A	"	 "	Mostly Cloudy
362	6/14/1990 -- 5:00 AM	62.1 °F	60.1 °F	93%	30.07 in	6.0 mi	Calm	Calm	  -	N/A	Fog	Fog
363	6/14/1990 -- 6:00 AM	61.0 °F	61.0 °F	100%	30.07 in	5.0 mi	Calm	Calm	  -	N/A	Fog	Fog
364	6/14/1990 -- 7:00 AM	63.0 °F	61.0 °F	93%	30.06 in	4.0 mi	Calm	Calm	  -	N/A	Fog	Fog
365	6/14/1990 -- 8:00 AM	68.0 °F	62.1 °F	81%	30.07 in	4.0 mi	South	4.6 mph	  -	N/A	"	 "	Drizzle
366	6/14/1990 -- 9:00 AM	73.0 °F	63.0 °F	71%	30.07 in	5.0 mi	West	6.9 mph	  -	N/A	"	 "	Drizzle
367	6/14/1990 -- 10:00 AM	77.0 °F	64.9 °F	66%	30.06 in	5.0 mi	West	6.9 mph	  -	N/A	"	 "	Drizzle
368	6/14/1990 -- 11:00 AM	81.0 °F	66.0 °F	60%	30.04 in	5.0 mi	West	5.8 mph	  -	N/A	"	 "	Drizzle
369	6/14/1990 -- 12:00 PM	86.0 °F	64.9 °F	49%	30.02 in	5.0 mi	NNW	9.2 mph	  -	N/A	"	 "	Drizzle
370	6/14/1990 -- 1:00 PM	88.0 °F	66.0 °F	48%	30.01 in	5.0 mi	North	10.4 mph	  -	N/A	"	 "	Drizzle
371	6/14/1990 -- 2:00 PM	87.1 °F	64.9 °F	48%	30.00 in	5.0 mi	North	10.4 mph	  -	N/A	"	 "	Drizzle
372	6/14/1990 -- 3:00 PM	87.1 °F	63.0 °F	44%	29.98 in	5.0 mi	North	6.9 mph	  -	N/A	"	 "	Drizzle
373	6/14/1990 -- 4:00 PM	88.0 °F	66.0 °F	48%	29.96 in	5.0 mi	NNE	8.1 mph	  -	N/A	"	 "	Drizzle
374	6/14/1990 -- 5:00 PM	88.0 °F	64.0 °F	45%	29.94 in	5.0 mi	ENE	9.2 mph	  -	N/A	"	 "	Drizzle
375	6/14/1990 -- 6:00 PM	88.0 °F	64.0 °F	45%	29.92 in	3.0 mi	North	6.9 mph	  -	N/A	"	 "	Drizzle
376	6/14/1990 -- 7:00 PM	86.0 °F	64.0 °F	48%	29.91 in	3.0 mi	NE	4.6 mph	  -	N/A	"	 "	Drizzle
377	6/14/1990 -- 8:00 PM	82.0 °F	66.0 °F	58%	29.89 in	3.0 mi	East	3.5 mph	  -	N/A	"	 "	Drizzle
378	6/14/1990 -- 9:00 PM	75.9 °F	69.1 °F	79%	29.90 in	3.0 mi	ESE	4.6 mph	  -	N/A	"	 "	Drizzle
379	6/14/1990 -- 10:00 PM	73.9 °F	68.0 °F	82%	29.92 in	3.0 mi	ESE	3.5 mph	  -	N/A	"	 "	Drizzle
380	6/14/1990 -- 11:00 PM	72.0 °F	66.9 °F	84%	29.92 in	3.0 mi	ESE	4.6 mph	  -	N/A	"	 "	Drizzle
381	11/26/1989 -- 12:00 AM	48.0 °F	39.0 °F	71%	30.12 in	15.0 mi	West	5.8 mph	  -	N/A	"	 "	Overcast
382	11/26/1989 -- 1:00 AM	46.0 °F	39.0 °F	76%	30.10 in	15.0 mi	South	4.6 mph	  -	N/A	"	 "	Overcast
383	11/26/1989 -- 2:00 AM	46.9 °F	39.9 °F	77%	30.09 in	10.0 mi	South	6.9 mph	  -	N/A	"	 "	Overcast
384	11/26/1989 -- 3:00 AM	46.9 °F	39.9 °F	77%	30.07 in	10.0 mi	South	6.9 mph	  -	N/A	"	 "	Overcast
385	11/26/1989 -- 4:00 AM	46.9 °F	39.9 °F	77%	30.04 in	10.0 mi	South	5.8 mph	  -	N/A	"	 "	Overcast
386	11/26/1989 -- 5:00 AM	48.0 °F	41.0 °F	77%	30.03 in	10.0 mi	SSW	6.9 mph	  -	N/A	"	 "	Overcast
387	11/26/1989 -- 6:00 AM	48.9 °F	42.1 °F	77%	30.01 in	10.0 mi	South	8.1 mph	  -	N/A	"	 "	Overcast
388	11/26/1989 -- 7:00 AM	48.9 °F	43.0 °F	80%	30.01 in	10.0 mi	SW	8.1 mph	  -	N/A	"	 "	Overcast
389	11/26/1989 -- 8:00 AM	50.0 °F	45.0 °F	83%	30.02 in	10.0 mi	SW	8.1 mph	  -	N/A	"	 "	Overcast
390	11/26/1989 -- 9:00 AM	52.0 °F	46.0 °F	80%	30.01 in	10.0 mi	SSW	9.2 mph	  -	N/A	"	 "	Overcast
391	11/26/1989 -- 10:00 AM	55.0 °F	48.0 °F	77%	30.02 in	10.0 mi	SSW	12.7 mph	  -	N/A	"	 "	Overcast
392	11/26/1989 -- 11:00 AM	60.1 °F	50.0 °F	69%	30.01 in	10.0 mi	SW	13.8 mph	  -	N/A	"	 "	Overcast
393	11/26/1989 -- 12:00 PM	64.0 °F	51.1 °F	63%	29.97 in	10.0 mi	SW	15.0 mph	  -	N/A	"	 "	Overcast
394	11/26/1989 -- 1:00 PM	64.0 °F	51.1 °F	63%	29.98 in	10.0 mi	WSW	12.7 mph	  -	N/A	"	 "	Overcast
395	11/26/1989 -- 2:00 PM	66.0 °F	52.0 °F	60%	29.97 in	7.0 mi	WSW	10.4 mph	  -	N/A	"	 "	Overcast
396	11/26/1989 -- 3:00 PM	64.9 °F	52.0 °F	63%	29.97 in	7.0 mi	WSW	9.2 mph	  -	N/A	"	 "	Mostly Cloudy
397	11/26/1989 -- 4:00 PM	64.0 °F	52.0 °F	65%	29.99 in	7.0 mi	SSW	6.9 mph	  -	N/A	"	 "	Overcast
398	11/26/1989 -- 5:00 PM	61.0 °F	52.0 °F	72%	30.00 in	7.0 mi	South	5.8 mph	  -	N/A	"	 "	Overcast
399	11/26/1989 -- 6:00 PM	60.1 °F	52.0 °F	75%	30.02 in	10.0 mi	Calm	Calm	  -	N/A	"	 "	Overcast
400	11/26/1989 -- 7:00 PM	60.1 °F	52.0 °F	75%	30.04 in	10.0 mi	Calm	Calm	  -	N/A	"	 "	Overcast
401	11/26/1989 -- 8:00 PM	59.0 °F	53.1 °F	81%	30.05 in	10.0 mi	South	3.5 mph	  -	N/A	"	 "	Overcast
402	11/26/1989 -- 9:00 PM	57.0 °F	53.1 °F	87%	30.05 in	10.0 mi	Calm	Calm	  -	N/A	"	 "	Overcast
403	11/26/1989 -- 10:00 PM	55.0 °F	52.0 °F	89%	30.07 in	10.0 mi	SSW	3.5 mph	  -	N/A	"	 "	Overcast
404	11/26/1989 -- 11:00 PM	52.0 °F	51.1 °F	97%	30.08 in	7.0 mi	Calm	Calm	  -	N/A	"	 "	Scattered Clouds
405	5/10/1989 -- 12:00 AM	57.0 °F	93%	29.79 in	4.0 mi	SSE	12.7 mph	  -	0.09 in	Fog	"	,"	Rain
406	5/10/1989 -- 1:00 AM	57.9 °F	97%	29.78 in	2.0 mi	SSE	11.5 mph	  -	0.17 in	Fog	"	,"	Rain
407	5/10/1989 -- 2:00 AM	59.0 °F	96%	29.75 in	2.0 mi	SSE	11.5 mph	  -	0.23 in	Fog	"	,"	Rain
408	5/10/1989 -- 2:15 AM	  -	N/A%	29.74 in	2.0 mi	South	18.4 mph	  -	N/A	Fog	"	,"	Rain
409	5/10/1989 -- 3:00 AM	60.1 °F	96%	29.72 in	5.0 mi	South	6.9 mph	  -	0.02 in	Fog	"	,"	Rain
410	5/10/1989 -- 4:00 AM	60.1 °F	100%	29.71 in	5.0 mi	SSW	6.9 mph	  -	0.01 in	Fog	"	,"	Rain
411	5/10/1989 -- 5:00 AM	60.1 °F	60.1 °F	100%	29.70 in	1.0 mi	West	6.9 mph	  -	N/A	Fog	Fog
412	5/10/1989 -- 6:00 AM	59.0 °F	57.9 °F	96%	29.71 in	0.5 mi	West	6.9 mph	  -	N/A	Fog	Fog
413	5/10/1989 -- 7:00 AM	59.0 °F	57.9 °F	96%	29.72 in	0.5 mi	NW	11.5 mph	  -	N/A	Fog	Fog
414	5/10/1989 -- 7:10 AM	  -	  -	N/A%	29.72 in	0.5 mi	NW	8.1 mph	  -	N/A	Fog	Fog
415	5/10/1989 -- 8:00 AM	57.9 °F	57.0 °F	97%	29.72 in	5.5 mi	North	6.9 mph	  -	N/A	Fog	Fog
416	5/10/1989 -- 9:00 AM	57.9 °F	55.9 °F	93%	29.74 in	10.5 mi	NNW	9.2 mph	  -	N/A	Fog	Fog
417	5/10/1989 -- 9:31 AM	  -	  -	N/A%	29.75 in	4.0 mi	NNW	11.5 mph	  -	N/A	Fog	Fog
418	5/10/1989 -- 10:00 AM	57.9 °F	55.0 °F	90%	29.75 in	6.0 mi	North	11.5 mph	  -	N/A	Fog	Fog
419	5/10/1989 -- 10:30 AM	  -	  -	N/A%	29.75 in	6.0 mi	North	11.5 mph	  -	N/A	Fog	Fog
420	5/10/1989 -- 10:40 AM	  -	  -	N/A%	29.76 in	6.0 mi	NW	11.5 mph	  -	N/A	Fog	Fog
421	5/10/1989 -- 11:00 AM	60.1 °F	53.1 °F	78%	29.76 in	7.0 mi	NNW	16.1 mph	  -	N/A	"	 "	Overcast
422	5/10/1989 -- 11:15 AM	  -	  -	N/A%	29.76 in	7.0 mi	North	11.5 mph	  -	N/A	"	 "	Overcast
423	5/10/1989 -- 12:00 PM	62.1 °F	53.1 °F	72%	29.76 in	7.0 mi	NNW	11.5 mph	  -	N/A	"	 "	Overcast
424	5/10/1989 -- 1:00 PM	64.9 °F	53.1 °F	65%	29.73 in	7.0 mi	NNW	13.8 mph	  -	N/A	"	 "	Overcast
425	5/10/1989 -- 1:01 PM	  -	  -	N/A%	29.73 in	7.0 mi	West	12.7 mph	  -	N/A	"	 "	Overcast
426	5/10/1989 -- 2:00 PM	66.0 °F	50.0 °F	56%	29.73 in	7.0 mi	West	11.5 mph	  -	N/A	"	 "	Overcast
427	5/10/1989 -- 3:00 PM	66.0 °F	48.9 °F	54%	29.72 in	7.0 mi	NNW	16.1 mph	  -	N/A	"	 "	Mostly Cloudy
428	5/10/1989 -- 4:00 PM	66.9 °F	46.9 °F	49%	29.73 in	7.0 mi	WNW	19.6 mph	24.2 mph	N/A	"	 "	Overcast
429	5/10/1989 -- 5:00 PM	64.9 °F	46.9 °F	52%	29.74 in	7.0 mi	NW	17.3 mph	23.0 mph	N/A	"	 "	Scattered Clouds
430	5/10/1989 -- 6:00 PM	62.1 °F	44.1 °F	52%	29.75 in	7.0 mi	WNW	13.8 mph	  -	N/A	"	 "	Scattered Clouds
431	5/10/1989 -- 7:00 PM	62.1 °F	44.1 °F	52%	29.76 in	7.0 mi	WNW	15.0 mph	20.7 mph	N/A	"	 "	Scattered Clouds
432	5/10/1989 -- 8:00 PM	57.0 °F	43.0 °F	59%	29.78 in	7.0 mi	WNW	12.7 mph	  -	N/A	"	 "	Scattered Clouds
433	5/10/1989 -- 9:00 PM	57.0 °F	43.0 °F	59%	29.78 in	7.0 mi	WNW	12.7 mph	  -	N/A	"	 "	Scattered Clouds
434	5/10/1989 -- 10:00 PM	55.0 °F	44.1 °F	67%	29.78 in	7.0 mi	WNW	8.1 mph	  -	N/A	"	 "	Scattered Clouds
435	5/10/1989 -- 11:00 PM	54.0 °F	43.0 °F	66%	29.80 in	7.0 mi	WNW	9.2 mph	  -	N/A	"	 "	Scattered Clouds
436	10/22/1988 -- 12:00 AM	48.0 °F	46.0 °F	93%	29.81 in	5.0 mi	West	11.5 mph	  -	N/A	Fog	Fog
437	10/22/1988 -- 1:00 AM	48.0 °F	45.0 °F	89%	29.79 in	5.0 mi	WSW	10.4 mph	  -	N/A	Fog	Fog
438	10/22/1988 -- 2:00 AM	48.0 °F	46.0 °F	93%	29.78 in	5.0 mi	WSW	9.2 mph	  -	N/A	Fog	Fog
439	10/22/1988 -- 3:00 AM	46.9 °F	46.0 °F	97%	29.76 in	4.0 mi	WSW	12.7 mph	  -	N/A	Fog	Fog
440	10/22/1988 -- 4:00 AM	46.9 °F	46.0 °F	97%	29.74 in	4.0 mi	WSW	9.2 mph	  -	N/A	Fog	Fog
441	10/22/1988 -- 5:00 AM	46.0 °F	45.0 °F	96%	29.73 in	3.2 mi	WSW	6.9 mph	  -	N/A	Fog	Fog
442	10/22/1988 -- 5:13 AM	  -	  -	N/A%	29.72 in	3.2 mi	WSW	6.9 mph	  -	N/A	Fog	Fog
443	10/22/1988 -- 6:00 AM	44.1 °F	43.0 °F	96%	29.73 in	3.2 mi	WSW	5.8 mph	  -	N/A	Fog	Fog
444	10/22/1988 -- 6:39 AM	  -	  -	N/A%	29.72 in	3.2 mi	SW	5.8 mph	  -	N/A	Fog	Fog
445	10/22/1988 -- 7:00 AM	43.0 °F	42.1 °F	97%	29.73 in	3.2 mi	SW	5.8 mph	  -	N/A	Fog	Fog
446	10/22/1988 -- 7:36 AM	  -	  -	N/A%	29.73 in	3.0 mi	WSW	6.9 mph	  -	N/A	Fog	Fog
447	10/22/1988 -- 8:00 AM	42.1 °F	42.1 °F	100%	29.74 in	3.0 mi	WSW	5.8 mph	  -	N/A	Fog	Fog
448	10/22/1988 -- 9:00 AM	48.9 °F	45.0 °F	86%	29.75 in	6.0 mi	West	12.7 mph	  -	N/A	Fog	Fog
449	10/22/1988 -- 10:00 AM	52.0 °F	44.1 °F	74%	29.76 in	7.0 mi	West	10.4 mph	  -	N/A	"	 "	Mostly Cloudy
450	10/22/1988 -- 11:00 AM	55.9 °F	44.1 °F	64%	29.75 in	7.0 mi	West	13.8 mph	  -	N/A	"	 "	Scattered Clouds
451	10/22/1988 -- 12:00 PM	59.0 °F	39.9 °F	49%	29.75 in	10.0 mi	West	12.7 mph	  -	N/A	"	 "	Scattered Clouds
452	10/22/1988 -- 1:00 PM	60.1 °F	37.0 °F	42%	29.75 in	10.0 mi	West	15.0 mph	  -	N/A	"	 "	Mostly Cloudy
453	10/22/1988 -- 2:00 PM	57.9 °F	37.9 °F	47%	29.74 in	10.0 mi	WNW	15.0 mph	  -	N/A	"	 "	Mostly Cloudy
454	10/22/1988 -- 3:00 PM	55.9 °F	43.0 °F	62%	29.75 in	10.0 mi	NW	16.1 mph	  -	N/A	"	 "	Scattered Clouds
455	10/22/1988 -- 4:00 PM	60.1 °F	37.0 °F	42%	29.75 in	15.0 mi	NW	16.1 mph	  -	N/A	"	 "	Scattered Clouds
456	10/22/1988 -- 5:00 PM	60.1 °F	33.1 °F	36%	29.77 in	15.0 mi	WNW	13.8 mph	  -	N/A	"	 "	Scattered Clouds
457	10/22/1988 -- 6:00 PM	57.9 °F	33.1 °F	39%	29.79 in	15.0 mi	West	12.7 mph	  -	N/A	"	 "	Scattered Clouds
458	10/22/1988 -- 7:00 PM	54.0 °F	35.1 °F	49%	29.82 in	15.0 mi	West	6.9 mph	  -	N/A	"	 "	Clear
459	10/22/1988 -- 8:00 PM	52.0 °F	35.1 °F	53%	29.86 in	15.0 mi	West	9.2 mph	  -	N/A	"	 "	Clear
460	10/22/1988 -- 9:00 PM	50.0 °F	35.1 °F	57%	29.87 in	15.0 mi	West	8.1 mph	  -	N/A	"	 "	Clear
461	10/22/1988 -- 10:00 PM	48.0 °F	35.1 °F	61%	29.90 in	15.0 mi	West	6.9 mph	  -	N/A	"	 "	Clear
462	10/22/1988 -- 11:00 PM	46.0 °F	36.0 °F	68%	29.91 in	15.0 mi	WSW	4.6 mph	  -	N/A	"	 "	Clear
463	4/5/1988 -- 12:00 AM	64.9 °F	62.1 °F	90%	29.87 in	7.0 mi	SSE	4.6 mph	  -	N/A	"	 "	Overcast
464	4/5/1988 -- 1:00 AM	64.0 °F	61.0 °F	90%	29.88 in	7.0 mi	WSW	5.8 mph	  -	N/A	"	 "	Overcast
465	4/5/1988 -- 2:00 AM	62.1 °F	60.1 °F	93%	29.88 in	10.0 mi	WNW	4.6 mph	  -	N/A	"	 "	Scattered Clouds
466	4/5/1988 -- 3:00 AM	57.9 °F	57.0 °F	97%	29.88 in	10.0 mi	WNW	3.5 mph	  -	N/A	"	 "	Clear
467	4/5/1988 -- 4:00 AM	57.0 °F	55.9 °F	96%	29.89 in	10.0 mi	Calm	Calm	  -	N/A	"	 "	Clear
468	4/5/1988 -- 5:00 AM	55.9 °F	55.0 °F	97%	29.91 in	10.0 mi	Calm	Calm	  -	N/A	"	 "	Clear
469	4/5/1988 -- 6:00 AM	54.0 °F	53.1 °F	97%	29.92 in	10.0 mi	Calm	Calm	  -	N/A	"	 "	Clear
470	4/5/1988 -- 7:00 AM	54.0 °F	53.1 °F	97%	29.94 in	10.0 mi	NNW	4.6 mph	  -	N/A	"	 "	Clear
471	4/5/1988 -- 8:00 AM	57.0 °F	50.0 °F	77%	29.96 in	10.0 mi	North	3.5 mph	  -	N/A	"	 "	Clear
472	4/5/1988 -- 9:00 AM	63.0 °F	52.0 °F	67%	29.99 in	7.0 mi	North	5.8 mph	  -	N/A	"	 "	Clear
473	4/5/1988 -- 10:00 AM	70.0 °F	50.0 °F	49%	30.01 in	7.0 mi	NNW	12.7 mph	  -	N/A	"	 "	Clear
474	4/5/1988 -- 11:00 AM	73.0 °F	50.0 °F	44%	30.00 in	7.0 mi	North	9.2 mph	  -	N/A	"	 "	Clear
475	4/5/1988 -- 12:00 PM	75.0 °F	48.0 °F	38%	30.00 in	7.0 mi	NNW	8.1 mph	  -	N/A	"	 "	Clear
476	4/5/1988 -- 1:00 PM	77.0 °F	46.9 °F	34%	29.99 in	7.0 mi	NNW	9.2 mph	  -	N/A	"	 "	Clear
477	4/5/1988 -- 2:00 PM	78.1 °F	46.0 °F	32%	29.98 in	7.0 mi	NW	12.7 mph	19.6 mph	N/A	"	 "	Clear
478	4/5/1988 -- 3:00 PM	80.1 °F	44.1 °F	28%	29.96 in	7.0 mi	North	15.0 mph	  -	N/A	"	 "	Clear
479	4/5/1988 -- 4:00 PM	81.0 °F	44.1 °F	27%	29.94 in	7.0 mi	North	6.9 mph	16.1 mph	N/A	"	 "	Clear
480	4/5/1988 -- 5:00 PM	81.0 °F	44.1 °F	27%	29.93 in	10.0 mi	North	9.2 mph	  -	N/A	"	 "	Clear
481	4/5/1988 -- 6:00 PM	81.0 °F	44.1 °F	27%	29.93 in	10.0 mi	West	4.6 mph	  -	N/A	"	 "	Partly Cloudy
482	4/5/1988 -- 7:00 PM	78.1 °F	46.0 °F	32%	29.93 in	10.0 mi	ESE	6.9 mph	  -	N/A	"	 "	Partly Cloudy
483	4/5/1988 -- 8:00 PM	72.0 °F	48.0 °F	43%	29.93 in	10.0 mi	ESE	3.5 mph	  -	N/A	"	 "	Partly Cloudy
484	4/5/1988 -- 9:00 PM	66.9 °F	48.0 °F	51%	29.94 in	10.0 mi	SE	6.9 mph	  -	N/A	"	 "	Partly Cloudy
485	4/5/1988 -- 10:00 PM	66.0 °F	48.0 °F	52%	29.95 in	10.0 mi	SSE	6.9 mph	  -	N/A	"	 "	Clear
486	4/5/1988 -- 11:00 PM	66.0 °F	46.0 °F	48%	29.94 in	10.0 mi	South	6.9 mph	  -	N/A	"	 "	Clear
487	9/18/1987 -- 12:00 AM	73.9 °F	69.1 °F	85%	29.84 in	7.0 mi	South	6.9 mph	  -	N/A	"	 "	Mostly Cloudy
488	9/18/1987 -- 1:00 AM	72.0 °F	68.0 °F	87%	29.83 in	7.0 mi	South	5.8 mph	  -	N/A	"	 "	Mostly Cloudy
489	9/18/1987 -- 2:00 AM	72.0 °F	68.0 °F	87%	29.81 in	7.0 mi	South	5.8 mph	  -	N/A	"	 "	Mostly Cloudy
490	9/18/1987 -- 3:00 AM	71.1 °F	66.9 °F	87%	29.79 in	7.0 mi	SSW	6.9 mph	  -	N/A	"	 "	Mostly Cloudy
491	9/18/1987 -- 4:00 AM	71.1 °F	66.9 °F	87%	29.78 in	7.0 mi	SW	8.1 mph	  -	N/A	"	 "	Mostly Cloudy
492	9/18/1987 -- 5:00 AM	70.0 °F	66.9 °F	90%	29.78 in	6.0 mi	SW	5.8 mph	  -	N/A	Fog	Fog
493	9/18/1987 -- 6:00 AM	69.1 °F	66.9 °F	93%	29.78 in	5.0 mi	SSW	5.8 mph	  -	N/A	Fog	Fog
494	9/18/1987 -- 7:00 AM	69.1 °F	66.9 °F	93%	29.78 in	10.5 mi	SSW	6.9 mph	  -	N/A	Fog	Fog
495	9/18/1987 -- 8:00 AM	69.1 °F	66.9 °F	93%	29.80 in	10.5 mi	SW	5.8 mph	  -	N/A	Fog	Fog
496	9/18/1987 -- 8:23 AM	  -	  -	N/A%	29.81 in	3.0 mi	SW	8.1 mph	  -	N/A	Fog	Fog
497	9/18/1987 -- 9:00 AM	72.0 °F	69.1 °F	91%	29.81 in	3.0 mi	SW	9.2 mph	  -	N/A	Fog	Fog
498	9/18/1987 -- 10:00 AM	75.9 °F	69.1 °F	79%	29.81 in	4.0 mi	West	10.4 mph	  -	N/A	Fog	Fog
499	9/18/1987 -- 11:00 AM	81.0 °F	70.0 °F	69%	29.81 in	4.0 mi	WSW	5.8 mph	  -	N/A	"	 "	Drizzle
500	9/18/1987 -- 12:00 PM	86.0 °F	66.9 °F	53%	29.80 in	4.0 mi	NW	11.5 mph	  -	N/A	"	 "	Drizzle
501	9/18/1987 -- 1:00 PM	86.0 °F	66.9 °F	53%	29.79 in	5.0 mi	WSW	10.4 mph	  -	N/A	"	 "	Drizzle
502	9/18/1987 -- 2:00 PM	86.0 °F	66.0 °F	51%	29.77 in	5.0 mi	WSW	10.4 mph	  -	N/A	"	 "	Drizzle
503	9/18/1987 -- 3:00 PM	88.0 °F	66.0 °F	48%	29.75 in	5.0 mi	West	9.2 mph	  -	N/A	"	 "	Drizzle
504	9/18/1987 -- 4:00 PM	89.1 °F	64.9 °F	45%	29.75 in	6.0 mi	West	10.4 mph	  -	N/A	"	 "	Drizzle
505	9/18/1987 -- 5:00 PM	88.0 °F	62.1 °F	42%	29.75 in	6.0 mi	West	11.5 mph	  -	N/A	"	 "	Drizzle
506	9/18/1987 -- 6:00 PM	86.0 °F	64.0 °F	48%	29.75 in	7.0 mi	WNW	10.4 mph	  -	N/A	"	 "	Scattered Clouds
507	9/18/1987 -- 7:00 PM	84.0 °F	64.0 °F	51%	29.76 in	7.0 mi	WNW	8.1 mph	  -	N/A	"	 "	Partly Cloudy
508	9/18/1987 -- 8:00 PM	82.0 °F	64.0 °F	54%	29.77 in	7.0 mi	WNW	8.1 mph	  -	N/A	"	 "	Partly Cloudy
509	9/18/1987 -- 9:00 PM	73.0 °F	66.9 °F	81%	29.80 in	7.0 mi	SE	4.6 mph	  -	N/A	"	 "	Partly Cloudy
510	9/18/1987 -- 10:00 PM	72.0 °F	66.9 °F	84%	29.81 in	7.0 mi	Calm	Calm	  -	N/A	"	 "	Partly Cloudy
511	9/18/1987 -- 11:00 PM	70.0 °F	68.0 °F	93%	29.82 in	7.0 mi	SSE	4.6 mph	  -	N/A	"	 "	Partly Cloudy
512	3/2/1987 -- 12:00 AM	52.0 °F	36.0 °F	54%	29.74 in	15.0 mi	West	12.7 mph	  -	N/A	"	 "	Clear
513	3/2/1987 -- 1:00 AM	50.0 °F	35.1 °F	57%	29.76 in	15.0 mi	West	12.7 mph	  -	N/A	"	 "	Clear
514	3/2/1987 -- 2:00 AM	48.9 °F	34.0 °F	56%	29.78 in	15.0 mi	West	16.1 mph	  -	N/A	"	 "	Clear
515	3/2/1987 -- 3:00 AM	46.9 °F	34.0 °F	61%	29.80 in	15.0 mi	West	10.4 mph	  -	N/A	"	 "	Clear
516	3/2/1987 -- 4:00 AM	44.1 °F	34.0 °F	68%	29.81 in	15.0 mi	WSW	10.4 mph	  -	N/A	"	 "	Clear
517	3/2/1987 -- 5:00 AM	43.0 °F	34.0 °F	71%	29.83 in	15.0 mi	WSW	10.4 mph	  -	N/A	"	 "	Clear
518	3/2/1987 -- 6:00 AM	42.1 °F	33.1 °F	70%	29.86 in	15.0 mi	WSW	10.4 mph	  -	N/A	"	 "	Clear
519	3/2/1987 -- 7:00 AM	41.0 °F	33.1 °F	73%	29.90 in	15.0 mi	WSW	11.5 mph	  -	N/A	"	 "	Clear
520	3/2/1987 -- 8:00 AM	44.1 °F	34.0 °F	68%	29.93 in	15.0 mi	WSW	10.4 mph	  -	N/A	"	 "	Partly Cloudy
521	3/2/1987 -- 9:00 AM	48.0 °F	34.0 °F	58%	29.96 in	15.0 mi	West	10.4 mph	  -	N/A	"	 "	Partly Cloudy
522	3/2/1987 -- 10:00 AM	51.1 °F	32.0 °F	48%	29.96 in	15.0 mi	West	17.3 mph	21.9 mph	N/A	"	 "	Partly Cloudy
523	3/2/1987 -- 11:00 AM	54.0 °F	30.9 °F	41%	29.97 in	15.0 mi	West	13.8 mph	23.0 mph	N/A	"	 "	Partly Cloudy
524	3/2/1987 -- 12:00 PM	55.0 °F	30.0 °F	38%	29.98 in	15.0 mi	WNW	15.0 mph	23.0 mph	N/A	"	 "	Partly Cloudy
525	3/2/1987 -- 1:00 PM	57.9 °F	28.9 °F	33%	29.97 in	15.0 mi	WNW	12.7 mph	  -	N/A	"	 "	Clear
526	3/2/1987 -- 2:00 PM	60.1 °F	28.0 °F	30%	29.98 in	15.0 mi	WNW	10.4 mph	21.9 mph	N/A	"	 "	Clear
527	3/2/1987 -- 3:00 PM	62.1 °F	26.1 °F	25%	29.97 in	15.0 mi	NW	17.3 mph	  -	N/A	"	 "	Clear
528	3/2/1987 -- 4:00 PM	62.1 °F	24.1 °F	23%	29.99 in	15.0 mi	NW	9.2 mph	  -	N/A	"	 "	Clear
529	3/2/1987 -- 5:00 PM	61.0 °F	24.1 °F	24%	30.01 in	15.0 mi	WNW	15.0 mph	  -	N/A	"	 "	Clear
530	3/2/1987 -- 6:00 PM	57.0 °F	19.9 °F	24%	30.05 in	15.0 mi	NW	11.5 mph	  -	N/A	"	 "	Partly Cloudy
531	3/2/1987 -- 7:00 PM	54.0 °F	19.9 °F	26%	30.08 in	15.0 mi	NW	4.6 mph	  -	N/A	"	 "	Clear
532	3/2/1987 -- 8:00 PM	52.0 °F	19.9 °F	28%	30.09 in	15.0 mi	NW	4.6 mph	  -	N/A	"	 "	Clear
533	3/2/1987 -- 9:00 PM	48.9 °F	26.1 °F	41%	30.11 in	15.0 mi	West	3.5 mph	  -	N/A	"	 "	Clear
534	3/2/1987 -- 10:00 PM	39.9 °F	24.1 °F	53%	30.13 in	15.0 mi	Calm	Calm	  -	N/A	"	 "	Clear
535	3/2/1987 -- 11:00 PM	37.9 °F	25.0 °F	60%	30.15 in	15.0 mi	Calm	Calm	  -	N/A	"	 "	Clear
536	8/14/1986 -- 12:00 AM	71.1 °F	68.0 °F	90%	30.14 in	5.0 mi	NNE	9.2 mph	  -	N/A	Fog	Fog
537	8/14/1986 -- 1:00 AM	71.1 °F	68.0 °F	90%	30.13 in	5.0 mi	NE	4.6 mph	  -	N/A	Fog	Fog
538	8/14/1986 -- 2:00 AM	70.0 °F	68.0 °F	93%	30.10 in	5.0 mi	NE	3.5 mph	  -	N/A	Fog	Fog
539	8/14/1986 -- 3:00 AM	70.0 °F	68.0 °F	93%	30.09 in	5.0 mi	NNE	4.6 mph	  -	N/A	Fog	Fog
540	8/14/1986 -- 3:05 AM	  -	  -	N/A%	30.10 in	5.0 mi	NNE	5.8 mph	  -	N/A	Fog	Fog
541	8/14/1986 -- 4:00 AM	70.0 °F	69.1 °F	97%	30.09 in	2.0 mi	NE	4.6 mph	  -	N/A	Fog	Fog
542	8/14/1986 -- 5:00 AM	70.0 °F	69.1 °F	97%	30.09 in	2.0 mi	NNE	8.1 mph	  -	N/A	Fog	Fog
543	8/14/1986 -- 5:24 AM	  -	  -	N/A%	30.11 in	1.0 mi	NNE	6.9 mph	  -	N/A	Fog	Fog
544	8/14/1986 -- 6:00 AM	70.0 °F	69.1 °F	97%	30.09 in	1.0 mi	North	10.4 mph	  -	N/A	Fog	Fog
545	8/14/1986 -- 7:00 AM	70.0 °F	69.1 °F	97%	30.10 in	1.0 mi	NNE	8.1 mph	  -	N/A	Fog	Fog
546	8/14/1986 -- 8:00 AM	71.1 °F	69.1 °F	93%	30.13 in	5.5 mi	ENE	8.1 mph	  -	N/A	Fog	Fog
547	8/14/1986 -- 9:00 AM	71.1 °F	69.1 °F	93%	30.13 in	3.0 mi	ENE	4.6 mph	  -	N/A	Fog	Fog
548	8/14/1986 -- 10:00 AM	73.9 °F	69.1 °F	85%	30.13 in	4.0 mi	NE	5.8 mph	  -	N/A	Fog	Fog
549	8/14/1986 -- 10:19 AM	  -	  -	N/A%	30.13 in	5.0 mi	ESE	5.8 mph	  -	N/A	Fog	Fog
550	8/14/1986 -- 10:25 AM	  -	  -	N/A%	30.13 in	5.0 mi	ENE	3.5 mph	  -	N/A	Fog	Fog
551	8/14/1986 -- 11:00 AM	77.0 °F	70.0 °F	79%	30.12 in	7.0 mi	East	5.8 mph	  -	N/A	"	 "	Mostly Cloudy
552	8/14/1986 -- 12:00 PM	81.0 °F	71.1 °F	72%	30.11 in	7.0 mi	NE	8.1 mph	  -	N/A	"	 "	Mostly Cloudy
553	8/14/1986 -- 1:00 PM	80.1 °F	70.0 °F	71%	30.10 in	10.0 mi	NE	8.1 mph	  -	N/A	"	 "	Mostly Cloudy
554	8/14/1986 -- 2:00 PM	81.0 °F	70.0 °F	69%	30.09 in	10.0 mi	NNE	8.1 mph	  -	N/A	"	 "	Overcast
555	8/14/1986 -- 2:29 PM	  -	  -	N/A%	30.09 in	10.0 mi	ENE	8.1 mph	  -	N/A	"	 "	Overcast
556	8/14/1986 -- 3:00 PM	80.1 °F	71.1 °F	74%	30.08 in	10.0 mi	NE	5.8 mph	  -	N/A	"	 "	Overcast
557	8/14/1986 -- 4:00 PM	82.0 °F	70.0 °F	67%	30.05 in	10.0 mi	ESE	6.9 mph	  -	N/A	"	 "	Overcast
558	8/14/1986 -- 5:00 PM	84.0 °F	70.0 °F	63%	30.04 in	10.0 mi	NE	10.4 mph	  -	N/A	"	 "	Mostly Cloudy
559	8/14/1986 -- 6:00 PM	82.9 °F	70.0 °F	65%	30.03 in	10.0 mi	NE	9.2 mph	  -	N/A	"	 "	Scattered Clouds
560	8/14/1986 -- 7:00 PM	79.0 °F	71.1 °F	77%	30.04 in	10.0 mi	NE	4.6 mph	  -	N/A	"	 "	Scattered Clouds
561	8/14/1986 -- 8:00 PM	79.0 °F	75.9 °F	90%	30.04 in	10.0 mi	NE	4.6 mph	  -	N/A	"	 "	Unknown
562	8/14/1986 -- 9:00 PM	75.0 °F	71.1 °F	87%	30.04 in	10.0 mi	NE	6.9 mph	  -	N/A	"	 "	Scattered Clouds
563	8/14/1986 -- 10:00 PM	73.9 °F	71.1 °F	91%	30.05 in	7.0 mi	NNE	4.6 mph	  -	N/A	"	 "	Scattered Clouds
564	8/14/1986 -- 11:00 PM	73.0 °F	71.1 °F	93%	30.05 in	6.0 mi	NNE	5.8 mph	  -	N/A	Fog	Fog
565	1/26/1986 -- 12:00 AM	36.0 °F	36.0 °F	100%	29.92 in	1.0 mi	NNE	5.8 mph	  -	0.05 in	Fog	"	,"
566	1/26/1986 -- 1:00 AM	36.0 °F	36.0 °F	100%	29.88 in	1.0 mi	NNE	5.8 mph	  -	0.05 in	Fog	"	,"
567	1/26/1986 -- 2:00 AM	36.0 °F	36.0 °F	100%	29.88 in	1.0 mi	NW	9.2 mph	  -	0.02 in	Fog	"	,"
568	1/26/1986 -- 2:26 AM	  -	  -	N/A%	29.87 in	1.0 mi	NW	4.6 mph	  -	N/A	Fog	"	,"
569	1/26/1986 -- 3:00 AM	36.0 °F	36.0 °F	100%	29.88 in	1.0 mi	NW	6.9 mph	  -	0.01 in	Fog	"	,"
570	1/26/1986 -- 4:00 AM	37.0 °F	36.0 °F	96%	29.84 in	1.0 mi	NW	6.9 mph	  -	0.02 in	Fog	Light Drizzle
571	1/26/1986 -- 5:00 AM	37.0 °F	36.0 °F	96%	29.82 in	1.0 mi	NE	4.6 mph	  -	N/A	Fog	Light Drizzle
572	1/26/1986 -- 6:00 AM	37.0 °F	37.0 °F	100%	29.81 in	1.0 mi	NW	5.8 mph	  -	N/A	Fog	Light Drizzle
573	1/26/1986 -- 6:22 AM	  -	  -	N/A%	29.80 in	1.0 mi	NW	5.8 mph	  -	N/A	Fog	Light Drizzle
574	1/26/1986 -- 7:00 AM	37.0 °F	37.0 °F	100%	29.82 in	1.0 mi	WNW	4.6 mph	  -	N/A	Fog	Fog
575	1/26/1986 -- 8:00 AM	37.0 °F	37.0 °F	100%	29.81 in	1.0 mi	North	3.5 mph	  -	0.01 in	Fog	"	,"
576	1/26/1986 -- 8:53 AM	  -	  -	N/A%	29.80 in	2.0 mi	Calm	Calm	  -	N/A	Fog	Fog
577	1/26/1986 -- 9:00 AM	37.9 °F	37.0 °F	97%	29.81 in	1.0 mi	North	3.5 mph	  -	N/A	Fog	Fog
578	1/26/1986 -- 10:00 AM	37.9 °F	37.0 °F	97%	29.79 in	2.0 mi	NNW	4.6 mph	  -	0.01 in	Fog	"	,"
579	1/26/1986 -- 11:00 AM	37.9 °F	37.0 °F	97%	29.79 in	5.5 mi	NW	5.8 mph	  -	0.03 in	Fog	"	,"
580	1/26/1986 -- 12:00 PM	39.0 °F	37.9 °F	96%	29.74 in	5.5 mi	West	6.9 mph	  -	0.04 in	Fog	"	,"
581	1/26/1986 -- 1:00 PM	39.0 °F	37.9 °F	96%	29.71 in	5.5 mi	West	5.8 mph	  -	0.07 in	Fog	"	,"
582	1/26/1986 -- 1:39 PM	  -	  -	N/A%	29.67 in	5.5 mi	NW	6.9 mph	  -	N/A	Fog	"	,"
583	1/26/1986 -- 2:00 PM	39.0 °F	37.9 °F	96%	29.66 in	10.5 mi	NW	6.9 mph	  -	0.03 in	Fog	"	,"
584	1/26/1986 -- 3:00 PM	39.0 °F	37.0 °F	93%	29.63 in	4.0 mi	NNW	8.1 mph	  -	0.01 in	Fog	Light Drizzle
585	1/26/1986 -- 3:24 PM	  -	  -	N/A%	29.61 in	4.0 mi	NNW	9.2 mph	  -	N/A	Fog	"	,"
586	1/26/1986 -- 4:00 PM	37.9 °F	37.0 °F	97%	29.62 in	4.0 mi	NNW	9.2 mph	  -	0.01 in	Fog	"	,"
587	1/26/1986 -- 5:00 PM	39.0 °F	37.9 °F	96%	29.60 in	4.0 mi	NNW	8.1 mph	  -	N/A	Fog	Light Drizzle
588	1/26/1986 -- 6:00 PM	39.0 °F	37.0 °F	93%	29.60 in	4.0 mi	NW	10.4 mph	  -	N/A	Fog	"	,"
589	1/26/1986 -- 7:00 PM	39.0 °F	37.0 °F	93%	29.58 in	4.0 mi	NW	8.1 mph	  -	N/A	Fog	"	,"
590	1/26/1986 -- 7:30 PM	  -	  -	N/A%	29.58 in	4.0 mi	WNW	10.4 mph	  -	N/A	Fog	Light Drizzle
591	1/26/1986 -- 8:00 PM	39.0 °F	37.0 °F	93%	29.59 in	6.0 mi	WNW	10.4 mph	  -	N/A	Fog	"	,"
592	1/26/1986 -- 9:00 PM	37.9 °F	37.0 °F	97%	29.60 in	5.0 mi	WNW	10.4 mph	  -	0.01 in	Fog	"	,"
593	1/26/1986 -- 10:00 PM	37.0 °F	36.0 °F	96%	29.58 in	4.0 mi	WNW	8.1 mph	  -	0.02 in	Fog	"	,"
594	1/26/1986 -- 11:00 PM	36.0 °F	35.1 °F	97%	29.56 in	7.0 mi	NNW	8.1 mph	  -	0.01 in	"	 "	Overcast
595	7/10/1985 -- 12:00 AM	75.9 °F	68.0 °F	76%	29.87 in	5.0 mi	SSW	4.6 mph	  -	N/A	"	 "	Drizzle
596	7/10/1985 -- 1:00 AM	75.0 °F	66.9 °F	76%	29.87 in	5.0 mi	SSW	4.6 mph	  -	N/A	"	 "	Drizzle
597	7/10/1985 -- 2:00 AM	73.9 °F	66.9 °F	79%	29.87 in	4.0 mi	SW	4.6 mph	  -	N/A	"	 "	Drizzle
598	7/10/1985 -- 3:00 AM	73.0 °F	66.9 °F	81%	29.85 in	4.0 mi	SW	4.6 mph	  -	N/A	"	 "	Drizzle
599	7/10/1985 -- 4:00 AM	71.1 °F	66.0 °F	84%	29.86 in	4.0 mi	ESE	4.6 mph	  -	N/A	"	 "	Drizzle
600	7/10/1985 -- 5:00 AM	70.0 °F	66.0 °F	87%	29.87 in	3.0 mi	ESE	3.5 mph	  -	N/A	Fog	Fog
601	7/10/1985 -- 6:00 AM	68.0 °F	64.9 °F	90%	29.89 in	10.5 mi	SE	4.6 mph	  -	N/A	Fog	Fog
602	7/10/1985 -- 7:00 AM	69.1 °F	66.0 °F	90%	29.89 in	10.5 mi	SW	3.5 mph	  -	N/A	Fog	Fog
603	7/10/1985 -- 8:00 AM	73.9 °F	68.0 °F	82%	29.91 in	5.8 mi	SW	4.6 mph	  -	N/A	"	 "	Drizzle
604	7/10/1985 -- 8:13 AM	  -	  -	N/A%	29.92 in	3.0 mi	SSW	4.6 mph	  -	N/A	"	 "	Drizzle
605	7/10/1985 -- 9:00 AM	79.0 °F	69.1 °F	72%	29.90 in	3.0 mi	South	2.3 mph	  -	N/A	"	 "	Drizzle
606	7/10/1985 -- 10:00 AM	82.0 °F	69.1 °F	65%	29.88 in	3.0 mi	West	4.6 mph	  -	N/A	"	 "	Drizzle
607	7/10/1985 -- 11:00 AM	86.0 °F	70.0 °F	59%	29.89 in	4.0 mi	WSW	5.8 mph	  -	N/A	"	 "	Drizzle
608	7/10/1985 -- 12:00 PM	90.0 °F	68.0 °F	48%	29.90 in	5.0 mi	WNW	8.1 mph	  -	N/A	"	 "	Drizzle
609	7/10/1985 -- 1:00 PM	91.0 °F	66.9 °F	45%	29.90 in	5.0 mi	South	8.1 mph	  -	N/A	"	 "	Drizzle
610	7/10/1985 -- 2:00 PM	91.9 °F	68.0 °F	45%	29.88 in	5.0 mi	WSW	10.4 mph	  -	N/A	"	 "	Drizzle
611	7/10/1985 -- 3:00 PM	93.0 °F	68.0 °F	44%	29.85 in	5.0 mi	SW	9.2 mph	  -	N/A	"	 "	Drizzle
612	7/10/1985 -- 4:00 PM	93.9 °F	63.0 °F	36%	29.83 in	5.0 mi	SW	13.8 mph	  -	N/A	"	 "	Drizzle
613	7/10/1985 -- 5:00 PM	93.0 °F	68.0 °F	44%	29.84 in	5.0 mi	SW	11.5 mph	  -	N/A	"	 "	Drizzle
614	7/10/1985 -- 6:00 PM	91.9 °F	64.0 °F	39%	29.84 in	5.0 mi	SSW	10.4 mph	  -	N/A	"	 "	Drizzle
615	7/10/1985 -- 7:00 PM	89.1 °F	68.0 °F	50%	29.81 in	5.0 mi	SSW	6.9 mph	  -	N/A	"	 "	Drizzle
616	7/10/1985 -- 8:00 PM	84.0 °F	72.0 °F	67%	29.82 in	5.0 mi	SE	6.9 mph	  -	N/A	"	 "	Drizzle
617	7/10/1985 -- 9:00 PM	81.0 °F	71.1 °F	72%	29.85 in	5.0 mi	ESE	4.6 mph	  -	N/A	"	 "	Drizzle
618	7/10/1985 -- 10:00 PM	82.0 °F	69.1 °F	65%	29.83 in	5.0 mi	South	4.6 mph	  -	N/A	"	 "	Drizzle
619	7/10/1985 -- 10:30 PM	  -	  -	N/A%	29.90 in	10.0 mi	NNW	18.4 mph	  -	N/A	Thunderstorm	Thunderstorm
620	7/10/1985 -- 11:00 PM	73.9 °F	62.1 °F	66%	29.94 in	1.0 mi	North	19.6 mph	  -	0.28 in	Rain	"	,"
621	7/10/1985 -- 11:03 PM	  -	  -	N/A%	29.95 in	6.0 mi	NW	16.1 mph	  -	N/A	Rain	"	,"
622	7/10/1985 -- 11:29 PM	  -	  -	N/A%	29.95 in	6.0 mi	NNE	3.5 mph	  -	N/A	"	 "	Clear
623	12/22/1984 -- 12:00 AM	61.0 °F	51.1 °F	70%	29.95 in	10.0 mi	South	12.7 mph	  -	N/A	"	 "	Mostly Cloudy
624	12/22/1984 -- 1:00 AM	62.1 °F	51.1 °F	67%	29.92 in	10.0 mi	SSW	13.8 mph	  -	N/A	"	 "	Partly Cloudy
625	12/22/1984 -- 2:00 AM	63.0 °F	53.1 °F	70%	29.91 in	10.0 mi	South	15.0 mph	24.2 mph	N/A	"	 "	Overcast
626	12/22/1984 -- 3:00 AM	64.0 °F	54.0 °F	70%	29.92 in	10.0 mi	SSW	16.1 mph	  -	N/A	"	 "	Overcast
627	12/22/1984 -- 4:00 AM	64.0 °F	54.0 °F	70%	29.91 in	10.0 mi	SSW	11.5 mph	24.2 mph	N/A	"	 "	Overcast
628	12/22/1984 -- 5:00 AM	64.0 °F	54.0 °F	70%	29.89 in	10.0 mi	South	12.7 mph	23.0 mph	N/A	"	 "	Overcast
629	12/22/1984 -- 5:40 AM	  -	  -	N/A%	29.91 in	10.0 mi	SSW	12.7 mph	  -	N/A	Rain	Light Rain
630	12/22/1984 -- 6:00 AM	64.0 °F	54.0 °F	70%	29.90 in	10.0 mi	SSW	13.8 mph	  -	N/A	Rain	Light Rain
631	12/22/1984 -- 7:00 AM	64.9 °F	53.1 °F	65%	29.91 in	10.0 mi	SW	15.0 mph	  -	N/A	"	 "	Overcast
632	12/22/1984 -- 7:17 AM	  -	N/A%	29.93 in	2.0 mi	SW	11.5 mph	  -	N/A	Fog	"	,"	Rain
633	12/22/1984 -- 7:37 AM	  -	N/A%	29.96 in	10.5 mi	WNW	13.8 mph	  -	N/A	Fog	"	,"	Rain
634	12/22/1984 -- 8:00 AM	60.1 °F	90%	29.96 in	10.5 mi	WNW	11.5 mph	  -	0.02 in	Fog	"	,"	Rain
635	12/22/1984 -- 9:00 AM	57.9 °F	87%	29.99 in	4.0 mi	WSW	9.2 mph	  -	0.02 in	Fog	"	,"	Rain
636	12/22/1984 -- 10:00 AM	57.9 °F	81%	30.01 in	5.0 mi	SSW	13.8 mph	  -	0.02 in	Fog	"	,"	Rain
637	12/22/1984 -- 11:00 AM	57.9 °F	52.0 °F	81%	30.01 in	7.0 mi	SW	9.2 mph	  -	N/A	"	 "	Overcast
638	12/22/1984 -- 12:00 PM	59.0 °F	53.1 °F	81%	29.98 in	7.0 mi	SSW	9.2 mph	  -	N/A	Rain	Light Rain
639	12/22/1984 -- 1:00 PM	60.1 °F	54.0 °F	80%	29.96 in	7.0 mi	SW	10.4 mph	  -	N/A	"	 "	Mostly Cloudy
640	12/22/1984 -- 2:00 PM	61.0 °F	54.0 °F	78%	29.95 in	10.0 mi	SSW	11.5 mph	  -	N/A	"	 "	Mostly Cloudy
641	12/22/1984 -- 3:00 PM	64.0 °F	53.1 °F	67%	29.96 in	10.0 mi	SSW	8.1 mph	  -	N/A	"	 "	Mostly Cloudy
642	12/22/1984 -- 4:00 PM	63.0 °F	50.0 °F	63%	29.98 in	10.0 mi	WSW	10.4 mph	  -	N/A	"	 "	Mostly Cloudy
643	12/22/1984 -- 5:00 PM	62.1 °F	48.0 °F	60%	30.01 in	10.0 mi	West	6.9 mph	  -	N/A	"	 "	Mostly Cloudy
644	12/22/1984 -- 6:00 PM	57.9 °F	45.0 °F	62%	30.03 in	10.0 mi	SW	5.8 mph	  -	N/A	"	 "	Mostly Cloudy
645	12/22/1984 -- 7:00 PM	55.9 °F	42.1 °F	60%	30.06 in	10.0 mi	West	4.6 mph	  -	N/A	"	 "	Mostly Cloudy
646	12/22/1984 -- 8:00 PM	55.0 °F	41.0 °F	59%	30.08 in	10.0 mi	NW	5.8 mph	  -	N/A	"	 "	Partly Cloudy
647	12/22/1984 -- 9:00 PM	53.1 °F	37.0 °F	55%	30.12 in	10.0 mi	NNW	6.9 mph	  -	N/A	"	 "	Partly Cloudy
648	12/22/1984 -- 10:00 PM	53.1 °F	32.0 °F	45%	30.14 in	10.0 mi	NW	11.5 mph	  -	N/A	"	 "	Mostly Cloudy
649	12/22/1984 -- 11:00 PM	52.0 °F	30.9 °F	45%	30.18 in	10.0 mi	NW	11.5 mph	  -	N/A	"	 "	Mostly Cloudy
650	6/5/1984 -- 12:00 AM	66.0 °F	55.0 °F	68%	30.08 in	10.0 mi	ESE	8.1 mph	  -	N/A	"	 "	Partly Cloudy
651	6/5/1984 -- 1:00 AM	66.0 °F	55.0 °F	68%	30.08 in	10.0 mi	ESE	8.1 mph	  -	N/A	"	 "	Clear
652	6/5/1984 -- 2:00 AM	63.0 °F	55.9 °F	78%	30.08 in	10.0 mi	SE	8.1 mph	  -	N/A	"	 "	Clear
653	6/5/1984 -- 3:00 AM	63.0 °F	57.0 °F	81%	30.09 in	10.0 mi	ESE	4.6 mph	  -	N/A	"	 "	Clear
654	6/5/1984 -- 4:00 AM	63.0 °F	55.9 °F	78%	30.10 in	10.0 mi	ESE	5.8 mph	  -	N/A	"	 "	Clear
655	6/5/1984 -- 5:00 AM	62.1 °F	55.9 °F	80%	30.12 in	10.0 mi	Calm	Calm	  -	N/A	"	 "	Clear
656	6/5/1984 -- 6:00 AM	61.0 °F	55.9 °F	83%	30.14 in	10.0 mi	East	4.6 mph	  -	N/A	"	 "	Clear
657	6/5/1984 -- 7:00 AM	62.1 °F	57.0 °F	84%	30.16 in	10.0 mi	ESE	3.5 mph	  -	N/A	"	 "	Clear
658	6/5/1984 -- 8:00 AM	66.0 °F	59.0 °F	78%	30.16 in	10.0 mi	SE	5.8 mph	  -	N/A	"	 "	Clear
659	6/5/1984 -- 9:00 AM	71.1 °F	62.1 °F	73%	30.17 in	7.0 mi	SE	9.2 mph	  -	N/A	"	 "	Mostly Cloudy
660	6/5/1984 -- 10:00 AM	73.9 °F	66.0 °F	76%	30.18 in	7.0 mi	SSE	6.9 mph	  -	N/A	"	 "	Overcast
661	6/5/1984 -- 11:00 AM	77.0 °F	64.9 °F	66%	30.18 in	7.0 mi	SSW	8.1 mph	  -	N/A	"	 "	Mostly Cloudy
662	6/5/1984 -- 12:00 PM	80.1 °F	66.0 °F	62%	30.18 in	7.0 mi	SE	11.5 mph	  -	N/A	"	 "	Unknown
663	6/5/1984 -- 1:00 PM	82.9 °F	68.0 °F	60%	30.16 in	7.0 mi	South	9.2 mph	  -	N/A	"	 "	Clear
664	6/5/1984 -- 2:00 PM	82.9 °F	68.0 °F	60%	30.14 in	7.0 mi	SW	10.4 mph	  -	N/A	"	 "	Scattered Clouds
665	6/5/1984 -- 3:00 PM	84.9 °F	68.0 °F	57%	30.13 in	7.0 mi	SSE	11.5 mph	  -	N/A	"	 "	Scattered Clouds
666	6/5/1984 -- 4:00 PM	84.9 °F	68.0 °F	57%	30.13 in	7.0 mi	SSW	11.5 mph	  -	N/A	"	 "	Scattered Clouds
667	6/5/1984 -- 5:00 PM	84.0 °F	69.1 °F	61%	30.12 in	7.0 mi	South	8.1 mph	  -	N/A	"	 "	Mostly Cloudy
668	6/5/1984 -- 6:00 PM	84.0 °F	69.1 °F	61%	30.11 in	6.0 mi	South	8.1 mph	  -	N/A	"	 "	Drizzle
669	6/5/1984 -- 7:00 PM	82.9 °F	70.0 °F	65%	30.07 in	6.0 mi	South	8.1 mph	  -	N/A	"	 "	Drizzle
670	6/5/1984 -- 8:00 PM	78.1 °F	70.0 °F	76%	30.10 in	6.0 mi	SE	5.8 mph	  -	N/A	"	 "	Drizzle
671	6/5/1984 -- 9:00 PM	75.0 °F	69.1 °F	82%	30.10 in	6.0 mi	SE	6.9 mph	  -	N/A	"	 "	Drizzle
672	6/5/1984 -- 10:00 PM	73.9 °F	68.0 °F	82%	30.12 in	6.0 mi	SSE	8.1 mph	  -	N/A	"	 "	Drizzle
673	6/5/1984 -- 11:00 PM	75.9 °F	68.0 °F	76%	30.15 in	6.0 mi	South	10.4 mph	  -	N/A	"	 "	Drizzle
674	11/18/1983 -- 12:00 AM	35.1 °F	26.1 °F	70%	30.09 in	15.0 mi	West	3.5 mph	  -	N/A	"	 "	Clear
675	11/18/1983 -- 1:00 AM	35.1 °F	26.1 °F	70%	30.09 in	15.0 mi	West	3.5 mph	  -	N/A	"	 "	Clear
676	11/18/1983 -- 2:00 AM	30.0 °F	25.0 °F	82%	30.11 in	15.0 mi	SSW	3.5 mph	  -	N/A	"	 "	Clear
677	11/18/1983 -- 3:00 AM	28.9 °F	24.1 °F	82%	30.11 in	15.0 mi	Calm	Calm	  -	N/A	"	 "	Clear
678	11/18/1983 -- 4:00 AM	28.0 °F	24.1 °F	85%	30.13 in	15.0 mi	Calm	Calm	  -	N/A	"	 "	Partly Cloudy
679	11/18/1983 -- 5:00 AM	27.0 °F	24.1 °F	89%	30.14 in	15.0 mi	WSW	4.6 mph	  -	N/A	"	 "	Mostly Cloudy
680	11/18/1983 -- 6:00 AM	28.9 °F	26.1 °F	89%	30.17 in	15.0 mi	WSW	3.5 mph	  -	N/A	"	 "	Mostly Cloudy
681	11/18/1983 -- 7:00 AM	28.9 °F	25.0 °F	85%	30.18 in	15.0 mi	SSW	3.5 mph	  -	N/A	"	 "	Partly Cloudy
682	11/18/1983 -- 8:00 AM	32.0 °F	28.0 °F	85%	30.19 in	10.0 mi	SSE	3.5 mph	  -	N/A	"	 "	Scattered Clouds
683	11/18/1983 -- 9:00 AM	39.0 °F	30.9 °F	73%	30.21 in	10.0 mi	SW	6.9 mph	  -	N/A	"	 "	Scattered Clouds
684	11/18/1983 -- 10:00 AM	45.0 °F	33.1 °F	63%	30.23 in	7.0 mi	SW	10.4 mph	  -	N/A	"	 "	Clear
685	11/18/1983 -- 11:00 AM	51.1 °F	35.1 °F	54%	30.22 in	7.0 mi	SW	12.7 mph	  -	N/A	"	 "	Clear
686	11/18/1983 -- 12:00 PM	53.1 °F	30.9 °F	43%	30.19 in	7.0 mi	WSW	8.1 mph	  -	N/A	"	 "	Clear
687	11/18/1983 -- 1:00 PM	57.0 °F	32.0 °F	39%	30.17 in	7.0 mi	SW	8.1 mph	  -	N/A	"	 "	Clear
688	11/18/1983 -- 2:00 PM	57.9 °F	33.1 °F	39%	30.14 in	7.0 mi	SW	6.9 mph	  -	N/A	"	 "	Clear
689	11/18/1983 -- 3:00 PM	60.1 °F	34.0 °F	38%	30.12 in	7.0 mi	South	6.9 mph	  -	N/A	"	 "	Partly Cloudy
690	11/18/1983 -- 4:00 PM	60.1 °F	34.0 °F	38%	30.12 in	7.0 mi	South	5.8 mph	  -	N/A	"	 "	Scattered Clouds
691	11/18/1983 -- 5:00 PM	57.0 °F	33.1 °F	40%	30.13 in	10.0 mi	South	5.8 mph	  -	N/A	"	 "	Partly Cloudy
692	11/18/1983 -- 6:00 PM	50.0 °F	35.1 °F	57%	30.14 in	10.0 mi	SSE	5.8 mph	  -	N/A	"	 "	Clear
693	11/18/1983 -- 7:00 PM	48.9 °F	30.9 °F	50%	30.14 in	10.0 mi	South	8.1 mph	  -	N/A	"	 "	Clear
694	11/18/1983 -- 8:00 PM	51.1 °F	30.9 °F	46%	30.14 in	10.0 mi	SSE	10.4 mph	  -	N/A	"	 "	Clear
695	11/18/1983 -- 9:00 PM	50.0 °F	32.0 °F	50%	30.14 in	10.0 mi	South	9.2 mph	  -	N/A	"	 "	Clear
696	11/18/1983 -- 10:00 PM	48.9 °F	33.1 °F	54%	30.14 in	10.0 mi	SW	4.6 mph	  -	N/A	"	 "	Clear
697	11/18/1983 -- 11:00 PM	48.0 °F	32.0 °F	54%	30.14 in	10.0 mi	South	4.6 mph	  -	N/A	"	 "	Clear
698	5/2/1983 -- 12:00 AM	68.0 °F	55.0 °F	63%	30.11 in	15.0 mi	South	13.8 mph	  -	N/A	"	 "	Partly Cloudy
699	5/2/1983 -- 1:00 AM	66.0 °F	55.9 °F	70%	30.12 in	15.0 mi	South	10.4 mph	  -	N/A	"	 "	Mostly Cloudy
700	5/2/1983 -- 2:00 AM	64.9 °F	55.0 °F	70%	30.10 in	15.0 mi	South	9.2 mph	  -	N/A	"	 "	Partly Cloudy
701	5/2/1983 -- 3:00 AM	64.0 °F	57.0 °F	78%	30.07 in	15.0 mi	South	11.5 mph	  -	N/A	"	 "	Partly Cloudy
702	5/2/1983 -- 4:00 AM	63.0 °F	57.9 °F	84%	30.07 in	10.0 mi	South	9.2 mph	  -	N/A	"	 "	Mostly Cloudy
703	5/2/1983 -- 5:00 AM	63.0 °F	59.0 °F	87%	30.08 in	10.0 mi	South	8.1 mph	  -	N/A	"	 "	Overcast
704	5/2/1983 -- 6:00 AM	62.1 °F	59.0 °F	90%	30.09 in	10.0 mi	South	8.1 mph	  -	N/A	"	 "	Mostly Cloudy
705	5/2/1983 -- 7:00 AM	62.1 °F	59.0 °F	90%	30.08 in	10.0 mi	South	9.2 mph	  -	N/A	"	 "	Overcast
706	5/2/1983 -- 7:10 AM	  -	  -	N/A%	30.09 in	7.0 mi	South	10.4 mph	  -	N/A	"	 "	Overcast
707	5/2/1983 -- 8:00 AM	64.0 °F	60.1 °F	87%	30.09 in	7.0 mi	SSW	9.2 mph	  -	N/A	"	 "	Overcast
708	5/2/1983 -- 8:15 AM	  -	  -	N/A%	30.12 in	7.0 mi	SW	10.4 mph	  -	N/A	"	 "	Overcast
709	5/2/1983 -- 9:00 AM	66.9 °F	62.1 °F	84%	30.09 in	7.0 mi	South	10.4 mph	  -	N/A	"	 "	Mostly Cloudy
710	5/2/1983 -- 10:00 AM	70.0 °F	60.1 °F	71%	30.08 in	7.0 mi	SSW	13.8 mph	  -	N/A	"	 "	Overcast
711	5/2/1983 -- 11:00 AM	70.0 °F	60.1 °F	71%	30.07 in	7.0 mi	South	11.5 mph	  -	N/A	"	 "	Overcast
712	5/2/1983 -- 12:00 PM	73.0 °F	59.0 °F	61%	30.06 in	7.0 mi	South	11.5 mph	  -	N/A	"	 "	Overcast
713	5/2/1983 -- 1:00 PM	77.0 °F	60.1 °F	56%	30.04 in	7.0 mi	SSW	13.8 mph	  -	N/A	"	 "	Overcast
714	5/2/1983 -- 2:00 PM	79.0 °F	59.0 °F	50%	29.99 in	7.0 mi	South	15.0 mph	20.7 mph	N/A	"	 "	Overcast
715	5/2/1983 -- 3:00 PM	81.0 °F	60.1 °F	49%	29.98 in	10.0 mi	SSW	15.0 mph	  -	N/A	"	 "	Overcast
716	5/2/1983 -- 4:00 PM	81.0 °F	60.1 °F	49%	29.95 in	10.0 mi	South	13.8 mph	21.9 mph	N/A	"	 "	Mostly Cloudy
717	5/2/1983 -- 5:00 PM	80.1 °F	59.0 °F	48%	29.93 in	10.0 mi	South	18.4 mph	  -	N/A	"	 "	Mostly Cloudy
718	5/2/1983 -- 6:00 PM	80.1 °F	59.0 °F	48%	29.94 in	10.0 mi	SSW	11.5 mph	  -	N/A	"	 "	Overcast
719	5/2/1983 -- 7:00 PM	78.1 °F	59.0 °F	52%	29.92 in	10.0 mi	South	11.5 mph	  -	N/A	"	 "	Overcast
720	5/2/1983 -- 8:00 PM	75.9 °F	59.0 °F	56%	29.94 in	10.0 mi	SSW	10.4 mph	  -	N/A	"	 "	Overcast
721	5/2/1983 -- 9:00 PM	73.9 °F	59.0 °F	59%	29.92 in	10.0 mi	South	9.2 mph	  -	N/A	"	 "	Overcast
722	5/2/1983 -- 10:00 PM	72.0 °F	59.0 °F	64%	29.92 in	10.0 mi	South	6.9 mph	  -	N/A	"	 "	Overcast
723	5/2/1983 -- 11:00 PM	72.0 °F	59.0 °F	64%	29.93 in	10.0 mi	SSW	4.6 mph	  -	N/A	"	 "	Overcast
724	10/14/1982 -- 12:00 AM	66.0 °F	90%	29.86 in	10.5 mi	NNW	4.6 mph	  -	0.05 in	Fog	"	,"	Rain
725	10/14/1982 -- 12:54 AM	  -	N/A%	29.87 in	10.5 mi	NW	4.6 mph	  -	N/A	Fog	"	,"	Rain
726	10/14/1982 -- 1:00 AM	64.9 °F	90%	29.86 in	10.5 mi	NNW	4.6 mph	  -	0.27 in	Fog	"	,"	Rain
727	10/14/1982 -- 1:39 AM	  -	N/A%	29.87 in	10.5 mi	NNW	4.6 mph	  -	N/A	Fog	"	,"	Rain
728	10/14/1982 -- 2:00 AM	64.9 °F	90%	29.86 in	10.5 mi	NNW	4.6 mph	  -	0.15 in	Fog	"	,"	Rain
729	10/14/1982 -- 2:19 AM	  -	  -	N/A%	29.86 in	7.0 mi	North	4.6 mph	  -	N/A	"	 "	Overcast
730	10/14/1982 -- 3:00 AM	64.0 °F	62.1 °F	93%	29.85 in	7.0 mi	NNW	4.6 mph	  -	0.01 in	"	 "	Overcast
731	10/14/1982 -- 4:00 AM	64.0 °F	61.0 °F	90%	29.84 in	7.0 mi	NNW	3.5 mph	  -	N/A	"	 "	Overcast
732	10/14/1982 -- 5:00 AM	63.0 °F	93%	29.85 in	5.0 mi	NNW	4.6 mph	  -	0.03 in	Fog	"	,"	Rain
733	10/14/1982 -- 5:15 AM	  -	N/A%	29.87 in	5.0 mi	NW	4.6 mph	  -	N/A	Fog	"	,"	Rain
734	10/14/1982 -- 6:00 AM	62.1 °F	60.1 °F	93%	29.86 in	2.0 mi	NNW	4.6 mph	  -	N/A	Fog	Light Drizzle
735	10/14/1982 -- 7:00 AM	62.1 °F	59.0 °F	90%	29.87 in	2.0 mi	NNW	4.6 mph	  -	N/A	Fog	Light Drizzle
736	10/14/1982 -- 7:30 AM	  -	  -	N/A%	29.89 in	3.0 mi	NNW	3.5 mph	  -	N/A	Fog	Fog
737	10/14/1982 -- 8:00 AM	62.1 °F	59.0 °F	90%	29.89 in	3.0 mi	NW	4.6 mph	  -	N/A	Fog	Fog
738	10/14/1982 -- 8:21 AM	  -	N/A%	29.91 in	4.0 mi	NW	4.6 mph	  -	N/A	Fog	"	,"	Rain
739	10/14/1982 -- 9:00 AM	62.1 °F	59.0 °F	90%	29.90 in	4.0 mi	NNW	5.8 mph	  -	0.01 in	Fog	Fog
740	10/14/1982 -- 9:10 AM	  -	  -	N/A%	29.92 in	4.0 mi	NW	4.6 mph	  -	N/A	Fog	Fog
741	10/14/1982 -- 9:28 AM	  -	  -	N/A%	29.92 in	4.0 mi	NNW	5.8 mph	  -	N/A	Fog	Fog
742	10/14/1982 -- 10:00 AM	62.1 °F	59.0 °F	90%	29.92 in	4.0 mi	NNW	6.9 mph	  -	N/A	Fog	Fog
743	10/14/1982 -- 11:00 AM	64.0 °F	55.9 °F	75%	29.93 in	10.0 mi	NNW	11.5 mph	  -	N/A	"	 "	Overcast
744	10/14/1982 -- 12:00 PM	66.9 °F	52.0 °F	59%	29.93 in	10.0 mi	NW	10.4 mph	  -	N/A	"	 "	Unknown
745	10/14/1982 -- 1:00 PM	69.1 °F	50.0 °F	51%	29.91 in	10.0 mi	NNW	5.8 mph	  -	N/A	"	 "	Scattered Clouds
746	10/14/1982 -- 2:00 PM	71.1 °F	50.0 °F	47%	29.89 in	10.0 mi	WNW	6.9 mph	  -	N/A	"	 "	Scattered Clouds
747	10/14/1982 -- 3:00 PM	72.0 °F	45.0 °F	38%	29.86 in	10.0 mi	NW	9.2 mph	  -	N/A	"	 "	Scattered Clouds
748	10/14/1982 -- 4:00 PM	73.0 °F	45.0 °F	37%	29.85 in	10.0 mi	NW	9.2 mph	  -	N/A	"	 "	Clear
749	10/14/1982 -- 5:00 PM	72.0 °F	43.0 °F	35%	29.86 in	10.0 mi	WNW	9.2 mph	  -	N/A	"	 "	Scattered Clouds
750	10/14/1982 -- 6:00 PM	70.0 °F	45.0 °F	41%	29.86 in	15.0 mi	WNW	6.9 mph	  -	N/A	"	 "	Scattered Clouds
751	10/14/1982 -- 7:00 PM	66.9 °F	46.9 °F	49%	29.86 in	15.0 mi	WNW	5.8 mph	  -	N/A	"	 "	Scattered Clouds
752	10/14/1982 -- 8:00 PM	57.9 °F	51.1 °F	78%	29.88 in	20.0 mi	ESE	4.6 mph	  -	N/A	"	 "	Clear
753	10/14/1982 -- 9:00 PM	55.9 °F	51.1 °F	84%	29.88 in	25.0 mi	South	4.6 mph	  -	N/A	"	 "	Scattered Clouds
754	10/14/1982 -- 10:00 PM	59.0 °F	50.0 °F	72%	29.91 in	25.0 mi	NNW	9.2 mph	  -	N/A	"	 "	Scattered Clouds
755	10/14/1982 -- 11:00 PM	57.0 °F	45.0 °F	64%	29.92 in	25.0 mi	NNW	9.2 mph	  -	N/A	"	 "	Clear
756	3/28/1982 -- 12:00 AM	30.9 °F	15.1 °F	52%	30.45 in	20.0 mi	NNW	5.8 mph	  -	N/A	"	 "	Clear
757	3/28/1982 -- 1:00 AM	30.0 °F	12.0 °F	47%	30.46 in	20.0 mi	NNW	8.1 mph	  -	N/A	"	 "	Clear
758	3/28/1982 -- 2:00 AM	28.9 °F	12.9 °F	51%	30.48 in	20.0 mi	NNW	5.8 mph	  -	N/A	"	 "	Clear
759	3/28/1982 -- 3:00 AM	28.9 °F	18.0 °F	64%	30.47 in	20.0 mi	NNW	5.8 mph	  -	N/A	"	 "	Clear
760	3/28/1982 -- 4:00 AM	27.0 °F	19.0 °F	72%	30.47 in	20.0 mi	NNW	4.6 mph	  -	N/A	"	 "	Clear
761	3/28/1982 -- 5:00 AM	27.0 °F	10.9 °F	51%	30.49 in	20.0 mi	North	8.1 mph	  -	N/A	"	 "	Clear
762	3/28/1982 -- 6:00 AM	27.0 °F	14.0 °F	58%	30.53 in	20.0 mi	North	6.9 mph	  -	N/A	"	 "	Clear
763	3/28/1982 -- 7:00 AM	25.0 °F	10.0 °F	53%	30.57 in	20.0 mi	North	6.9 mph	  -	N/A	"	 "	Clear
764	3/28/1982 -- 8:00 AM	30.0 °F	10.0 °F	43%	30.60 in	20.0 mi	NNE	9.2 mph	  -	N/A	"	 "	Clear
765	3/28/1982 -- 9:00 AM	32.0 °F	6.1 °F	34%	30.61 in	20.0 mi	NNE	11.5 mph	  -	N/A	"	 "	Clear
766	3/28/1982 -- 10:00 AM	36.0 °F	10.0 °F	34%	30.61 in	20.0 mi	ENE	12.7 mph	  -	N/A	"	 "	Clear
767	3/28/1982 -- 11:00 AM	39.9 °F	12.0 °F	32%	30.59 in	20.0 mi	NE	12.7 mph	  -	N/A	"	 "	Clear
768	3/28/1982 -- 12:00 PM	42.1 °F	9.0 °F	26%	30.57 in	20.0 mi	ENE	11.5 mph	  -	N/A	"	 "	Clear
769	3/28/1982 -- 1:00 PM	45.0 °F	8.1 °F	22%	30.55 in	20.0 mi	ENE	9.2 mph	  -	N/A	"	 "	Clear
770	3/28/1982 -- 2:00 PM	48.0 °F	9.0 °F	21%	30.52 in	20.0 mi	SE	8.1 mph	  -	N/A	"	 "	Clear
771	3/28/1982 -- 3:00 PM	48.9 °F	8.1 °F	19%	30.51 in	20.0 mi	North	6.9 mph	  -	N/A	"	 "	Clear
772	3/28/1982 -- 4:00 PM	50.0 °F	6.1 °F	17%	30.49 in	20.0 mi	North	4.6 mph	  -	N/A	"	 "	Partly Cloudy
773	3/28/1982 -- 5:00 PM	48.9 °F	9.0 °F	20%	30.50 in	20.0 mi	East	5.8 mph	  -	N/A	"	 "	Partly Cloudy
774	3/28/1982 -- 6:00 PM	46.0 °F	16.0 °F	30%	30.51 in	20.0 mi	East	6.9 mph	  -	N/A	"	 "	Partly Cloudy
775	3/28/1982 -- 7:00 PM	44.1 °F	16.0 °F	32%	30.53 in	20.0 mi	East	4.6 mph	  -	N/A	"	 "	Clear
776	3/28/1982 -- 8:00 PM	39.0 °F	19.0 °F	45%	30.55 in	20.0 mi	ESE	5.8 mph	  -	N/A	"	 "	Clear
777	3/28/1982 -- 9:00 PM	36.0 °F	21.0 °F	55%	30.55 in	20.0 mi	East	5.8 mph	  -	N/A	"	 "	Clear
778	3/28/1982 -- 10:00 PM	35.1 °F	19.0 °F	52%	30.56 in	20.0 mi	East	5.8 mph	  -	N/A	"	 "	Clear
779	3/28/1982 -- 11:00 PM	37.0 °F	17.1 °F	44%	30.57 in	20.0 mi	East	5.8 mph	  -	N/A	"	 "	Clear
780	9/9/1981 -- 12:00 AM	69.1 °F	66.9 °F	93%	29.86 in	3.0 mi	West	4.6 mph	  -	N/A	Fog	Fog
781	9/9/1981 -- 1:00 AM	66.0 °F	64.0 °F	93%	29.87 in	7.0 mi	NW	6.9 mph	  -	N/A	"	 "	Clear
782	9/9/1981 -- 2:00 AM	63.0 °F	59.0 °F	87%	29.87 in	7.0 mi	NW	5.8 mph	  -	N/A	"	 "	Clear
783	9/9/1981 -- 3:00 AM	61.0 °F	57.0 °F	87%	29.86 in	10.0 mi	NNW	6.9 mph	  -	N/A	"	 "	Clear
784	9/9/1981 -- 4:00 AM	60.1 °F	57.0 °F	90%	29.86 in	10.0 mi	Calm	Calm	  -	N/A	"	 "	Clear
785	9/9/1981 -- 5:00 AM	57.9 °F	55.9 °F	93%	29.86 in	10.0 mi	Calm	Calm	  -	N/A	"	 "	Clear
786	9/9/1981 -- 6:00 AM	55.9 °F	55.0 °F	97%	29.87 in	10.0 mi	Calm	Calm	  -	N/A	"	 "	Clear
787	9/9/1981 -- 7:00 AM	55.9 °F	54.0 °F	93%	29.89 in	7.0 mi	NW	4.6 mph	  -	N/A	"	 "	Clear
788	9/9/1981 -- 8:00 AM	55.9 °F	54.0 °F	93%	29.91 in	7.0 mi	Calm	Calm	  -	N/A	"	 "	Clear
789	9/9/1981 -- 9:00 AM	63.0 °F	57.0 °F	81%	29.92 in	7.0 mi	NNW	4.6 mph	  -	N/A	"	 "	Clear
790	9/9/1981 -- 10:00 AM	66.9 °F	59.0 °F	76%	29.93 in	10.0 mi	North	6.9 mph	  -	N/A	"	 "	Clear
791	9/9/1981 -- 11:00 AM	70.0 °F	57.9 °F	65%	29.94 in	10.0 mi	NNE	8.1 mph	  -	N/A	"	 "	Clear
792	9/9/1981 -- 12:00 PM	73.0 °F	57.0 °F	57%	29.94 in	10.0 mi	North	4.6 mph	  -	N/A	"	 "	Clear
793	9/9/1981 -- 1:00 PM	75.0 °F	55.0 °F	50%	29.93 in	10.0 mi	West	4.6 mph	  -	N/A	"	 "	Scattered Clouds
794	9/9/1981 -- 2:00 PM	78.1 °F	60.1 °F	54%	29.92 in	10.0 mi	North	4.6 mph	  -	N/A	"	 "	Mostly Cloudy
795	9/9/1981 -- 3:00 PM	78.1 °F	55.0 °F	45%	29.91 in	10.0 mi	South	4.6 mph	  -	N/A	"	 "	Scattered Clouds
796	9/9/1981 -- 4:00 PM	78.1 °F	53.1 °F	42%	29.90 in	10.0 mi	NW	8.1 mph	  -	N/A	"	 "	Scattered Clouds
797	9/9/1981 -- 5:00 PM	78.1 °F	52.0 °F	40%	29.89 in	15.0 mi	West	8.1 mph	  -	N/A	"	 "	Scattered Clouds
798	9/9/1981 -- 6:00 PM	75.9 °F	53.1 °F	45%	29.90 in	20.0 mi	West	9.2 mph	  -	N/A	"	 "	Scattered Clouds
799	9/9/1981 -- 7:00 PM	73.9 °F	53.1 °F	48%	29.91 in	20.0 mi	WNW	6.9 mph	  -	N/A	"	 "	Scattered Clouds
800	9/9/1981 -- 8:00 PM	69.1 °F	55.9 °F	63%	29.92 in	20.0 mi	NW	5.8 mph	  -	N/A	"	 "	Scattered Clouds
801	9/9/1981 -- 9:00 PM	62.1 °F	57.0 °F	84%	29.95 in	25.0 mi	SE	4.6 mph	  -	N/A	"	 "	Scattered Clouds
802	9/9/1981 -- 10:00 PM	61.0 °F	57.9 °F	90%	29.97 in	20.0 mi	Calm	Calm	  -	N/A	"	 "	Scattered Clouds
803	9/9/1981 -- 11:00 PM	59.0 °F	57.0 °F	93%	29.98 in	20.0 mi	Calm	Calm	  -	N/A	"	 "	Clear
804	2/21/1981 -- 12:00 AM	53.1 °F	43.0 °F	69%	29.64 in	10.0 mi	WNW	11.5 mph	  -	N/A	"	 "	Scattered Clouds
805	2/21/1981 -- 1:00 AM	54.0 °F	42.1 °F	64%	29.63 in	10.0 mi	West	11.5 mph	23.0 mph	N/A	"	 "	Scattered Clouds
806	2/21/1981 -- 2:00 AM	53.1 °F	41.0 °F	64%	29.63 in	10.0 mi	WNW	13.8 mph	25.3 mph	N/A	"	 "	Clear
807	2/21/1981 -- 3:00 AM	52.0 °F	39.9 °F	63%	29.64 in	10.0 mi	WNW	11.5 mph	  -	N/A	"	 "	Clear
808	2/21/1981 -- 4:00 AM	51.1 °F	41.0 °F	68%	29.66 in	10.0 mi	WNW	11.5 mph	  -	N/A	"	 "	Clear
809	2/21/1981 -- 5:00 AM	50.0 °F	42.1 °F	74%	29.67 in	10.0 mi	WNW	13.8 mph	  -	N/A	"	 "	Clear
810	2/21/1981 -- 6:00 AM	50.0 °F	42.1 °F	74%	29.70 in	10.0 mi	WNW	10.4 mph	  -	N/A	"	 "	Clear
811	2/21/1981 -- 7:00 AM	48.9 °F	42.1 °F	77%	29.71 in	15.0 mi	WNW	10.4 mph	  -	N/A	"	 "	Scattered Clouds
812	2/21/1981 -- 8:00 AM	50.0 °F	42.1 °F	74%	29.74 in	20.0 mi	WNW	8.1 mph	  -	N/A	"	 "	Mostly Cloudy
813	2/21/1981 -- 9:00 AM	53.1 °F	43.0 °F	69%	29.75 in	20.0 mi	NW	12.7 mph	  -	N/A	"	 "	Overcast
814	2/21/1981 -- 10:00 AM	55.0 °F	44.1 °F	67%	29.77 in	20.0 mi	NW	15.0 mph	23.0 mph	N/A	"	 "	Overcast
815	2/21/1981 -- 11:00 AM	57.0 °F	43.0 °F	59%	29.78 in	20.0 mi	NNW	16.1 mph	  -	N/A	"	 "	Overcast
816	2/21/1981 -- 12:00 PM	59.0 °F	45.0 °F	60%	29.79 in	20.0 mi	NNW	17.3 mph	23.0 mph	N/A	"	 "	Overcast
817	2/21/1981 -- 1:00 PM	59.0 °F	46.0 °F	62%	29.78 in	25.0 mi	NNW	13.8 mph	  -	N/A	"	 "	Overcast
818	2/21/1981 -- 2:00 PM	61.0 °F	43.0 °F	52%	29.77 in	25.0 mi	NNW	13.8 mph	  -	N/A	"	 "	Mostly Cloudy
819	2/21/1981 -- 3:00 PM	63.0 °F	44.1 °F	50%	29.75 in	30.0 mi	NNW	18.4 mph	23.0 mph	N/A	"	 "	Mostly Cloudy
820	2/21/1981 -- 4:00 PM	64.0 °F	46.0 °F	52%	29.77 in	25.0 mi	NW	13.8 mph	  -	N/A	"	 "	Scattered Clouds
821	2/21/1981 -- 5:00 PM	64.0 °F	44.1 °F	48%	29.79 in	25.0 mi	NNW	12.7 mph	  -	N/A	"	 "	Clear
822	2/21/1981 -- 6:00 PM	61.0 °F	43.0 °F	52%	29.81 in	20.0 mi	WNW	10.4 mph	  -	N/A	"	 "	Scattered Clouds
823	2/21/1981 -- 7:00 PM	59.0 °F	44.1 °F	58%	29.83 in	20.0 mi	NNW	8.1 mph	  -	N/A	"	 "	Mostly Cloudy
824	2/21/1981 -- 8:00 PM	57.9 °F	43.0 °F	58%	29.83 in	20.0 mi	North	5.8 mph	  -	N/A	"	 "	Mostly Cloudy
825	2/21/1981 -- 9:00 PM	55.9 °F	43.0 °F	62%	29.86 in	20.0 mi	North	6.9 mph	  -	N/A	"	 "	Mostly Cloudy
826	2/21/1981 -- 10:00 PM	52.0 °F	45.0 °F	77%	29.89 in	20.0 mi	NNW	5.8 mph	  -	N/A	"	 "	Scattered Clouds
827	2/21/1981 -- 11:00 PM	51.1 °F	42.1 °F	71%	29.91 in	20.0 mi	NNW	5.8 mph	  -	N/A	"	 "	Mostly Cloudy
828	2/21/1981 -- 11:25 PM	  -	  -	N/A%	29.91 in	15.0 mi	NW	5.8 mph	  -	N/A	"	 "	Mostly Cloudy
829	8/5/1980 -- 12:00 AM	78.1 °F	72.0 °F	81%	30.00 in	10.0 mi	South	9.2 mph	  -	N/A	"	 "	Overcast
830	8/5/1980 -- 1:00 AM	77.0 °F	73.0 °F	88%	30.02 in	15.0 mi	West	9.2 mph	  -	N/A	"	 "	Mostly Cloudy
831	8/5/1980 -- 2:00 AM	75.0 °F	72.0 °F	90%	30.01 in	15.0 mi	South	4.6 mph	  -	N/A	"	 "	Scattered Clouds
832	8/5/1980 -- 3:00 AM	73.0 °F	72.0 °F	96%	30.01 in	15.0 mi	South	5.8 mph	  -	N/A	"	 "	Scattered Clouds
833	8/5/1980 -- 4:00 AM	73.9 °F	73.0 °F	97%	30.01 in	15.0 mi	South	6.9 mph	  -	N/A	"	 "	Clear
834	8/5/1980 -- 5:00 AM	75.0 °F	73.0 °F	94%	30.02 in	15.0 mi	South	5.8 mph	  -	N/A	"	 "	Clear
835	8/5/1980 -- 6:00 AM	73.9 °F	72.0 °F	93%	30.04 in	10.0 mi	South	4.6 mph	  -	N/A	"	 "	Clear
836	8/5/1980 -- 7:00 AM	73.9 °F	73.0 °F	97%	30.07 in	6.0 mi	South	4.6 mph	  -	N/A	Fog	Fog
837	8/5/1980 -- 8:00 AM	75.9 °F	73.9 °F	94%	30.08 in	7.0 mi	SSW	8.1 mph	  -	N/A	"	 "	Clear
838	8/5/1980 -- 9:00 AM	81.0 °F	73.0 °F	77%	30.10 in	7.0 mi	SW	9.2 mph	  -	N/A	"	 "	Clear
839	8/5/1980 -- 10:00 AM	84.0 °F	73.0 °F	69%	30.10 in	7.0 mi	SW	9.2 mph	  -	N/A	"	 "	Clear
840	8/5/1980 -- 11:00 AM	88.0 °F	73.0 °F	61%	30.11 in	7.0 mi	West	9.2 mph	  -	N/A	"	 "	Clear
841	8/5/1980 -- 12:00 PM	91.9 °F	71.1 °F	50%	30.11 in	8.0 mi	SSW	11.5 mph	  -	N/A	"	 "	Clear
842	8/5/1980 -- 1:00 PM	93.0 °F	68.0 °F	44%	30.10 in	8.0 mi	SW	13.8 mph	  -	N/A	"	 "	Clear
843	8/5/1980 -- 2:00 PM	93.0 °F	70.0 °F	47%	30.09 in	8.0 mi	WSW	11.5 mph	  -	N/A	"	 "	Unknown
844	8/5/1980 -- 3:00 PM	93.9 °F	71.1 °F	47%	30.08 in	10.0 mi	SW	11.5 mph	  -	N/A	"	 "	Scattered Clouds
845	8/5/1980 -- 4:00 PM	93.9 °F	69.1 °F	44%	30.07 in	10.0 mi	South	10.4 mph	  -	N/A	"	 "	Scattered Clouds
846	8/5/1980 -- 5:00 PM	93.9 °F	69.1 °F	44%	30.06 in	10.0 mi	West	13.8 mph	  -	N/A	"	 "	Scattered Clouds
847	8/5/1980 -- 6:00 PM	93.0 °F	68.0 °F	44%	30.06 in	15.0 mi	WSW	11.5 mph	  -	N/A	"	 "	Scattered Clouds
848	8/5/1980 -- 7:00 PM	91.9 °F	68.0 °F	45%	30.05 in	15.0 mi	WSW	11.5 mph	  -	N/A	"	 "	Scattered Clouds
849	8/5/1980 -- 8:00 PM	89.1 °F	69.1 °F	52%	30.05 in	15.0 mi	WSW	5.8 mph	  -	N/A	"	 "	Scattered Clouds
850	8/5/1980 -- 9:00 PM	84.0 °F	70.0 °F	63%	30.09 in	15.0 mi	SW	4.6 mph	  -	N/A	"	 "	Partly Cloudy
851	8/5/1980 -- 10:00 PM	81.0 °F	71.1 °F	72%	30.11 in	15.0 mi	SSE	3.5 mph	  -	N/A	"	 "	Mostly Cloudy
852	8/5/1980 -- 11:00 PM	80.1 °F	71.1 °F	74%	30.12 in	15.0 mi	SSE	3.5 mph	  -	N/A	"	 "	Scattered Clouds
853	1/18/1980 -- 12:00 AM	46.9 °F	43.0 °F	86%	30.22 in	4.0 mi	East	4.6 mph	  -	0.01 in	Fog	"	,"
854	1/18/1980 -- 1:00 AM	45.0 °F	45.0 °F	100%	30.19 in	4.0 mi	East	4.6 mph	  -	0.05 in	Fog	"	,"
855	1/18/1980 -- 2:00 AM	45.0 °F	45.0 °F	100%	30.17 in	4.0 mi	ESE	6.9 mph	  -	0.02 in	Fog	"	,"
856	1/18/1980 -- 3:00 AM	45.0 °F	45.0 °F	100%	30.17 in	4.0 mi	ESE	6.9 mph	  -	0.01 in	Fog	"	,"
857	1/18/1980 -- 4:00 AM	45.0 °F	45.0 °F	100%	30.17 in	4.0 mi	ESE	9.2 mph	  -	0.06 in	Fog	"	,"
858	1/18/1980 -- 5:00 AM	45.0 °F	45.0 °F	100%	30.15 in	2.0 mi	ESE	8.1 mph	  -	0.04 in	Fog	"	,"
859	1/18/1980 -- 5:05 AM	  -	  -	N/A%	30.14 in	2.0 mi	ESE	10.4 mph	  -	N/A	Fog	"	,"
860	1/18/1980 -- 6:00 AM	45.0 °F	45.0 °F	100%	30.14 in	2.0 mi	ESE	6.9 mph	  -	0.03 in	Fog	"	,"
861	1/18/1980 -- 7:00 AM	45.0 °F	45.0 °F	100%	30.12 in	2.0 mi	ESE	9.2 mph	  -	0.04 in	Fog	"	,"
862	1/18/1980 -- 8:00 AM	45.0 °F	45.0 °F	100%	30.12 in	2.0 mi	ESE	9.2 mph	  -	0.03 in	Fog	"	,"
863	1/18/1980 -- 8:25 AM	  -	  -	N/A%	30.13 in	1.0 mi	East	4.6 mph	  -	N/A	Fog	"	,"
864	1/18/1980 -- 9:00 AM	45.0 °F	45.0 °F	100%	30.12 in	1.0 mi	East	4.6 mph	  -	0.04 in	Fog	"	,"
865	1/18/1980 -- 9:20 AM	  -	  -	N/A%	30.12 in	2.0 mi	SE	6.9 mph	  -	N/A	Fog	"	,"
866	1/18/1980 -- 10:00 AM	45.0 °F	45.0 °F	100%	30.14 in	2.0 mi	SSE	6.9 mph	  -	0.11 in	Fog	"	,"
867	1/18/1980 -- 10:15 AM	  -	  -	N/A%	30.12 in	1.0 mi	ESE	6.9 mph	  -	N/A	Fog	"	,"
868	1/18/1980 -- 10:22 AM	  -	  -	N/A%	30.13 in	1.0 mi	SSE	4.6 mph	  -	N/A	Fog	"	,"
869	1/18/1980 -- 11:00 AM	46.0 °F	46.0 °F	100%	30.12 in	1.0 mi	SE	8.1 mph	  -	0.16 in	Fog	"	,"
870	1/18/1980 -- 12:00 PM	46.9 °F	46.9 °F	100%	30.07 in	1.0 mi	ESE	11.5 mph	  -	0.11 in	Fog	"	,"
871	1/18/1980 -- 1:00 PM	46.9 °F	46.9 °F	100%	30.02 in	1.0 mi	SE	9.2 mph	  -	0.18 in	Fog	"	,"
872	1/18/1980 -- 2:00 PM	48.0 °F	48.0 °F	100%	29.98 in	1.0 mi	ESE	12.7 mph	  -	0.08 in	Fog	"	,"
873	1/18/1980 -- 3:00 PM	50.0 °F	50.0 °F	100%	29.96 in	1.0 mi	SE	13.8 mph	  -	0.01 in	Fog	"	,"
874	1/18/1980 -- 4:00 PM	50.0 °F	50.0 °F	100%	29.96 in	1.0 mi	SSE	5.8 mph	  -	0.01 in	Fog	"	,"
875	1/18/1980 -- 4:16 PM	  -	  -	N/A%	29.97 in	1.0 mi	NNW	6.9 mph	  -	N/A	Fog	"	,"
876	1/18/1980 -- 5:00 PM	50.0 °F	50.0 °F	100%	29.98 in	1.0 mi	NNW	9.2 mph	  -	0.07 in	Fog	"	,"
877	1/18/1980 -- 5:16 PM	  -	  -	N/A%	30.00 in	1.0 mi	NNW	11.5 mph	  -	N/A	Fog	"	,"
878	1/18/1980 -- 6:00 PM	48.9 °F	48.9 °F	100%	30.01 in	6.0 mi	NNW	9.2 mph	  -	0.03 in	Fog	"	,"
879	1/18/1980 -- 6:02 PM	  -	  -	N/A%	30.02 in	10.0 mi	NW	10.4 mph	  -	N/A	"	 "	Overcast
880	1/18/1980 -- 6:13 PM	  -	  -	N/A%	30.03 in	10.0 mi	WNW	11.5 mph	  -	N/A	"	 "	Overcast
881	1/18/1980 -- 6:27 PM	  -	  -	N/A%	30.04 in	10.0 mi	NW	9.2 mph	  -	N/A	"	 "	Overcast
882	1/18/1980 -- 7:00 PM	46.9 °F	46.9 °F	100%	30.05 in	10.0 mi	NNW	11.5 mph	  -	N/A	"	 "	Overcast
883	1/18/1980 -- 7:44 PM	  -	  -	N/A%	30.05 in	10.0 mi	NW	5.8 mph	  -	N/A	"	 "	Scattered Clouds
884	1/18/1980 -- 8:00 PM	46.0 °F	46.0 °F	100%	30.05 in	10.0 mi	NW	6.9 mph	  -	N/A	"	 "	Scattered Clouds
885	1/18/1980 -- 9:00 PM	44.1 °F	44.1 °F	100%	30.08 in	10.0 mi	WSW	4.6 mph	  -	N/A	"	 "	Clear
886	1/18/1980 -- 10:00 PM	44.1 °F	44.1 °F	100%	30.08 in	10.0 mi	NW	9.2 mph	  -	N/A	"	 "	Clear
887	1/18/1980 -- 11:00 PM	43.0 °F	43.0 °F	100%	30.10 in	10.0 mi	NW	8.1 mph	  -	N/A	"	 "	Clear
888	7/2/1979 -- 12:00 AM	69.1 °F	63.0 °F	81%	29.92 in	15.0 mi	SW	3.5 mph	  -	N/A	"	 "	Clear
889	7/2/1979 -- 1:00 AM	66.0 °F	63.0 °F	90%	29.93 in	15.0 mi	SW	3.5 mph	  -	N/A	"	 "	Scattered Clouds
890	7/2/1979 -- 2:00 AM	62.1 °F	61.0 °F	96%	29.93 in	15.0 mi	South	4.6 mph	  -	N/A	"	 "	Clear
891	7/2/1979 -- 3:00 AM	64.0 °F	62.1 °F	93%	29.92 in	15.0 mi	SSW	4.6 mph	  -	N/A	"	 "	Clear
892	7/2/1979 -- 4:00 AM	62.1 °F	61.0 °F	96%	29.92 in	15.0 mi	SW	4.6 mph	  -	N/A	"	 "	Clear
893	7/2/1979 -- 5:00 AM	62.1 °F	61.0 °F	96%	29.93 in	15.0 mi	South	3.5 mph	  -	N/A	"	 "	Clear
894	7/2/1979 -- 6:00 AM	60.1 °F	60.1 °F	100%	29.93 in	4.0 mi	WSW	4.6 mph	  -	N/A	Fog	Fog
895	7/2/1979 -- 7:00 AM	61.0 °F	61.0 °F	100%	29.94 in	6.0 mi	SSW	4.6 mph	  -	N/A	Fog	Fog
896	7/2/1979 -- 8:00 AM	66.9 °F	63.0 °F	87%	29.96 in	7.0 mi	SW	5.8 mph	  -	N/A	"	 "	Clear
897	7/2/1979 -- 9:00 AM	72.0 °F	64.0 °F	76%	29.99 in	10.0 mi	WSW	6.9 mph	  -	N/A	"	 "	Clear
898	7/2/1979 -- 10:00 AM	78.1 °F	64.0 °F	62%	29.98 in	10.0 mi	West	10.4 mph	  -	N/A	"	 "	Partly Cloudy
899	7/2/1979 -- 11:00 AM	82.0 °F	62.1 °F	51%	29.98 in	10.0 mi	West	12.7 mph	18.4 mph	N/A	"	 "	Scattered Clouds
900	7/2/1979 -- 12:00 PM	82.0 °F	66.0 °F	58%	29.97 in	15.0 mi	West	13.8 mph	  -	N/A	"	 "	Mostly Cloudy
901	7/2/1979 -- 1:00 PM	84.0 °F	61.0 °F	46%	29.97 in	15.0 mi	WNW	17.3 mph	  -	N/A	"	 "	Mostly Cloudy
902	7/2/1979 -- 2:00 PM	86.0 °F	57.9 °F	38%	29.95 in	10.0 mi	WNW	11.5 mph	  -	N/A	"	 "	Mostly Cloudy
903	7/2/1979 -- 3:00 PM	87.1 °F	57.9 °F	37%	29.96 in	15.0 mi	WNW	16.1 mph	  -	N/A	"	 "	Mostly Cloudy
904	7/2/1979 -- 4:00 PM	87.1 °F	59.0 °F	39%	29.95 in	15.0 mi	West	13.8 mph	  -	N/A	"	 "	Overcast
905	7/2/1979 -- 5:00 PM	87.1 °F	59.0 °F	39%	29.95 in	15.0 mi	West	15.0 mph	  -	N/A	"	 "	Mostly Cloudy
906	7/2/1979 -- 6:00 PM	84.9 °F	60.1 °F	43%	29.94 in	15.0 mi	West	13.8 mph	  -	N/A	"	 "	Mostly Cloudy
907	7/2/1979 -- 7:00 PM	82.9 °F	64.9 °F	54%	29.94 in	15.0 mi	WSW	10.4 mph	  -	N/A	"	 "	Scattered Clouds
908	7/2/1979 -- 8:00 PM	81.0 °F	64.0 °F	56%	29.95 in	15.0 mi	WSW	6.9 mph	  -	N/A	"	 "	Scattered Clouds
909	7/2/1979 -- 9:00 PM	73.9 °F	64.0 °F	71%	29.96 in	15.0 mi	SW	5.8 mph	  -	N/A	"	 "	Scattered Clouds
910	7/2/1979 -- 10:00 PM	73.0 °F	64.0 °F	73%	29.98 in	15.0 mi	West	5.8 mph	  -	N/A	"	 "	Clear
911	7/2/1979 -- 11:00 PM	69.1 °F	64.0 °F	84%	30.00 in	15.0 mi	SE	3.5 mph	  -	N/A	"	 "	Clear
912	12/14/1978 -- 12:00 AM	41.0 °F	28.0 °F	60%	30.10 in	15.0 mi	WNW	5.8 mph	  -	N/A	"	 "	Mostly Cloudy
913	12/14/1978 -- 1:00 AM	42.1 °F	30.0 °F	62%	30.10 in	25.0 mi	WNW	8.1 mph	  -	N/A	"	 "	Mostly Cloudy
914	12/14/1978 -- 2:00 AM	43.0 °F	30.0 °F	60%	30.12 in	25.0 mi	NW	10.4 mph	  -	N/A	"	 "	Overcast
915	12/14/1978 -- 3:00 AM	45.0 °F	28.9 °F	53%	30.14 in	35.0 mi	WNW	10.4 mph	  -	N/A	"	 "	Overcast
916	12/14/1978 -- 4:00 AM	42.1 °F	28.0 °F	58%	30.15 in	35.0 mi	WNW	6.9 mph	  -	N/A	"	 "	Overcast
917	12/14/1978 -- 5:00 AM	41.0 °F	21.0 °F	45%	30.19 in	40.0 mi	NW	13.8 mph	  -	N/A	"	 "	Overcast
918	12/14/1978 -- 6:00 AM	41.0 °F	19.0 °F	41%	30.21 in	45.0 mi	NW	11.5 mph	  -	N/A	"	 "	Overcast
919	12/14/1978 -- 7:00 AM	37.9 °F	19.0 °F	47%	30.25 in	45.0 mi	NW	10.4 mph	  -	N/A	"	 "	Overcast
920	12/14/1978 -- 8:00 AM	37.0 °F	19.9 °F	50%	30.28 in	30.0 mi	WNW	8.1 mph	  -	N/A	"	 "	Mostly Cloudy
921	12/14/1978 -- 9:00 AM	37.9 °F	19.0 °F	47%	30.30 in	30.0 mi	WNW	11.5 mph	  -	N/A	"	 "	Mostly Cloudy
922	12/14/1978 -- 10:00 AM	37.9 °F	19.0 °F	47%	30.32 in	30.0 mi	WNW	11.5 mph	  -	N/A	"	 "	Mostly Cloudy
923	12/14/1978 -- 11:00 AM	39.9 °F	19.0 °F	43%	30.35 in	30.0 mi	WNW	13.8 mph	  -	N/A	"	 "	Mostly Cloudy
924	12/14/1978 -- 12:00 PM	42.1 °F	18.0 °F	38%	30.32 in	30.0 mi	WNW	11.5 mph	  -	N/A	"	 "	Scattered Clouds
925	12/14/1978 -- 1:00 PM	43.0 °F	18.0 °F	37%	30.31 in	30.0 mi	West	9.2 mph	  -	N/A	"	 "	Scattered Clouds
926	12/14/1978 -- 2:00 PM	44.1 °F	18.0 °F	35%	30.29 in	30.0 mi	West	8.1 mph	  -	N/A	"	 "	Scattered Clouds
927	12/14/1978 -- 3:00 PM	45.0 °F	18.0 °F	34%	30.28 in	30.0 mi	WNW	8.1 mph	  -	N/A	"	 "	Clear
928	12/14/1978 -- 4:00 PM	44.1 °F	18.0 °F	35%	30.28 in	30.0 mi	West	8.1 mph	  -	N/A	"	 "	Clear
929	12/14/1978 -- 5:00 PM	39.9 °F	17.1 °F	40%	30.30 in	20.0 mi	West	5.8 mph	  -	N/A	"	 "	Clear
930	12/14/1978 -- 6:00 PM	36.0 °F	18.0 °F	48%	30.30 in	20.0 mi	SW	3.5 mph	  -	N/A	"	 "	Clear
931	12/14/1978 -- 7:00 PM	30.0 °F	19.0 °F	64%	30.32 in	20.0 mi	South	3.5 mph	  -	N/A	"	 "	Clear
932	12/14/1978 -- 8:00 PM	28.9 °F	19.0 °F	67%	30.32 in	20.0 mi	South	3.5 mph	  -	N/A	"	 "	Partly Cloudy
933	12/14/1978 -- 9:00 PM	30.9 °F	18.0 °F	59%	30.32 in	15.0 mi	SSW	5.8 mph	  -	N/A	"	 "	Scattered Clouds
934	12/14/1978 -- 10:00 PM	30.0 °F	18.0 °F	61%	30.31 in	15.0 mi	SSW	4.6 mph	  -	N/A	"	 "	Mostly Cloudy
935	12/14/1978 -- 11:00 PM	28.9 °F	18.0 °F	64%	30.30 in	20.0 mi	Calm	Calm	  -	N/A	"	 "	Partly Cloudy
936	5/28/1978 -- 12:00 AM	66.0 °F	64.9 °F	96%	30.09 in	7.0 mi	NE	5.8 mph	  -	N/A	"	 "	Mostly Cloudy
937	5/28/1978 -- 1:00 AM	64.9 °F	64.0 °F	97%	30.09 in	10.0 mi	NE	4.6 mph	  -	N/A	"	 "	Scattered Clouds
938	5/28/1978 -- 2:00 AM	64.9 °F	64.0 °F	97%	30.08 in	7.0 mi	NE	8.1 mph	  -	N/A	"	 "	Scattered Clouds
939	5/28/1978 -- 3:00 AM	64.9 °F	64.0 °F	97%	30.08 in	7.0 mi	NNE	8.1 mph	  -	N/A	"	 "	Mostly Cloudy
940	5/28/1978 -- 4:00 AM	64.0 °F	63.0 °F	96%	30.07 in	7.0 mi	ENE	6.9 mph	  -	N/A	"	 "	Mostly Cloudy
941	5/28/1978 -- 4:22 AM	  -	  -	N/A%	30.08 in	5.0 mi	NE	6.9 mph	  -	N/A	Fog	Fog
942	5/28/1978 -- 5:00 AM	64.0 °F	63.0 °F	96%	30.06 in	5.0 mi	NE	4.6 mph	  -	N/A	Fog	Fog
943	5/28/1978 -- 6:00 AM	63.0 °F	62.1 °F	97%	30.08 in	5.0 mi	NW	4.6 mph	  -	N/A	Fog	Fog
944	5/28/1978 -- 7:00 AM	62.1 °F	62.1 °F	100%	30.09 in	2.0 mi	WNW	3.5 mph	  -	N/A	Fog	Fog
945	5/28/1978 -- 8:00 AM	64.0 °F	64.0 °F	100%	30.09 in	3.0 mi	NNW	6.9 mph	  -	N/A	Fog	Fog
946	5/28/1978 -- 9:00 AM	66.0 °F	63.0 °F	90%	30.10 in	4.0 mi	North	10.4 mph	  -	N/A	Fog	Fog
947	5/28/1978 -- 10:00 AM	68.0 °F	64.0 °F	87%	30.10 in	4.0 mi	North	9.2 mph	  -	N/A	"	 "	Drizzle
948	5/28/1978 -- 11:00 AM	70.0 °F	63.0 °F	78%	30.10 in	5.0 mi	North	8.1 mph	  -	N/A	"	 "	Drizzle
949	5/28/1978 -- 12:00 PM	72.0 °F	63.0 °F	73%	30.09 in	6.0 mi	NNE	8.1 mph	  -	N/A	"	 "	Drizzle
950	5/28/1978 -- 1:00 PM	72.0 °F	63.0 °F	73%	30.09 in	7.0 mi	North	9.2 mph	  -	N/A	"	 "	Overcast
951	5/28/1978 -- 2:00 PM	73.9 °F	64.0 °F	71%	30.07 in	10.0 mi	North	9.2 mph	  -	N/A	"	 "	Mostly Cloudy
952	5/28/1978 -- 3:00 PM	78.1 °F	63.0 °F	60%	30.05 in	10.0 mi	North	9.2 mph	  -	N/A	"	 "	Mostly Cloudy
953	5/28/1978 -- 4:00 PM	79.0 °F	63.0 °F	58%	30.02 in	10.0 mi	North	9.2 mph	  -	N/A	"	 "	Mostly Cloudy
954	5/28/1978 -- 5:00 PM	79.0 °F	63.0 °F	58%	30.01 in	10.0 mi	North	6.9 mph	  -	N/A	"	 "	Mostly Cloudy
955	5/28/1978 -- 6:00 PM	78.1 °F	62.1 °F	58%	30.00 in	10.0 mi	North	5.8 mph	  -	N/A	"	 "	Mostly Cloudy
956	5/28/1978 -- 7:00 PM	77.0 °F	62.1 °F	60%	30.00 in	10.0 mi	NW	4.6 mph	  -	N/A	"	 "	Mostly Cloudy
957	5/28/1978 -- 8:00 PM	72.0 °F	64.0 °F	76%	30.01 in	10.0 mi	East	6.9 mph	  -	N/A	Rain	Light Rain Showers
958	5/28/1978 -- 9:00 PM	69.1 °F	64.0 °F	84%	30.02 in	10.0 mi	East	8.1 mph	  -	N/A	"	 "	Mostly Cloudy
959	5/28/1978 -- 10:00 PM	68.0 °F	63.0 °F	84%	30.04 in	10.0 mi	ESE	4.6 mph	  -	N/A	"	 "	Mostly Cloudy
960	5/28/1978 -- 11:00 PM	66.0 °F	63.0 °F	90%	30.05 in	10.0 mi	East	3.5 mph	  -	N/A	"	 "	Mostly Cloudy
961	11/9/1977 -- 12:00 AM	55.0 °F	53.1 °F	93%	29.99 in	8.0 mi	Calm	Calm	  -	N/A	"	 "	Clear
962	11/9/1977 -- 1:00 AM	53.1 °F	52.0 °F	96%	30.00 in	10.0 mi	SE	3.5 mph	  -	N/A	"	 "	Clear
963	11/9/1977 -- 2:00 AM	53.1 °F	51.1 °F	93%	30.00 in	10.0 mi	Calm	Calm	  -	N/A	"	 "	Clear
964	11/9/1977 -- 3:00 AM	52.0 °F	51.1 °F	97%	30.00 in	8.0 mi	NW	3.5 mph	  -	N/A	"	 "	Clear
965	11/9/1977 -- 4:00 AM	52.0 °F	51.1 °F	97%	30.01 in	7.0 mi	Calm	Calm	  -	N/A	"	 "	Clear
966	11/9/1977 -- 5:00 AM	52.0 °F	51.1 °F	97%	30.02 in	7.0 mi	Calm	Calm	  -	N/A	"	 "	Clear
967	11/9/1977 -- 6:00 AM	50.0 °F	50.0 °F	100%	30.03 in	7.0 mi	Calm	Calm	  -	N/A	"	 "	Clear
968	11/9/1977 -- 7:00 AM	50.0 °F	48.0 °F	93%	30.05 in	10.5 mi	Calm	Calm	  -	N/A	Fog	Fog
969	11/9/1977 -- 7:24 AM	  -	  -	N/A%	30.07 in	5.0 mi	Calm	Calm	  -	N/A	"	 "	Scattered Clouds
970	11/9/1977 -- 8:00 AM	54.0 °F	53.1 °F	97%	30.08 in	5.0 mi	Calm	Calm	  -	N/A	Fog	Fog
971	11/9/1977 -- 9:00 AM	62.1 °F	57.9 °F	86%	30.08 in	4.0 mi	SSW	4.6 mph	  -	N/A	"	 "	Drizzle
972	11/9/1977 -- 10:00 AM	66.9 °F	57.9 °F	73%	30.08 in	5.0 mi	SSW	5.8 mph	  -	N/A	"	 "	Drizzle
973	11/9/1977 -- 11:00 AM	70.0 °F	57.9 °F	65%	30.08 in	6.0 mi	SSW	9.2 mph	  -	N/A	"	 "	Drizzle
974	11/9/1977 -- 12:00 PM	73.0 °F	57.9 °F	59%	30.05 in	7.0 mi	West	8.1 mph	  -	N/A	"	 "	Clear
975	11/9/1977 -- 1:00 PM	73.9 °F	57.0 °F	55%	30.04 in	7.0 mi	SW	8.1 mph	  -	N/A	"	 "	Unknown
976	11/9/1977 -- 2:00 PM	73.9 °F	57.0 °F	55%	29.99 in	7.0 mi	SW	8.1 mph	  -	N/A	"	 "	Scattered Clouds
977	11/9/1977 -- 3:00 PM	73.9 °F	57.0 °F	55%	29.98 in	7.0 mi	SSE	9.2 mph	  -	N/A	"	 "	Scattered Clouds
978	11/9/1977 -- 4:00 PM	73.0 °F	57.0 °F	57%	29.99 in	7.0 mi	SSE	6.9 mph	  -	N/A	"	 "	Scattered Clouds
979	11/9/1977 -- 5:00 PM	70.0 °F	57.0 °F	63%	30.00 in	7.0 mi	South	4.6 mph	  -	N/A	"	 "	Scattered Clouds
980	11/9/1977 -- 6:00 PM	66.9 °F	57.9 °F	73%	30.01 in	7.0 mi	SE	4.6 mph	  -	N/A	"	 "	Mostly Cloudy
981	11/9/1977 -- 7:00 PM	66.9 °F	57.9 °F	73%	30.02 in	7.0 mi	SSE	5.8 mph	  -	N/A	"	 "	Mostly Cloudy
982	11/9/1977 -- 8:00 PM	66.9 °F	57.9 °F	73%	30.03 in	7.0 mi	SSE	4.6 mph	  -	N/A	"	 "	Mostly Cloudy
983	11/9/1977 -- 9:00 PM	64.9 °F	57.9 °F	78%	30.02 in	7.0 mi	SE	5.8 mph	  -	N/A	"	 "	Mostly Cloudy
984	11/9/1977 -- 10:00 PM	62.1 °F	57.9 °F	86%	30.00 in	7.0 mi	SSE	6.9 mph	  -	N/A	"	 "	Mostly Cloudy
985	11/9/1977 -- 11:00 PM	63.0 °F	57.9 °F	84%	29.99 in	7.0 mi	SSE	10.4 mph	  -	N/A	"	 "	Mostly Cloudy
986	4/23/1977 -- 12:00 AM	64.0 °F	61.0 °F	90%	30.26 in	10.0 mi	South	8.1 mph	  -	N/A	"	 "	Clear
987	4/23/1977 -- 1:00 AM	62.1 °F	60.1 °F	93%	30.24 in	15.0 mi	SSE	8.1 mph	  -	N/A	"	 "	Scattered Clouds
988	4/23/1977 -- 2:00 AM	63.0 °F	61.0 °F	93%	30.22 in	15.0 mi	South	8.1 mph	  -	N/A	"	 "	Scattered Clouds
989	4/23/1977 -- 3:00 AM	62.1 °F	60.1 °F	93%	30.22 in	15.0 mi	South	8.1 mph	  -	N/A	"	 "	Scattered Clouds
990	4/23/1977 -- 4:00 AM	62.1 °F	60.1 °F	93%	30.21 in	15.0 mi	South	6.9 mph	  -	N/A	"	 "	Scattered Clouds
991	4/23/1977 -- 5:00 AM	62.1 °F	60.1 °F	93%	30.21 in	15.0 mi	South	6.9 mph	  -	N/A	"	 "	Mostly Cloudy
992	4/23/1977 -- 6:00 AM	61.0 °F	60.1 °F	97%	30.21 in	10.0 mi	South	6.9 mph	  -	N/A	"	 "	Mostly Cloudy
993	4/23/1977 -- 7:00 AM	64.0 °F	60.1 °F	87%	30.22 in	15.0 mi	South	6.9 mph	  -	N/A	"	 "	Mostly Cloudy
994	4/23/1977 -- 8:00 AM	68.0 °F	61.0 °F	78%	30.22 in	15.0 mi	SW	11.5 mph	  -	N/A	"	 "	Mostly Cloudy
995	4/23/1977 -- 9:00 AM	70.0 °F	62.1 °F	76%	30.21 in	15.0 mi	South	10.4 mph	  -	N/A	"	 "	Overcast
996	4/23/1977 -- 10:00 AM	72.0 °F	62.1 °F	71%	30.20 in	15.0 mi	South	8.1 mph	  -	N/A	"	 "	Mostly Cloudy
997	4/23/1977 -- 11:00 AM	77.0 °F	62.1 °F	60%	30.18 in	15.0 mi	SSW	9.2 mph	  -	N/A	"	 "	Mostly Cloudy
998	4/23/1977 -- 12:00 PM	77.0 °F	62.1 °F	60%	30.16 in	15.0 mi	SW	11.5 mph	  -	N/A	"	 "	Overcast
999	4/23/1977 -- 1:00 PM	75.9 °F	60.1 °F	58%	30.14 in	15.0 mi	South	10.4 mph	  -	N/A	"	 "	Overcast
1000	4/23/1977 -- 2:00 PM	77.0 °F	61.0 °F	58%	30.11 in	15.0 mi	SW	9.2 mph	  -	N/A	"	 "	Overcast
1001	4/23/1977 -- 3:00 PM	75.0 °F	61.0 °F	62%	30.08 in	15.0 mi	South	6.9 mph	  -	N/A	"	 "	Overcast
1002	4/23/1977 -- 4:00 PM	78.1 °F	61.0 °F	56%	30.04 in	15.0 mi	South	8.1 mph	  -	N/A	"	 "	Overcast
1003	4/23/1977 -- 5:00 PM	75.0 °F	61.0 °F	62%	30.03 in	15.0 mi	SSE	6.9 mph	  -	N/A	"	 "	Overcast
1004	4/23/1977 -- 6:00 PM	73.9 °F	62.1 °F	66%	30.01 in	15.0 mi	South	5.8 mph	  -	N/A	"	 "	Overcast
1005	4/23/1977 -- 7:00 PM	71.1 °F	62.1 °F	73%	30.01 in	15.0 mi	SSW	5.8 mph	  -	N/A	"	 "	Overcast
1006	4/23/1977 -- 8:00 PM	70.0 °F	62.1 °F	76%	29.99 in	15.0 mi	South	9.2 mph	  -	N/A	"	 "	Overcast
1007	4/23/1977 -- 9:00 PM	69.1 °F	63.0 °F	81%	30.00 in	15.0 mi	SSW	9.2 mph	  -	N/A	"	 "	Overcast
1008	4/23/1977 -- 10:00 PM	68.0 °F	63.0 °F	84%	30.00 in	15.0 mi	South	8.1 mph	  -	N/A	"	 "	Overcast
1009	4/23/1977 -- 11:00 PM	68.0 °F	64.0 °F	87%	29.98 in	15.0 mi	South	11.5 mph	  -	N/A	"	 "	Overcast
1010	4/23/1977 -- 11:28 PM	  -	  -	N/A%	29.98 in	10.0 mi	South	8.1 mph	  -	N/A	"	 "	Overcast
1011	10/5/1976 -- 12:00 AM	59.0 °F	55.0 °F	87%	30.17 in	7.0 mi	North	3.5 mph	  -	N/A	"	 "	Mostly Cloudy
1012	10/5/1976 -- 1:00 AM	57.9 °F	54.0 °F	87%	30.15 in	6.0 mi	NNE	3.5 mph	  -	N/A	Fog	Fog
1013	10/5/1976 -- 2:00 AM	60.1 °F	55.9 °F	86%	30.15 in	5.0 mi	North	4.6 mph	  -	N/A	Fog	Fog
1014	10/5/1976 -- 2:36 AM	  -	  -	N/A%	30.16 in	5.0 mi	North	5.8 mph	  -	N/A	Fog	Fog
1015	10/5/1976 -- 3:00 AM	  -	  -	N/A%	30.14 in	5.0 mi	North	5.8 mph	  -	N/A	Fog	Fog
1016	10/5/1976 -- 4:00 AM	60.1 °F	55.9 °F	86%	30.14 in	5.0 mi	North	5.8 mph	  -	N/A	Fog	Fog
1017	10/5/1976 -- 5:00 AM	61.0 °F	57.0 °F	87%	30.13 in	5.0 mi	North	6.9 mph	  -	N/A	Fog	Fog
1018	10/5/1976 -- 6:00 AM	60.1 °F	55.9 °F	86%	30.13 in	5.0 mi	NNE	4.6 mph	  -	N/A	Fog	Fog
1019	10/5/1976 -- 7:00 AM	57.9 °F	54.0 °F	87%	30.14 in	4.0 mi	NNE	4.6 mph	  -	N/A	Fog	Fog
1020	10/5/1976 -- 7:03 AM	  -	  -	N/A%	30.16 in	2.0 mi	NNE	5.8 mph	  -	N/A	Fog	Fog
1021	10/5/1976 -- 7:05 AM	  -	  -	N/A%	30.16 in	1.0 mi	NNE	5.8 mph	  -	N/A	Fog	Fog
1022	10/5/1976 -- 7:26 AM	  -	  -	N/A%	30.16 in	1.0 mi	NE	5.8 mph	  -	N/A	Fog	Fog
1023	10/5/1976 -- 8:00 AM	57.9 °F	54.0 °F	87%	30.17 in	5.5 mi	North	4.6 mph	  -	N/A	Fog	Fog
1024	10/5/1976 -- 9:00 AM	  -	  -	N/A%	30.18 in	4.0 mi	North	5.8 mph	  -	N/A	Fog	Fog
1025	10/5/1976 -- 10:00 AM	64.0 °F	55.0 °F	73%	30.20 in	7.0 mi	North	6.9 mph	  -	N/A	"	 "	Scattered Clouds
1026	10/5/1976 -- 11:00 AM	  -	  -	N/A%	30.21 in	9.0 mi	NNE	5.8 mph	  -	N/A	"	 "	Mostly Cloudy
1027	10/5/1976 -- 12:00 PM	  -	  -	N/A%	30.19 in	9.0 mi	NW	8.1 mph	  -	N/A	"	 "	Scattered Clouds
1028	10/5/1976 -- 1:00 PM	70.0 °F	53.1 °F	55%	30.17 in	9.0 mi	North	6.9 mph	  -	N/A	"	 "	Unknown
1029	10/5/1976 -- 2:00 PM	72.0 °F	52.0 °F	49%	30.14 in	10.0 mi	North	8.1 mph	  -	N/A	"	 "	Scattered Clouds
1030	10/5/1976 -- 3:00 PM	75.0 °F	54.0 °F	48%	30.12 in	10.0 mi	NNE	8.1 mph	  -	N/A	"	 "	Scattered Clouds
1031	10/5/1976 -- 4:00 PM	73.0 °F	53.1 °F	49%	30.11 in	10.0 mi	NE	4.6 mph	  -	N/A	"	 "	Scattered Clouds
1032	10/5/1976 -- 5:00 PM	73.0 °F	53.1 °F	49%	30.10 in	15.0 mi	East	9.2 mph	  -	N/A	"	 "	Scattered Clouds
1033	10/5/1976 -- 6:00 PM	71.1 °F	55.0 °F	57%	30.10 in	15.0 mi	ENE	5.8 mph	  -	N/A	"	 "	Clear
1034	10/5/1976 -- 7:00 PM	66.0 °F	55.9 °F	70%	30.10 in	10.0 mi	ENE	4.6 mph	  -	N/A	"	 "	Clear
1035	10/5/1976 -- 8:00 PM	63.0 °F	55.0 °F	75%	30.12 in	10.0 mi	East	5.8 mph	  -	N/A	"	 "	Clear
1036	10/5/1976 -- 9:00 PM	62.1 °F	55.0 °F	78%	30.12 in	10.0 mi	East	3.5 mph	  -	N/A	"	 "	Clear
1037	10/5/1976 -- 10:00 PM	59.0 °F	54.0 °F	83%	30.12 in	10.0 mi	SE	2.3 mph	  -	N/A	"	 "	Clear
1038	10/5/1976 -- 11:00 PM	61.0 °F	54.0 °F	78%	30.12 in	10.0 mi	East	3.5 mph	  -	N/A	"	 "	Clear
1039	3/19/1976 -- 12:00 AM	50.0 °F	30.9 °F	48%	30.20 in	25.0 mi	SSE	9.2 mph	  -	N/A	"	 "	Overcast
1040	3/19/1976 -- 1:00 AM	50.0 °F	30.9 °F	48%	30.19 in	20.0 mi	SSW	10.4 mph	  -	N/A	"	 "	Overcast
1041	3/19/1976 -- 2:00 AM	50.0 °F	30.0 °F	46%	30.18 in	20.0 mi	SSW	11.5 mph	  -	N/A	"	 "	Overcast
1042	3/19/1976 -- 3:00 AM	48.9 °F	30.0 °F	48%	30.17 in	20.0 mi	SSW	9.2 mph	  -	N/A	"	 "	Overcast
1043	3/19/1976 -- 4:00 AM	46.9 °F	30.0 °F	52%	30.18 in	20.0 mi	SSW	8.1 mph	  -	N/A	"	 "	Partly Cloudy
1044	3/19/1976 -- 5:00 AM	46.0 °F	28.9 °F	51%	30.18 in	20.0 mi	South	9.2 mph	  -	N/A	"	 "	Mostly Cloudy
1045	3/19/1976 -- 6:00 AM	46.9 °F	28.9 °F	50%	30.19 in	20.0 mi	SSW	8.1 mph	  -	N/A	"	 "	Mostly Cloudy
1046	3/19/1976 -- 7:00 AM	48.0 °F	28.9 °F	48%	30.21 in	20.0 mi	South	9.2 mph	  -	N/A	"	 "	Overcast
1047	3/19/1976 -- 8:00 AM	50.0 °F	30.0 °F	46%	30.22 in	25.0 mi	SSW	11.5 mph	  -	N/A	"	 "	Overcast
1048	3/19/1976 -- 9:00 AM	55.9 °F	32.0 °F	40%	30.22 in	25.0 mi	SSW	13.8 mph	19.6 mph	N/A	"	 "	Overcast
1049	3/19/1976 -- 10:00 AM	61.0 °F	32.0 °F	34%	30.22 in	25.0 mi	SSW	13.8 mph	20.7 mph	N/A	"	 "	Mostly Cloudy
1050	3/19/1976 -- 11:00 AM	66.9 °F	34.0 °F	30%	30.19 in	20.0 mi	SW	19.6 mph	28.8 mph	N/A	"	 "	Mostly Cloudy
1051	3/19/1976 -- 12:00 PM	69.1 °F	35.1 °F	29%	30.17 in	20.0 mi	SW	16.1 mph	25.3 mph	N/A	"	 "	Mostly Cloudy
1052	3/19/1976 -- 1:00 PM	70.0 °F	35.1 °F	28%	30.15 in	20.0 mi	SW	17.3 mph	23.0 mph	N/A	"	 "	Mostly Cloudy
1053	3/19/1976 -- 2:00 PM	70.0 °F	34.0 °F	27%	30.12 in	20.0 mi	SW	17.3 mph	26.5 mph	N/A	"	 "	Mostly Cloudy
1054	3/19/1976 -- 3:00 PM	71.1 °F	35.1 °F	27%	30.09 in	20.0 mi	SSW	41.4 mph	  -	N/A	"	 "	Mostly Cloudy
1055	3/19/1976 -- 4:00 PM	71.1 °F	35.1 °F	27%	30.08 in	20.0 mi	SSW	12.7 mph	  -	N/A	"	 "	Scattered Clouds
1056	3/19/1976 -- 5:00 PM	70.0 °F	35.1 °F	28%	30.07 in	20.0 mi	SSW	15.0 mph	20.7 mph	N/A	"	 "	Scattered Clouds
1057	3/19/1976 -- 6:00 PM	66.9 °F	34.0 °F	30%	30.08 in	20.0 mi	SSW	13.8 mph	  -	N/A	"	 "	Clear
1058	3/19/1976 -- 7:00 PM	62.1 °F	34.0 °F	35%	30.09 in	15.0 mi	SSW	6.9 mph	  -	N/A	"	 "	Clear
1059	3/19/1976 -- 8:00 PM	59.0 °F	34.0 °F	39%	30.11 in	15.0 mi	SSW	6.9 mph	  -	N/A	"	 "	Clear
1060	3/19/1976 -- 9:00 PM	57.9 °F	34.0 °F	41%	30.12 in	15.0 mi	South	5.8 mph	  -	N/A	"	 "	Clear
1061	3/19/1976 -- 10:00 PM	55.9 °F	34.0 °F	44%	30.12 in	20.0 mi	South	6.9 mph	  -	N/A	"	 "	Clear
1062	3/19/1976 -- 11:00 PM	55.0 °F	34.0 °F	45%	30.13 in	20.0 mi	South	8.1 mph	  -	N/A	"	 "	Clear
1063	9/1/1975 -- 12:00 AM	71.1 °F	69.1 °F	93%	29.98 in	7.0 mi	NNE	3.5 mph	  -	N/A	Rain	Light Rain
1064	9/1/1975 -- 12:25 AM	  -	  -	N/A%	29.98 in	4.0 mi	NW	4.6 mph	  -	N/A	Rain	Light Rain
1065	9/1/1975 -- 1:00 AM	71.1 °F	69.1 °F	93%	29.98 in	4.0 mi	North	4.6 mph	  -	N/A	Fog	"	,"
1066	9/1/1975 -- 2:00 AM	71.1 °F	69.1 °F	93%	29.95 in	4.0 mi	Calm	Calm	  -	N/A	Fog	"	,"
1067	9/1/1975 -- 2:24 AM	  -	  -	N/A%	29.96 in	5.0 mi	North	4.6 mph	  -	N/A	Fog	Fog
1068	9/1/1975 -- 3:00 AM	71.1 °F	69.1 °F	93%	29.93 in	4.0 mi	North	5.8 mph	  -	N/A	Fog	Fog
1069	9/1/1975 -- 4:00 AM	70.0 °F	69.1 °F	97%	29.92 in	3.0 mi	NNE	3.5 mph	  -	0.27 in	Fog	Fog
1070	9/1/1975 -- 5:00 AM	71.1 °F	69.1 °F	93%	29.93 in	3.0 mi	Calm	Calm	  -	0.01 in	Fog	Fog
1071	9/1/1975 -- 6:00 AM	71.1 °F	69.1 °F	93%	29.92 in	3.0 mi	North	4.6 mph	  -	N/A	Fog	Fog
1072	9/1/1975 -- 7:00 AM	71.1 °F	69.1 °F	93%	29.93 in	1.0 mi	NE	3.5 mph	  -	N/A	Fog	Fog
1073	9/1/1975 -- 7:28 AM	  -	  -	N/A%	29.95 in	1.0 mi	NE	3.5 mph	  -	N/A	Fog	Fog
1074	9/1/1975 -- 8:00 AM	71.1 °F	69.1 °F	93%	29.94 in	1.0 mi	NE	3.5 mph	  -	N/A	Fog	Fog
1075	9/1/1975 -- 9:00 AM	71.1 °F	69.1 °F	93%	29.95 in	10.5 mi	NNE	4.6 mph	  -	N/A	Fog	Fog
1076	9/1/1975 -- 10:00 AM	73.0 °F	70.0 °F	90%	29.95 in	5.0 mi	NNE	4.6 mph	  -	N/A	Fog	Fog
1077	9/1/1975 -- 10:13 AM	  -	  -	N/A%	29.97 in	7.0 mi	WNW	3.5 mph	  -	N/A	"	 "	Overcast
1078	9/1/1975 -- 11:00 AM	75.9 °F	71.1 °F	85%	29.95 in	8.0 mi	NW	5.8 mph	  -	N/A	"	 "	Mostly Cloudy
1079	9/1/1975 -- 12:00 PM	75.9 °F	69.1 °F	79%	29.96 in	10.0 mi	NNW	8.1 mph	  -	N/A	"	 "	Overcast
1080	9/1/1975 -- 1:00 PM	81.0 °F	70.0 °F	69%	29.95 in	9.0 mi	NNE	6.9 mph	  -	N/A	"	 "	Overcast
1081	9/1/1975 -- 2:00 PM	77.0 °F	68.0 °F	74%	29.94 in	9.0 mi	NNE	13.8 mph	  -	N/A	"	 "	Overcast
1082	9/1/1975 -- 3:00 PM	75.0 °F	69.1 °F	82%	29.92 in	8.0 mi	North	10.4 mph	  -	N/A	Rain	Light Rain Showers
1083	9/1/1975 -- 4:00 PM	80.1 °F	68.0 °F	67%	29.91 in	10.0 mi	NNE	11.5 mph	  -	N/A	"	 "	Mostly Cloudy
1084	9/1/1975 -- 5:00 PM	80.1 °F	68.0 °F	67%	29.88 in	10.0 mi	NE	5.8 mph	  -	N/A	"	 "	Mostly Cloudy
1085	9/1/1975 -- 6:00 PM	81.0 °F	66.9 °F	62%	29.88 in	10.0 mi	East	5.8 mph	  -	N/A	"	 "	Mostly Cloudy
1086	9/1/1975 -- 7:00 PM	78.1 °F	66.9 °F	68%	29.88 in	10.0 mi	NNW	6.9 mph	  -	N/A	"	 "	Scattered Clouds
1087	9/1/1975 -- 8:00 PM	73.9 °F	68.0 °F	82%	29.90 in	10.0 mi	NE	5.8 mph	  -	N/A	"	 "	Scattered Clouds
1088	9/1/1975 -- 9:00 PM	72.0 °F	68.0 °F	87%	29.93 in	10.0 mi	NE	5.8 mph	  -	N/A	"	 "	Clear
1089	9/1/1975 -- 10:00 PM	71.1 °F	66.9 °F	87%	29.95 in	10.0 mi	NNE	4.6 mph	  -	N/A	"	 "	Scattered Clouds
1090	9/1/1975 -- 11:00 PM	70.0 °F	66.0 °F	87%	29.96 in	10.0 mi	NE	5.8 mph	  -	N/A	"	 "	Scattered Clouds
1091	2/13/1975 -- 12:00 AM	39.0 °F	25.0 °F	57%	29.99 in	10.0 mi	WNW	9.2 mph	  -	N/A	"	 "	Scattered Clouds
1092	2/13/1975 -- 1:00 AM	35.1 °F	24.1 °F	64%	29.99 in	10.0 mi	WNW	9.2 mph	  -	N/A	"	 "	Clear
1093	2/13/1975 -- 2:00 AM	35.1 °F	25.0 °F	67%	29.98 in	10.0 mi	West	5.8 mph	  -	N/A	"	 "	Clear
1094	2/13/1975 -- 3:00 AM	33.1 °F	24.1 °F	70%	29.97 in	10.0 mi	WNW	5.8 mph	  -	N/A	"	 "	Clear
1095	2/13/1975 -- 4:00 AM	30.9 °F	24.1 °F	76%	29.96 in	10.0 mi	West	5.8 mph	  -	N/A	"	 "	Clear
1096	2/13/1975 -- 5:00 AM	33.1 °F	23.0 °F	66%	29.96 in	10.0 mi	West	5.8 mph	  -	N/A	"	 "	Clear
1097	2/13/1975 -- 6:00 AM	28.0 °F	23.0 °F	81%	29.95 in	10.0 mi	SW	3.5 mph	  -	N/A	"	 "	Clear
1098	2/13/1975 -- 7:00 AM	28.9 °F	23.0 °F	78%	29.96 in	10.0 mi	WSW	3.5 mph	  -	N/A	"	 "	Scattered Clouds
1099	2/13/1975 -- 8:00 AM	30.9 °F	25.0 °F	79%	29.97 in	10.0 mi	SW	4.6 mph	  -	N/A	"	 "	Clear
1100	2/13/1975 -- 9:00 AM	37.9 °F	25.0 °F	60%	29.99 in	10.0 mi	WNW	8.1 mph	  -	N/A	"	 "	Clear
1101	2/13/1975 -- 10:00 AM	46.9 °F	19.9 °F	34%	30.00 in	10.0 mi	WNW	9.2 mph	  -	N/A	"	 "	Clear
1102	2/13/1975 -- 11:00 AM	48.9 °F	24.1 °F	38%	30.01 in	10.0 mi	WNW	18.4 mph	  -	N/A	"	 "	Clear
1103	2/13/1975 -- 12:00 PM	50.0 °F	25.0 °F	38%	30.00 in	10.0 mi	WNW	17.3 mph	  -	N/A	"	 "	Clear
1104	2/13/1975 -- 1:00 PM	50.0 °F	23.0 °F	35%	29.97 in	10.0 mi	NW	13.8 mph	  -	N/A	"	 "	Clear
1105	2/13/1975 -- 2:00 PM	52.0 °F	24.1 °F	34%	29.96 in	10.0 mi	West	12.7 mph	  -	N/A	"	 "	Clear
1106	2/13/1975 -- 3:00 PM	53.1 °F	24.1 °F	32%	29.94 in	10.0 mi	WNW	13.8 mph	  -	N/A	"	 "	Scattered Clouds
1107	2/13/1975 -- 4:00 PM	53.1 °F	23.0 °F	31%	29.96 in	10.0 mi	West	21.9 mph	  -	N/A	"	 "	Scattered Clouds
1108	2/13/1975 -- 5:00 PM	52.0 °F	23.0 °F	32%	29.98 in	10.0 mi	West	9.2 mph	  -	N/A	"	 "	Scattered Clouds
1109	2/13/1975 -- 6:00 PM	48.9 °F	21.9 °F	35%	30.00 in	10.0 mi	WNW	12.7 mph	  -	N/A	"	 "	Mostly Cloudy
1110	2/13/1975 -- 7:00 PM	45.0 °F	21.0 °F	39%	30.04 in	10.0 mi	NNW	11.5 mph	  -	N/A	"	 "	Scattered Clouds
1111	2/13/1975 -- 8:00 PM	41.0 °F	16.0 °F	36%	30.07 in	10.0 mi	North	11.5 mph	  -	N/A	"	 "	Clear
1112	2/13/1975 -- 9:00 PM	37.9 °F	12.0 °F	35%	30.09 in	10.0 mi	NNW	11.5 mph	  -	N/A	"	 "	Clear
1113	2/13/1975 -- 10:00 PM	35.1 °F	12.0 °F	39%	30.09 in	10.0 mi	NNW	11.5 mph	  -	N/A	"	 "	Clear
1114	2/13/1975 -- 11:00 PM	33.1 °F	10.9 °F	40%	30.12 in	10.0 mi	NNW	5.8 mph	  -	N/A	"	 "	Clear
1115	7/28/1974 -- 12:00 AM	70.0 °F	69.1 °F	97%	29.99 in	10.0 mi	WNW	5.8 mph	  -	N/A	"	 "	Overcast
1116	7/28/1974 -- 1:00 AM	69.1 °F	68.0 °F	96%	29.99 in	10.0 mi	North	5.8 mph	  -	N/A	"	 "	Overcast
1117	7/28/1974 -- 2:00 AM	68.0 °F	68.0 °F	100%	29.97 in	10.0 mi	NNW	5.8 mph	  -	N/A	"	 "	Overcast
1118	7/28/1974 -- 3:00 AM	66.0 °F	66.0 °F	100%	29.97 in	10.0 mi	NNE	5.8 mph	  -	N/A	"	 "	Scattered Clouds
1119	7/28/1974 -- 4:00 AM	66.9 °F	66.9 °F	100%	29.95 in	10.0 mi	NE	4.6 mph	  -	N/A	"	 "	Scattered Clouds
1120	7/28/1974 -- 5:00 AM	66.9 °F	66.9 °F	100%	29.95 in	10.0 mi	North	6.9 mph	  -	N/A	"	 "	Scattered Clouds
1121	7/28/1974 -- 6:00 AM	66.0 °F	66.0 °F	100%	29.95 in	7.0 mi	SSE	5.8 mph	  -	N/A	"	 "	Scattered Clouds
1122	7/28/1974 -- 7:00 AM	66.9 °F	66.9 °F	100%	29.96 in	2.0 mi	North	5.8 mph	  -	N/A	Fog	Fog
1123	7/28/1974 -- 7:14 AM	  -	  -	N/A%	29.97 in	0.3 mi	North	6.9 mph	  -	N/A	"	 "	Unknown
1124	7/28/1974 -- 7:28 AM	  -	  -	N/A%	29.97 in	1.0 mi	North	6.9 mph	  -	N/A	"	 "	Unknown
1125	7/28/1974 -- 8:00 AM	70.0 °F	70.0 °F	100%	29.96 in	5.5 mi	NNE	5.8 mph	  -	N/A	Fog	Fog
1126	7/28/1974 -- 9:00 AM	73.9 °F	73.0 °F	97%	29.98 in	3.0 mi	North	8.1 mph	  -	N/A	Fog	Fog
1127	7/28/1974 -- 10:00 AM	78.1 °F	73.9 °F	87%	29.98 in	4.0 mi	NNE	8.1 mph	  -	N/A	"	 "	Drizzle
1128	7/28/1974 -- 10:34 AM	  -	  -	N/A%	30.00 in	6.0 mi	ENE	10.4 mph	  -	N/A	"	 "	Drizzle
1129	7/28/1974 -- 11:00 AM	79.0 °F	73.0 °F	82%	29.99 in	6.0 mi	NNE	8.1 mph	  -	N/A	"	 "	Drizzle
1130	7/28/1974 -- 11:18 AM	  -	  -	N/A%	30.00 in	7.0 mi	NNE	9.2 mph	  -	N/A	"	 "	Scattered Clouds
1131	7/28/1974 -- 12:00 PM	81.0 °F	71.1 °F	72%	29.98 in	7.0 mi	NE	9.2 mph	  -	N/A	"	 "	Mostly Cloudy
1132	7/28/1974 -- 12:37 PM	  -	  -	N/A%	29.98 in	7.0 mi	East	11.5 mph	  -	N/A	"	 "	Scattered Clouds
1133	7/28/1974 -- 1:00 PM	84.0 °F	70.0 °F	63%	29.97 in	7.0 mi	East	9.2 mph	  -	N/A	"	 "	Scattered Clouds
1134	7/28/1974 -- 2:00 PM	84.9 °F	70.0 °F	61%	29.95 in	7.0 mi	NE	10.4 mph	  -	N/A	"	 "	Scattered Clouds
1135	7/28/1974 -- 3:00 PM	86.0 °F	70.0 °F	59%	29.93 in	7.0 mi	ESE	5.8 mph	  -	N/A	"	 "	Scattered Clouds
1136	7/28/1974 -- 4:00 PM	87.1 °F	71.1 °F	59%	29.91 in	8.0 mi	East	5.8 mph	  -	N/A	"	 "	Scattered Clouds
1137	7/28/1974 -- 5:00 PM	84.9 °F	70.0 °F	61%	29.89 in	10.0 mi	ESE	8.1 mph	  -	N/A	"	 "	Scattered Clouds
1138	7/28/1974 -- 6:00 PM	84.9 °F	70.0 °F	61%	29.88 in	10.0 mi	SE	9.2 mph	  -	N/A	"	 "	Scattered Clouds
1139	7/28/1974 -- 7:00 PM	84.0 °F	70.0 °F	63%	29.88 in	10.0 mi	ESE	6.9 mph	  -	N/A	"	 "	Scattered Clouds
1140	7/28/1974 -- 8:00 PM	80.1 °F	71.1 °F	74%	29.88 in	10.0 mi	ESE	6.9 mph	  -	N/A	"	 "	Clear
1141	7/28/1974 -- 9:00 PM	77.0 °F	70.0 °F	79%	29.91 in	10.0 mi	ESE	4.6 mph	  -	N/A	"	 "	Clear
1142	7/28/1974 -- 10:00 PM	73.0 °F	71.1 °F	93%	29.93 in	10.0 mi	ESE	5.8 mph	  -	N/A	"	 "	Clear
1143	7/28/1974 -- 11:00 PM	71.1 °F	70.0 °F	96%	29.93 in	10.0 mi	ESE	5.8 mph	  -	N/A	"	 "	Clear
1144	1/9/1974 -- 12:00 AM	44.1 °F	35.1 °F	71%	30.34 in	10.0 mi	ESE	5.8 mph	  -	N/A	"	 "	Overcast
1145	1/9/1974 -- 1:00 AM	42.1 °F	36.0 °F	79%	30.29 in	10.0 mi	SE	11.5 mph	  -	N/A	"	 "	Overcast
1146	1/9/1974 -- 2:00 AM	43.0 °F	36.0 °F	76%	30.24 in	10.0 mi	ESE	11.5 mph	  -	N/A	"	 "	Overcast
1147	1/9/1974 -- 3:00 AM	42.1 °F	36.0 °F	79%	30.21 in	10.0 mi	SE	4.6 mph	  -	N/A	"	 "	Overcast
1148	1/9/1974 -- 4:00 AM	42.1 °F	37.9 °F	85%	30.19 in	10.0 mi	SW	3.5 mph	  -	N/A	Rain	Light Rain
1149	1/9/1974 -- 5:00 AM	41.0 °F	39.0 °F	93%	30.15 in	7.0 mi	North	5.8 mph	  -	N/A	Rain	Light Rain
1150	1/9/1974 -- 6:00 AM	41.0 °F	39.9 °F	96%	30.14 in	4.0 mi	Calm	Calm	  -	N/A	Fog	"	,"
1151	1/9/1974 -- 7:00 AM	41.0 °F	39.9 °F	96%	30.13 in	3.2 mi	West	4.6 mph	  -	N/A	Fog	Light Drizzle
1152	1/9/1974 -- 7:30 AM	  -	  -	N/A%	30.13 in	1.0 mi	WSW	4.6 mph	  -	N/A	Fog	Light Drizzle
1153	1/9/1974 -- 8:00 AM	41.0 °F	39.9 °F	96%	30.12 in	1.0 mi	West	4.6 mph	  -	N/A	Fog	Light Drizzle
1154	1/9/1974 -- 8:09 AM	  -	  -	N/A%	30.15 in	1.0 mi	West	4.6 mph	  -	N/A	Fog	Light Drizzle
1155	1/9/1974 -- 9:00 AM	41.0 °F	41.0 °F	100%	30.15 in	1.0 mi	WNW	6.9 mph	  -	N/A	Fog	"	,"
1156	1/9/1974 -- 10:00 AM	41.0 °F	41.0 °F	100%	30.19 in	1.0 mi	West	4.6 mph	  -	N/A	Fog	"	,"
1157	1/9/1974 -- 11:00 AM	42.1 °F	42.1 °F	100%	30.18 in	5.5 mi	South	8.1 mph	  -	N/A	Fog	"	,"
1158	1/9/1974 -- 12:00 PM	45.0 °F	44.1 °F	97%	30.15 in	5.5 mi	SW	9.2 mph	  -	N/A	Fog	"	,"
1159	1/9/1974 -- 12:16 PM	  -	  -	N/A%	30.15 in	5.5 mi	SW	12.7 mph	  -	N/A	Fog	"	,"
1160	1/9/1974 -- 1:00 PM	45.0 °F	45.0 °F	100%	30.14 in	5.5 mi	SW	9.2 mph	  -	N/A	Fog	"	,"
1161	1/9/1974 -- 2:00 PM	45.0 °F	45.0 °F	100%	30.13 in	5.5 mi	SW	9.2 mph	  -	N/A	Fog	"	,"
1162	1/9/1974 -- 3:00 PM	46.9 °F	46.9 °F	100%	30.12 in	5.5 mi	WSW	12.7 mph	  -	N/A	Fog	"	,"
1163	1/9/1974 -- 4:00 PM	50.0 °F	50.0 °F	100%	30.11 in	5.5 mi	WSW	12.7 mph	  -	N/A	Fog	Fog
1164	1/9/1974 -- 5:00 PM	51.1 °F	51.1 °F	100%	30.13 in	5.5 mi	WSW	6.9 mph	  -	N/A	Fog	Fog
1165	1/9/1974 -- 6:00 PM	52.0 °F	52.0 °F	100%	30.15 in	5.5 mi	WSW	5.8 mph	  -	N/A	Fog	Fog
1166	1/9/1974 -- 6:26 PM	  -	  -	N/A%	30.15 in	5.5 mi	WSW	5.8 mph	  -	N/A	Fog	Fog
1167	1/9/1974 -- 7:00 PM	51.1 °F	51.1 °F	100%	30.16 in	5.5 mi	SSW	5.8 mph	  -	N/A	Fog	Fog
1168	1/9/1974 -- 8:00 PM	51.1 °F	51.1 °F	100%	30.17 in	5.5 mi	SW	6.9 mph	  -	N/A	Fog	Fog
1169	1/9/1974 -- 8:35 PM	  -	  -	N/A%	30.18 in	5.5 mi	SW	5.8 mph	  -	N/A	Fog	Fog
1170	1/9/1974 -- 9:00 PM	52.0 °F	52.0 °F	100%	30.17 in	0.8 mi	Calm	Calm	  -	N/A	Fog	Fog
1171	1/9/1974 -- 9:18 PM	  -	  -	N/A%	30.17 in	0.8 mi	Calm	Calm	  -	N/A	Fog	Fog
1172	1/9/1974 -- 10:00 PM	52.0 °F	52.0 °F	100%	30.19 in	0.4 mi	WSW	3.5 mph	  -	N/A	Fog	Fog
1173	1/9/1974 -- 11:00 PM	52.0 °F	52.0 °F	100%	30.21 in	0.2 mi	Calm	Calm	  -	N/A	Fog	Fog
1174	6/23/1973 -- 12:00 AM	69.1 °F	68.0 °F	96%	30.06 in	5.0 mi	North	4.6 mph	  -	0.03 in	Fog	"	,"
1175	6/23/1973 -- 12:28 AM	  -	  -	N/A%	30.07 in	2.0 mi	NW	6.9 mph	  -	N/A	Fog	"	,"
1176	6/23/1973 -- 1:00 AM	68.0 °F	68.0 °F	100%	30.06 in	2.0 mi	NW	5.8 mph	  -	N/A	Fog	"	,"
1177	6/23/1973 -- 1:15 AM	  -	  -	N/A%	30.06 in	2.0 mi	North	5.8 mph	  -	N/A	Fog	"	,"
1178	6/23/1973 -- 2:00 AM	68.0 °F	68.0 °F	100%	30.04 in	5.5 mi	WNW	5.8 mph	  -	N/A	Fog	Fog
1179	6/23/1973 -- 2:17 AM	  -	  -	N/A%	30.04 in	5.5 mi	NNW	8.1 mph	  -	N/A	Fog	Fog
1180	6/23/1973 -- 3:00 AM	68.0 °F	68.0 °F	100%	30.02 in	1.0 mi	WNW	5.8 mph	  -	N/A	Fog	Fog
1181	6/23/1973 -- 3:42 AM	  -	  -	N/A%	0.00 in	5.5 mi	NNE	8.1 mph	  -	N/A	Fog	"	,"
1182	6/23/1973 -- 4:00 AM	68.0 °F	68.0 °F	100%	30.01 in	5.5 mi	NNE	9.2 mph	  -	N/A	Fog	"	,"
1183	6/23/1973 -- 4:10 AM	  -	  -	N/A%	30.02 in	2.0 mi	NE	5.8 mph	  -	N/A	Fog	"	,"
1184	6/23/1973 -- 5:00 AM	68.0 °F	68.0 °F	100%	30.01 in	2.0 mi	South	5.8 mph	  -	N/A	Fog	Fog
1185	6/23/1973 -- 5:42 AM	  -	  -	N/A%	30.03 in	1.0 mi	WNW	6.9 mph	  -	N/A	Fog	Fog
1186	6/23/1973 -- 6:00 AM	68.0 °F	68.0 °F	100%	30.04 in	0.5 mi	SSW	8.1 mph	  -	N/A	Fog	"	,"
1187	6/23/1973 -- 6:44 AM	  -	  -	N/A%	30.05 in	0.5 mi	SSW	5.8 mph	  -	N/A	Fog	Fog
1188	6/23/1973 -- 7:00 AM	68.0 °F	68.0 °F	100%	30.04 in	0.8 mi	WSW	5.8 mph	  -	N/A	Fog	"	,"
1189	6/23/1973 -- 8:00 AM	68.0 °F	68.0 °F	100%	30.04 in	5.5 mi	NW	5.8 mph	  -	N/A	Fog	Fog
1190	6/23/1973 -- 9:00 AM	70.0 °F	70.0 °F	100%	30.04 in	10.5 mi	Calm	Calm	  -	N/A	Fog	Fog
1191	6/23/1973 -- 10:00 AM	72.0 °F	70.0 °F	93%	30.04 in	10.5 mi	North	6.9 mph	  -	N/A	Fog	Fog
1192	6/23/1973 -- 10:08 AM	  -	  -	N/A%	30.06 in	10.5 mi	NW	4.6 mph	  -	N/A	Fog	Fog
1193	6/23/1973 -- 11:00 AM	73.0 °F	70.0 °F	90%	30.05 in	4.0 mi	North	5.8 mph	  -	N/A	Fog	Fog
1194	6/23/1973 -- 12:00 PM	75.9 °F	69.1 °F	79%	30.04 in	5.0 mi	NW	8.1 mph	  -	N/A	"	 "	Drizzle
1195	6/23/1973 -- 1:00 PM	77.0 °F	70.0 °F	79%	30.05 in	6.0 mi	NNE	4.6 mph	  -	N/A	"	 "	Drizzle
1196	6/23/1973 -- 2:00 PM	79.0 °F	64.0 °F	60%	30.04 in	7.0 mi	Calm	Calm	  -	N/A	"	 "	Overcast
1197	6/23/1973 -- 3:00 PM	82.0 °F	68.0 °F	62%	30.02 in	7.0 mi	North	5.8 mph	  -	N/A	"	 "	Overcast
1198	6/23/1973 -- 4:00 PM	79.0 °F	68.0 °F	69%	30.02 in	7.0 mi	Calm	Calm	  -	N/A	"	 "	Overcast
1199	6/23/1973 -- 5:00 PM	79.0 °F	68.0 °F	69%	29.99 in	7.0 mi	East	6.9 mph	  -	N/A	"	 "	Overcast
1200	6/23/1973 -- 6:00 PM	80.1 °F	69.1 °F	69%	29.99 in	6.0 mi	East	6.9 mph	  -	N/A	"	 "	Drizzle
1201	6/23/1973 -- 7:00 PM	78.1 °F	69.1 °F	74%	30.00 in	6.0 mi	East	5.8 mph	  -	N/A	"	 "	Drizzle
1202	6/23/1973 -- 8:00 PM	75.9 °F	70.0 °F	82%	30.00 in	6.0 mi	East	8.1 mph	  -	N/A	"	 "	Drizzle
1203	6/23/1973 -- 9:00 PM	73.0 °F	69.1 °F	87%	30.01 in	6.0 mi	ESE	4.6 mph	  -	N/A	"	 "	Drizzle
1204	6/23/1973 -- 10:00 PM	71.1 °F	69.1 °F	93%	30.01 in	7.0 mi	SE	4.6 mph	  -	N/A	"	 "	Clear
1205	6/23/1973 -- 11:00 PM	70.0 °F	69.1 °F	97%	30.01 in	7.0 mi	SE	4.6 mph	  -	N/A	"	 "	Clear
1206	12/5/1972 -- 12:00 AM	51.1 °F	37.0 °F	59%	30.12 in	10.0 mi	SW	11.5 mph	  -	N/A	"	 "	Clear
1207	12/5/1972 -- 1:00 AM	51.1 °F	37.9 °F	61%	30.12 in	7.0 mi	SSW	11.5 mph	  -	N/A	"	 "	Clear
1208	12/5/1972 -- 2:00 AM	50.0 °F	39.0 °F	66%	30.12 in	7.0 mi	SSW	10.4 mph	  -	N/A	"	 "	Clear
1209	12/5/1972 -- 3:00 AM	51.1 °F	39.9 °F	66%	30.12 in	7.0 mi	SW	11.5 mph	  -	N/A	"	 "	Unknown
1210	12/5/1972 -- 4:00 AM	51.1 °F	41.0 °F	68%	30.12 in	7.0 mi	WSW	8.1 mph	  -	N/A	"	 "	Unknown
1211	12/5/1972 -- 5:00 AM	51.1 °F	41.0 °F	68%	30.12 in	7.0 mi	WSW	9.2 mph	  -	N/A	"	 "	Unknown
1212	12/5/1972 -- 6:00 AM	51.1 °F	43.0 °F	74%	30.16 in	7.0 mi	SSW	8.1 mph	  -	N/A	"	 "	Unknown
1213	12/5/1972 -- 7:00 AM	52.0 °F	44.1 °F	74%	30.18 in	7.0 mi	South	5.8 mph	  -	N/A	"	 "	Unknown
1214	12/5/1972 -- 8:00 AM	48.9 °F	44.1 °F	83%	30.20 in	7.0 mi	SW	9.2 mph	  -	N/A	"	 "	Unknown
1215	12/5/1972 -- 9:00 AM	55.0 °F	46.9 °F	74%	30.22 in	7.0 mi	SW	8.1 mph	  -	N/A	"	 "	Unknown
1216	12/5/1972 -- 10:00 AM	61.0 °F	51.1 °F	70%	30.25 in	7.0 mi	WSW	10.4 mph	  -	N/A	"	 "	Unknown
1217	12/5/1972 -- 11:00 AM	64.9 °F	54.0 °F	68%	30.25 in	7.0 mi	WSW	17.3 mph	  -	N/A	"	 "	Unknown
1218	12/5/1972 -- 12:00 PM	66.9 °F	54.0 °F	63%	30.22 in	7.0 mi	WSW	13.8 mph	  -	N/A	"	 "	Unknown
1219	12/5/1972 -- 1:00 PM	70.0 °F	55.0 °F	59%	30.19 in	7.0 mi	SSW	9.2 mph	  -	N/A	"	 "	Unknown
1220	12/5/1972 -- 2:00 PM	72.0 °F	55.0 °F	55%	30.17 in	7.0 mi	SSW	11.5 mph	  -	N/A	"	 "	Unknown
1221	12/5/1972 -- 3:00 PM	72.0 °F	54.0 °F	53%	30.15 in	7.0 mi	SSW	8.1 mph	  -	N/A	"	 "	Unknown
1222	12/5/1972 -- 4:00 PM	69.1 °F	54.0 °F	58%	30.15 in	7.0 mi	South	4.6 mph	  -	N/A	"	 "	Unknown
1223	12/5/1972 -- 5:00 PM	64.9 °F	54.0 °F	68%	30.15 in	10.0 mi	South	8.1 mph	  -	N/A	"	 "	Unknown
1224	12/5/1972 -- 6:00 PM	60.1 °F	53.1 °F	78%	30.17 in	10.0 mi	South	9.2 mph	  -	N/A	"	 "	Unknown
1225	12/5/1972 -- 7:00 PM	62.1 °F	54.0 °F	75%	30.15 in	10.0 mi	SSE	9.2 mph	  -	N/A	"	 "	Unknown
1226	12/5/1972 -- 8:00 PM	60.1 °F	54.0 °F	80%	30.17 in	10.0 mi	SSE	8.1 mph	  -	N/A	"	 "	Unknown
1227	12/5/1972 -- 9:00 PM	55.9 °F	52.0 °F	87%	30.17 in	10.0 mi	SSE	9.2 mph	  -	N/A	"	 "	Unknown
1228	12/5/1972 -- 10:00 PM	59.0 °F	54.0 °F	83%	30.16 in	10.0 mi	SSE	9.2 mph	  -	N/A	"	 "	Unknown
1229	12/5/1972 -- 11:00 PM	59.0 °F	52.0 °F	78%	30.15 in	10.0 mi	SSE	11.5 mph	  -	N/A	"	 "	Unknown
1230	5/19/1972 -- 12:00 AM	61.0 °F	55.0 °F	81%	29.93 in	7.0 mi	North	9.2 mph	  -	N/A	"	 "	Unknown
1231	5/19/1972 -- 1:00 AM	61.0 °F	57.0 °F	87%	29.91 in	7.0 mi	North	8.1 mph	  -	N/A	"	 "	Unknown
1232	5/19/1972 -- 2:00 AM	61.0 °F	57.9 °F	90%	29.90 in	4.0 mi	North	9.2 mph	  -	N/A	Fog	Fog
1233	5/19/1972 -- 3:00 AM	60.1 °F	57.0 °F	90%	29.90 in	3.0 mi	North	9.2 mph	  -	N/A	Fog	Fog
1234	5/19/1972 -- 4:00 AM	59.0 °F	57.0 °F	93%	29.89 in	3.0 mi	North	10.4 mph	  -	N/A	Fog	Fog
1235	5/19/1972 -- 5:00 AM	59.0 °F	55.9 °F	90%	29.89 in	3.0 mi	North	11.5 mph	  -	N/A	Fog	Fog
1236	5/19/1972 -- 6:00 AM	59.0 °F	55.9 °F	90%	29.90 in	3.0 mi	North	12.7 mph	  -	N/A	Fog	Fog
1237	5/19/1972 -- 7:00 AM	59.0 °F	55.9 °F	90%	29.91 in	3.0 mi	North	11.5 mph	  -	N/A	Fog	Fog
1238	5/19/1972 -- 8:00 AM	59.0 °F	55.9 °F	90%	29.93 in	3.0 mi	NNE	12.7 mph	  -	N/A	Fog	Fog
1239	5/19/1972 -- 9:00 AM	60.1 °F	57.0 °F	90%	29.93 in	3.0 mi	NNE	9.2 mph	  -	N/A	Fog	Fog
1240	5/19/1972 -- 10:00 AM	61.0 °F	57.0 °F	87%	29.94 in	4.0 mi	NNE	9.2 mph	  -	N/A	Fog	Fog
1241	5/19/1972 -- 11:00 AM	62.1 °F	57.9 °F	86%	29.94 in	4.0 mi	NNE	9.2 mph	  -	N/A	Rain	Light Rain
1242	5/19/1972 -- 12:00 PM	66.0 °F	57.9 °F	75%	29.94 in	5.0 mi	NE	10.4 mph	  -	N/A	"	 "	Drizzle
1243	5/19/1972 -- 1:00 PM	68.0 °F	59.0 °F	73%	29.93 in	7.0 mi	NNE	11.5 mph	  -	N/A	"	 "	Unknown
1244	5/19/1972 -- 2:00 PM	66.9 °F	59.0 °F	76%	29.91 in	8.0 mi	NNE	13.8 mph	  -	N/A	"	 "	Unknown
1245	5/19/1972 -- 3:00 PM	62.1 °F	90%	29.91 in	10.5 mi	North	11.5 mph	  -	0.01 in	Fog	"	,"	Rain
1246	5/19/1972 -- 4:00 PM	62.1 °F	93%	29.89 in	3.0 mi	North	12.7 mph	  -	N/A	Fog	"	,"	Rain
1247	5/19/1972 -- 5:00 PM	66.0 °F	61.0 °F	84%	29.88 in	4.0 mi	North	11.5 mph	  -	N/A	Fog	Fog
1248	5/19/1972 -- 6:00 PM	64.9 °F	60.1 °F	84%	29.88 in	4.0 mi	North	11.5 mph	  -	N/A	Fog	Fog
1249	5/19/1972 -- 7:00 PM	63.0 °F	90%	29.88 in	5.5 mi	North	11.5 mph	  -	0.01 in	Fog	"	,"	Rain
1250	5/19/1972 -- 8:00 PM	62.1 °F	90%	29.88 in	5.5 mi	North	9.2 mph	  -	N/A	Fog	"	,"	Rain
1251	5/19/1972 -- 9:00 PM	61.0 °F	93%	29.88 in	5.5 mi	North	16.1 mph	  -	N/A	Fog	"	,"	Rain
1252	5/19/1972 -- 10:00 PM	61.0 °F	59.0 °F	93%	29.88 in	3.0 mi	North	8.1 mph	  -	N/A	Fog	Fog
1253	5/19/1972 -- 11:00 PM	60.1 °F	59.0 °F	96%	29.88 in	3.0 mi	North	8.1 mph	  -	N/A	Fog	Fog
1254	11/1/1971 -- 1:00 AM	63.0 °F	62.1 °F	97%	30.20 in	7.0 mi	SE	9.2 mph	  -	N/A	"	 "	Clear
1255	11/1/1971 -- 4:00 AM	63.0 °F	62.1 °F	97%	30.21 in	7.0 mi	SE	6.9 mph	  -	N/A	"	 "	Clear
1256	11/1/1971 -- 7:00 AM	61.0 °F	60.1 °F	97%	30.23 in	0.1 mi	NNE	4.6 mph	  -	N/A	Fog	Fog
1257	11/1/1971 -- 10:00 AM	71.1 °F	68.0 °F	90%	30.24 in	8.0 mi	SE	10.4 mph	  -	N/A	"	 "	Unknown
1258	11/1/1971 -- 1:00 PM	78.1 °F	63.0 °F	60%	30.17 in	10.0 mi	South	9.2 mph	  -	N/A	"	 "	Unknown
1259	11/1/1971 -- 4:00 PM	79.0 °F	62.1 °F	56%	30.11 in	10.0 mi	South	11.5 mph	  -	N/A	"	 "	Unknown
1260	11/1/1971 -- 7:00 PM	70.0 °F	64.0 °F	81%	30.12 in	10.0 mi	SE	8.1 mph	  -	N/A	"	 "	Unknown
1261	11/1/1971 -- 10:00 PM	68.0 °F	64.9 °F	90%	30.13 in	10.0 mi	SE	10.4 mph	  -	N/A	"	 "	Unknown
1262	4/15/1971 -- 1:00 AM	42.1 °F	24.1 °F	49%	30.18 in	10.0 mi	North	9.2 mph	  -	N/A	"	 "	Clear
1263	4/15/1971 -- 4:00 AM	32.0 °F	25.0 °F	75%	30.20 in	10.0 mi	NE	5.8 mph	  -	N/A	"	 "	Clear
1264	4/15/1971 -- 7:00 AM	37.9 °F	30.9 °F	76%	30.25 in	8.0 mi	WNW	4.6 mph	  -	N/A	"	 "	Clear
1265	4/15/1971 -- 10:00 AM	55.0 °F	23.0 °F	29%	30.26 in	10.0 mi	East	6.9 mph	  -	N/A	"	 "	Clear
1266	4/15/1971 -- 1:00 PM	61.0 °F	21.9 °F	22%	30.17 in	10.0 mi	NNW	8.1 mph	  -	N/A	"	 "	Clear
1267	4/15/1971 -- 4:00 PM	66.0 °F	27.0 °F	23%	30.07 in	10.0 mi	West	12.7 mph	  -	N/A	"	 "	Unknown
1268	4/15/1971 -- 7:00 PM	57.9 °F	30.9 °F	36%	30.04 in	10.0 mi	ESE	5.8 mph	  -	N/A	"	 "	Clear
1269	4/15/1971 -- 10:00 PM	46.0 °F	36.0 °F	68%	30.03 in	10.0 mi	SSE	5.8 mph	  -	N/A	"	 "	Clear
1270	9/27/1970 -- 2:00 AM	71.1 °F	64.9 °F	81%	30.01 in	10.0 mi	SSW	8.1 mph	  -	N/A	"	 "	Clear
1271	9/27/1970 -- 5:00 AM	68.0 °F	64.9 °F	90%	29.96 in	10.0 mi	SSW	9.2 mph	  -	N/A	"	 "	Clear
1272	9/27/1970 -- 8:00 AM	68.0 °F	64.9 °F	90%	29.96 in	15.0 mi	SW	9.2 mph	  -	N/A	"	 "	Unknown
1273	9/27/1970 -- 11:00 AM	80.1 °F	70.0 °F	71%	29.95 in	15.0 mi	SSW	12.7 mph	  -	N/A	"	 "	Unknown
1274	9/27/1970 -- 2:00 PM	82.0 °F	68.0 °F	62%	29.88 in	10.0 mi	SSW	16.1 mph	  -	N/A	"	 "	Unknown
1275	9/27/1970 -- 5:00 PM	66.0 °F	63.0 °F	90%	29.94 in	2.0 mi	North	8.1 mph	  -	0.04 in	Rain	Light Rain Showers
1276	9/27/1970 -- 8:00 PM	61.0 °F	57.9 °F	90%	29.99 in	7.0 mi	North	10.4 mph	  -	0.03 in	Rain	Light Rain
1277	9/27/1970 -- 11:00 PM	59.0 °F	57.0 °F	93%	30.04 in	6.0 mi	North	10.4 mph	  -	0.03 in	Fog	"	,"
1278	3/11/1970 -- 1:00 AM	44.1 °F	37.0 °F	76%	29.82 in	10.0 mi	ESE	11.5 mph	  -	N/A	"	 "	Clear
1279	3/11/1970 -- 4:00 AM	37.0 °F	34.0 °F	89%	29.83 in	7.0 mi	SW	4.6 mph	  -	N/A	"	 "	Clear
1280	3/11/1970 -- 7:00 AM	37.9 °F	35.1 °F	89%	29.92 in	4.0 mi	NE	9.2 mph	  -	N/A	Fog	Fog
1281	3/11/1970 -- 10:00 AM	53.1 °F	39.9 °F	61%	29.97 in	7.0 mi	North	9.2 mph	  -	N/A	"	 "	Clear
1282	3/11/1970 -- 1:00 PM	62.1 °F	39.9 °F	44%	29.94 in	9.0 mi	NNE	9.2 mph	  -	N/A	"	 "	Clear
1283	3/11/1970 -- 4:00 PM	64.9 °F	41.0 °F	42%	29.91 in	10.0 mi	ESE	11.5 mph	  -	N/A	"	 "	Unknown
1284	3/11/1970 -- 7:00 PM	59.0 °F	41.0 °F	51%	29.92 in	7.0 mi	East	9.2 mph	  -	N/A	"	 "	Unknown
1285	3/11/1970 -- 10:00 PM	55.0 °F	43.0 °F	64%	29.94 in	7.0 mi	East	13.8 mph	  -	N/A	"	 "	Unknown
1286	8/23/1969 -- 2:00 AM	57.9 °F	55.0 °F	90%	30.13 in	10.0 mi	Calm	Calm	  -	N/A	"	 "	Clear
1287	8/23/1969 -- 5:00 AM	55.9 °F	54.0 °F	93%	30.12 in	8.0 mi	Calm	Calm	  -	N/A	"	 "	Clear
1288	8/23/1969 -- 8:00 AM	60.1 °F	57.0 °F	90%	30.16 in	5.0 mi	NNE	8.1 mph	  -	N/A	Fog	Fog
1289	8/23/1969 -- 11:00 AM	73.9 °F	59.0 °F	59%	30.17 in	15.0 mi	NE	11.5 mph	  -	N/A	"	 "	Clear
1290	8/23/1969 -- 2:00 PM	79.0 °F	59.0 °F	50%	30.15 in	15.0 mi	NE	9.2 mph	  -	N/A	"	 "	Clear
1291	8/23/1969 -- 5:00 PM	80.1 °F	57.9 °F	47%	30.13 in	15.0 mi	ENE	12.7 mph	  -	N/A	"	 "	Unknown
1292	8/23/1969 -- 8:00 PM	70.0 °F	57.0 °F	63%	30.13 in	15.0 mi	ENE	8.1 mph	  -	N/A	"	 "	Unknown
1293	8/23/1969 -- 11:00 PM	61.0 °F	57.9 °F	90%	30.16 in	15.0 mi	East	6.9 mph	  -	N/A	"	 "	Clear
1294	2/4/1969 -- 1:00 AM	34.0 °F	15.1 °F	46%	30.05 in	15.0 mi	WSW	12.7 mph	  -	N/A	"	 "	Clear
1295	2/4/1969 -- 4:00 AM	33.1 °F	12.9 °F	43%	30.11 in	15.0 mi	WNW	18.4 mph	  -	N/A	"	 "	Clear
1296	2/4/1969 -- 7:00 AM	30.0 °F	10.9 °F	45%	30.17 in	15.0 mi	West	12.7 mph	  -	N/A	"	 "	Clear
1297	2/4/1969 -- 10:00 AM	37.9 °F	12.0 °F	35%	30.20 in	15.0 mi	West	17.3 mph	  -	N/A	"	 "	Clear
1298	2/4/1969 -- 1:00 PM	45.0 °F	12.9 °F	27%	30.15 in	15.0 mi	West	21.9 mph	  -	N/A	"	 "	Clear
1299	2/4/1969 -- 4:00 PM	48.0 °F	12.9 °F	24%	30.12 in	15.0 mi	West	19.6 mph	  -	N/A	"	 "	Clear
1300	2/4/1969 -- 7:00 PM	37.9 °F	17.1 °F	43%	30.10 in	15.0 mi	WSW	9.2 mph	  -	N/A	"	 "	Clear
1301	2/4/1969 -- 10:00 PM	39.0 °F	18.0 °F	43%	30.06 in	15.0 mi	SW	13.8 mph	  -	N/A	"	 "	Clear
1302	7/19/1968 -- 2:00 AM	70.0 °F	70.0 °F	100%	30.02 in	5.0 mi	South	5.8 mph	  -	N/A	Fog	Fog
1303	7/19/1968 -- 5:00 AM	69.1 °F	69.1 °F	100%	30.00 in	4.0 mi	WSW	9.2 mph	  -	N/A	Fog	Fog
1304	7/19/1968 -- 8:00 AM	70.0 °F	69.1 °F	97%	30.02 in	2.0 mi	WSW	6.9 mph	  -	N/A	Fog	Fog
1305	7/19/1968 -- 11:00 AM	78.1 °F	71.1 °F	79%	30.01 in	10.0 mi	West	9.2 mph	  -	N/A	"	 "	Unknown
1306	7/19/1968 -- 2:00 PM	84.9 °F	73.0 °F	67%	29.98 in	10.0 mi	SW	9.2 mph	  -	N/A	"	 "	Unknown
1307	7/19/1968 -- 5:00 PM	87.1 °F	75.9 °F	69%	29.93 in	10.0 mi	SSW	12.7 mph	  -	N/A	"	 "	Unknown
1308	7/19/1968 -- 8:00 PM	75.9 °F	69.1 °F	79%	29.98 in	8.0 mi	WNW	15.0 mph	  -	N/A	Rain	"	,"
1309	7/19/1968 -- 11:00 PM	71.1 °F	70.0 °F	96%	30.01 in	6.0 mi	SSW	5.8 mph	  -	0.01 in	Fog	"	,"
1310	1/1/1968 -- 1:00 AM	39.9 °F	37.9 °F	93%	30.09 in	10.5 mi	West	5.8 mph	  -	N/A	Fog	Fog
1311	1/1/1968 -- 4:00 AM	37.9 °F	36.0 °F	93%	30.11 in	0.8 mi	WNW	4.6 mph	  -	N/A	Fog	Fog
1312	1/1/1968 -- 7:00 AM	34.0 °F	32.0 °F	92%	30.20 in	5.0 mi	North	6.9 mph	  -	N/A	Fog	Fog
1313	1/1/1968 -- 10:00 AM	39.9 °F	30.9 °F	70%	30.29 in	10.0 mi	North	13.8 mph	  -	N/A	"	 "	Unknown
1314	1/1/1968 -- 1:00 PM	43.0 °F	26.1 °F	51%	30.26 in	15.0 mi	NNE	9.2 mph	  -	N/A	"	 "	Unknown
1315	1/1/1968 -- 4:00 PM	41.0 °F	28.0 °F	60%	30.29 in	15.0 mi	NE	5.8 mph	  -	N/A	"	 "	Unknown
1316	1/1/1968 -- 7:00 PM	39.0 °F	30.0 °F	70%	30.35 in	15.0 mi	ENE	6.9 mph	  -	N/A	"	 "	Unknown
1317	1/1/1968 -- 10:00 PM	36.0 °F	28.0 °F	73%	30.34 in	15.0 mi	NE	9.2 mph	  -	N/A	"	 "	Unknown
1318	6/15/1967 -- 2:00 AM	66.9 °F	64.9 °F	93%	30.12 in	4.0 mi	ESE	5.8 mph	  -	N/A	"	 "	Drizzle
1319	6/15/1967 -- 5:00 AM	64.0 °F	63.0 °F	96%	30.12 in	4.0 mi	ENE	6.9 mph	  -	N/A	"	 "	Drizzle
1320	6/15/1967 -- 8:00 AM	66.0 °F	63.0 °F	90%	30.14 in	2.0 mi	East	6.9 mph	  -	N/A	Fog	Fog
1321	6/15/1967 -- 11:00 AM	71.1 °F	64.9 °F	81%	30.14 in	2.0 mi	North	9.2 mph	  -	N/A	"	 "	Drizzle
1322	6/15/1967 -- 2:00 PM	79.0 °F	68.0 °F	69%	30.09 in	3.0 mi	ENE	5.8 mph	  -	N/A	"	 "	Drizzle
1323	6/15/1967 -- 5:00 PM	84.0 °F	66.9 °F	56%	30.04 in	3.0 mi	NNE	5.8 mph	  -	N/A	"	 "	Drizzle
1324	6/15/1967 -- 8:00 PM	79.0 °F	66.9 °F	66%	30.03 in	4.0 mi	East	6.9 mph	  -	N/A	"	 "	Drizzle
1325	6/15/1967 -- 11:00 PM	70.0 °F	63.0 °F	78%	30.04 in	6.0 mi	East	6.9 mph	  -	N/A	"	 "	Drizzle
1326	11/27/1966 -- 1:00 AM	55.9 °F	46.9 °F	72%	29.85 in	20.0 mi	SSE	5.8 mph	  -	N/A	"	 "	Unknown
1327	11/27/1966 -- 4:00 AM	52.0 °F	46.9 °F	83%	29.82 in	20.0 mi	SE	5.8 mph	  -	N/A	"	 "	Unknown
1328	11/27/1966 -- 7:00 AM	51.1 °F	48.0 °F	89%	29.84 in	10.0 mi	ESE	5.8 mph	  -	N/A	"	 "	Unknown
1329	11/27/1966 -- 10:00 AM	62.1 °F	53.1 °F	72%	29.83 in	7.0 mi	SSE	11.5 mph	  -	N/A	"	 "	Unknown
1330	11/27/1966 -- 1:00 PM	73.9 °F	55.9 °F	53%	29.73 in	10.0 mi	SSW	12.7 mph	  -	N/A	"	 "	Unknown
1331	11/27/1966 -- 4:00 PM	73.0 °F	54.0 °F	51%	29.67 in	10.0 mi	South	15.0 mph	  -	N/A	"	 "	Unknown
1332	11/27/1966 -- 7:00 PM	64.9 °F	53.1 °F	65%	29.63 in	15.0 mi	South	13.8 mph	  -	N/A	"	 "	Unknown
1333	11/27/1966 -- 10:00 PM	64.0 °F	53.1 °F	67%	29.61 in	8.0 mi	South	13.8 mph	  -	0.01 in	Rain	Light Rain Showers
1334	5/11/1966 -- 2:00 AM	39.0 °F	28.9 °F	67%	30.36 in	15.0 mi	East	6.9 mph	  -	N/A	"	 "	Clear
1335	5/11/1966 -- 5:00 AM	37.0 °F	30.9 °F	79%	30.39 in	10.0 mi	Calm	Calm	  -	N/A	"	 "	Clear
1336	5/11/1966 -- 8:00 AM	43.0 °F	36.0 °F	76%	30.43 in	7.0 mi	Calm	Calm	  -	N/A	"	 "	Clear
1337	5/11/1966 -- 11:00 AM	57.9 °F	24.1 °F	27%	30.45 in	15.0 mi	SSE	8.1 mph	  -	N/A	"	 "	Unknown
1338	5/11/1966 -- 2:00 PM	64.0 °F	23.0 °F	21%	30.40 in	15.0 mi	South	10.4 mph	  -	N/A	"	 "	Unknown
1339	5/11/1966 -- 5:00 PM	68.0 °F	35.1 °F	30%	30.31 in	15.0 mi	South	11.5 mph	  -	N/A	"	 "	Clear
1340	5/11/1966 -- 8:00 PM	64.9 °F	41.0 °F	42%	30.29 in	15.0 mi	East	5.8 mph	  -	N/A	"	 "	Unknown
1341	5/11/1966 -- 11:00 PM	55.9 °F	46.0 °F	69%	30.33 in	20.0 mi	South	9.2 mph	  -	N/A	"	 "	Unknown
1342	10/23/1965 -- 12:00 AM	59.0 °F	57.0 °F	93%	29.67 in	5.0 mi	SW	5.8 mph	  -	N/A	Fog	Fog
1343	10/23/1965 -- 1:00 AM	57.9 °F	55.9 °F	93%	29.65 in	6.0 mi	SW	5.8 mph	  -	N/A	Fog	Fog
1344	10/23/1965 -- 2:00 AM	55.9 °F	54.0 °F	93%	29.65 in	6.0 mi	SSW	6.9 mph	  -	N/A	Fog	Fog
1345	10/23/1965 -- 3:00 AM	55.0 °F	53.1 °F	93%	29.63 in	6.0 mi	SW	8.1 mph	  -	N/A	Fog	Fog
1346	10/23/1965 -- 4:00 AM	52.0 °F	50.0 °F	93%	29.62 in	6.0 mi	SSW	8.1 mph	  -	N/A	Fog	Fog
1347	10/23/1965 -- 5:00 AM	51.1 °F	48.9 °F	92%	29.61 in	6.0 mi	SW	6.9 mph	  -	N/A	Fog	Fog
1348	10/23/1965 -- 6:00 AM	50.0 °F	46.9 °F	89%	29.62 in	6.0 mi	WSW	6.9 mph	  -	N/A	Fog	Fog
1349	10/23/1965 -- 7:00 AM	48.9 °F	46.0 °F	90%	29.62 in	6.0 mi	WSW	5.8 mph	  -	N/A	Fog	Fog
1350	10/23/1965 -- 8:00 AM	48.0 °F	46.0 °F	93%	29.62 in	5.0 mi	SW	5.8 mph	  -	N/A	Fog	Fog
1351	10/23/1965 -- 9:00 AM	52.0 °F	50.0 °F	93%	29.64 in	7.0 mi	WSW	5.8 mph	  -	N/A	"	 "	Clear
1352	10/23/1965 -- 10:00 AM	55.9 °F	51.1 °F	84%	29.64 in	8.0 mi	WSW	5.8 mph	  -	N/A	"	 "	Clear
1353	10/23/1965 -- 11:00 AM	62.1 °F	50.0 °F	65%	29.62 in	15.0 mi	West	9.2 mph	  -	N/A	"	 "	Clear
1354	10/23/1965 -- 12:00 PM	64.9 °F	46.0 °F	50%	29.61 in	15.0 mi	West	12.7 mph	  -	N/A	"	 "	Clear
1355	10/23/1965 -- 1:00 PM	66.9 °F	44.1 °F	44%	29.57 in	15.0 mi	WSW	13.8 mph	  -	N/A	"	 "	Unknown
1356	10/23/1965 -- 2:00 PM	66.9 °F	42.1 °F	40%	29.55 in	15.0 mi	West	10.4 mph	  -	N/A	"	 "	Unknown
1357	10/23/1965 -- 3:00 PM	70.0 °F	43.0 °F	38%	29.54 in	15.0 mi	West	17.3 mph	  -	N/A	"	 "	Unknown
1358	10/23/1965 -- 4:00 PM	68.0 °F	42.1 °F	39%	29.53 in	15.0 mi	WNW	16.1 mph	  -	N/A	"	 "	Unknown
1359	10/23/1965 -- 5:00 PM	69.1 °F	43.0 °F	39%	29.54 in	15.0 mi	WNW	10.4 mph	  -	N/A	"	 "	Unknown
1360	10/23/1965 -- 6:00 PM	66.0 °F	43.0 °F	43%	29.55 in	15.0 mi	WSW	8.1 mph	  -	N/A	"	 "	Unknown
1361	10/23/1965 -- 7:00 PM	59.0 °F	43.0 °F	55%	29.56 in	20.0 mi	WSW	5.8 mph	  -	N/A	"	 "	Unknown
1362	10/23/1965 -- 8:00 PM	57.0 °F	46.0 °F	67%	29.59 in	20.0 mi	SSW	5.8 mph	  -	N/A	"	 "	Unknown
1363	10/23/1965 -- 9:00 PM	54.0 °F	46.9 °F	77%	29.61 in	20.0 mi	SSW	5.8 mph	  -	N/A	"	 "	Unknown
1364	10/23/1965 -- 10:00 PM	55.9 °F	46.9 °F	72%	29.63 in	20.0 mi	West	8.1 mph	  -	N/A	"	 "	Unknown
1365	10/23/1965 -- 11:00 PM	55.9 °F	48.0 °F	75%	29.64 in	20.0 mi	WSW	6.9 mph	  -	N/A	"	 "	Unknown
1366	4/6/1965 -- 12:00 AM	57.0 °F	50.0 °F	77%	30.14 in	20.0 mi	SSW	8.1 mph	  -	N/A	"	 "	Unknown
1367	4/6/1965 -- 1:00 AM	55.0 °F	50.0 °F	83%	30.12 in	10.0 mi	SSW	9.2 mph	  -	N/A	"	 "	Unknown
1368	4/6/1965 -- 2:00 AM	54.0 °F	51.1 °F	90%	30.12 in	8.0 mi	SW	8.1 mph	  -	N/A	"	 "	Unknown
1369	4/6/1965 -- 3:00 AM	54.0 °F	51.1 °F	90%	30.12 in	8.0 mi	SW	9.2 mph	  -	N/A	"	 "	Unknown
1370	4/6/1965 -- 4:00 AM	55.0 °F	52.0 °F	89%	30.10 in	7.0 mi	SW	10.4 mph	  -	N/A	"	 "	Unknown
1371	4/6/1965 -- 5:00 AM	54.0 °F	97%	30.09 in	4.0 mi	SE	8.1 mph	  -	N/A	Fog	"	,"	Rain
1372	4/6/1965 -- 6:00 AM	54.0 °F	54.0 °F	100%	30.12 in	2.0 mi	SSW	8.1 mph	  -	N/A	Fog	Fog
1373	4/6/1965 -- 7:00 AM	55.0 °F	54.0 °F	96%	30.14 in	2.0 mi	SSW	6.9 mph	  -	N/A	Fog	Fog
1374	4/6/1965 -- 8:00 AM	55.9 °F	55.0 °F	97%	30.13 in	5.5 mi	SSW	9.2 mph	  -	N/A	Fog	Fog
1375	4/6/1965 -- 9:00 AM	57.9 °F	57.0 °F	97%	30.14 in	2.0 mi	SW	9.2 mph	  -	N/A	Fog	Fog
1376	4/6/1965 -- 10:00 AM	60.1 °F	57.9 °F	93%	30.12 in	10.5 mi	SW	8.1 mph	  -	N/A	Fog	Fog
1377	4/6/1965 -- 11:00 AM	61.0 °F	57.9 °F	90%	30.09 in	3.0 mi	SW	9.2 mph	  -	N/A	"	 "	Drizzle
1378	4/6/1965 -- 12:00 PM	63.0 °F	57.9 °F	84%	30.08 in	4.0 mi	SW	8.1 mph	  -	N/A	"	 "	Drizzle
1379	4/6/1965 -- 1:00 PM	64.9 °F	57.9 °F	78%	30.06 in	5.0 mi	SSW	8.1 mph	  -	N/A	"	 "	Drizzle
1380	4/6/1965 -- 2:00 PM	71.1 °F	57.9 °F	63%	30.04 in	5.0 mi	West	5.8 mph	  -	N/A	"	 "	Drizzle
1381	4/6/1965 -- 3:00 PM	70.0 °F	59.0 °F	68%	30.05 in	5.0 mi	WSW	4.6 mph	  -	N/A	Rain	Light Rain
1382	4/6/1965 -- 4:00 PM	68.0 °F	76%	30.04 in	6.0 mi	ENE	6.9 mph	  -	N/A	Rain	"	,"	Thunderstorm
1383	4/6/1965 -- 5:00 PM	63.0 °F	97%	30.02 in	3.0 mi	ESE	8.1 mph	  -	0.10 in	Fog	"	,"	Rain
1384	4/6/1965 -- 6:00 PM	63.0 °F	97%	30.04 in	2.0 mi	WSW	6.9 mph	  -	N/A	Fog	"	,"	Rain
1385	4/6/1965 -- 7:00 PM	61.0 °F	100%	30.04 in	2.0 mi	South	4.6 mph	  -	N/A	Fog	"	,"	Rain
1386	4/6/1965 -- 8:00 PM	61.0 °F	100%	30.04 in	1.4 mi	NNE	4.6 mph	  -	N/A	Fog	"	,"	Rain
1387	4/6/1965 -- 9:00 PM	60.1 °F	60.1 °F	100%	30.04 in	1.0 mi	NE	4.6 mph	  -	N/A	Fog	Fog
1388	4/6/1965 -- 10:00 PM	60.1 °F	100%	30.02 in	0.8 mi	East	4.6 mph	  -	N/A	Fog	"	,"	Rain
1389	4/6/1965 -- 11:00 PM	60.1 °F	100%	30.04 in	5.5 mi	SW	4.6 mph	  -	0.03 in	Fog	"	,"	Rain
1390	9/18/1964 -- 12:00 AM	66.9 °F	63.0 °F	87%	30.22 in	7.0 mi	SSE	5.8 mph	  -	N/A	"	 "	Unknown
1391	9/18/1964 -- 1:00 AM	66.0 °F	63.0 °F	90%	30.21 in	7.0 mi	South	6.9 mph	  -	N/A	"	 "	Unknown
1392	9/18/1964 -- 2:00 AM	66.0 °F	62.1 °F	87%	30.21 in	7.0 mi	South	5.8 mph	  -	N/A	"	 "	Unknown
1393	9/18/1964 -- 3:00 AM	64.9 °F	63.0 °F	93%	30.20 in	7.0 mi	South	5.8 mph	  -	N/A	"	 "	Unknown
1394	9/18/1964 -- 4:00 AM	64.0 °F	62.1 °F	93%	30.19 in	6.0 mi	SSE	5.8 mph	  -	N/A	Fog	Fog
1395	9/18/1964 -- 5:00 AM	62.1 °F	61.0 °F	96%	30.19 in	5.0 mi	ENE	3.5 mph	  -	N/A	Fog	Fog
1396	9/18/1964 -- 6:00 AM	61.0 °F	60.1 °F	97%	30.19 in	4.0 mi	North	3.5 mph	  -	N/A	Fog	Fog
1397	9/18/1964 -- 7:00 AM	60.1 °F	60.1 °F	100%	30.20 in	0.5 mi	North	3.5 mph	  -	N/A	Fog	Fog
1398	9/18/1964 -- 8:00 AM	62.1 °F	61.0 °F	96%	30.21 in	0.5 mi	ENE	4.6 mph	  -	N/A	Fog	Fog
1399	9/18/1964 -- 9:00 AM	66.0 °F	64.0 °F	93%	30.21 in	0.8 mi	ESE	4.6 mph	  -	N/A	Fog	Fog
1400	9/18/1964 -- 10:00 AM	70.0 °F	64.0 °F	81%	30.22 in	5.0 mi	ESE	5.8 mph	  -	N/A	"	 "	Drizzle
1401	9/18/1964 -- 11:00 AM	75.9 °F	64.9 °F	69%	30.21 in	6.0 mi	South	5.8 mph	  -	N/A	"	 "	Drizzle
1402	9/18/1964 -- 12:00 PM	75.9 °F	60.1 °F	58%	30.20 in	7.0 mi	WSW	3.5 mph	  -	N/A	"	 "	Unknown
1403	9/18/1964 -- 1:00 PM	78.1 °F	59.0 °F	52%	30.18 in	7.0 mi	SE	5.8 mph	  -	N/A	"	 "	Unknown
1404	9/18/1964 -- 2:00 PM	77.0 °F	59.0 °F	54%	30.17 in	7.0 mi	SSW	6.9 mph	  -	N/A	"	 "	Unknown
1405	9/18/1964 -- 3:00 PM	77.0 °F	60.1 °F	56%	30.14 in	7.0 mi	SSE	6.9 mph	  -	N/A	"	 "	Unknown
1406	9/18/1964 -- 4:00 PM	77.0 °F	60.1 °F	56%	30.13 in	7.0 mi	SSW	6.9 mph	  -	N/A	"	 "	Unknown
1407	9/18/1964 -- 5:00 PM	77.0 °F	60.1 °F	56%	30.13 in	8.0 mi	SE	4.6 mph	  -	N/A	"	 "	Unknown
1408	9/18/1964 -- 6:00 PM	77.0 °F	60.1 °F	56%	30.12 in	8.0 mi	ENE	4.6 mph	  -	N/A	"	 "	Unknown
1409	9/18/1964 -- 7:00 PM	75.0 °F	63.0 °F	66%	30.11 in	6.0 mi	ENE	4.6 mph	  -	N/A	"	 "	Drizzle
1410	9/18/1964 -- 8:00 PM	73.0 °F	64.0 °F	73%	30.11 in	6.0 mi	East	4.6 mph	  -	N/A	"	 "	Drizzle
1411	9/18/1964 -- 9:00 PM	72.0 °F	63.0 °F	73%	30.12 in	6.0 mi	ENE	4.6 mph	  -	N/A	"	 "	Drizzle
1412	9/18/1964 -- 10:00 PM	70.0 °F	64.0 °F	81%	30.12 in	6.0 mi	East	5.8 mph	  -	N/A	"	 "	Drizzle
1413	9/18/1964 -- 11:00 PM	69.1 °F	64.9 °F	87%	30.13 in	6.0 mi	ESE	3.5 mph	  -	N/A	"	 "	Drizzle
1414	3/2/1964 -- 12:00 AM	45.0 °F	35.1 °F	68%	30.13 in	20.0 mi	SSW	8.1 mph	  -	N/A	"	 "	Unknown
1415	3/2/1964 -- 1:00 AM	46.0 °F	37.9 °F	73%	30.14 in	15.0 mi	SW	9.2 mph	  -	N/A	"	 "	Unknown
1416	3/2/1964 -- 2:00 AM	46.0 °F	37.9 °F	73%	30.14 in	15.0 mi	SW	6.9 mph	  -	N/A	"	 "	Unknown
1417	3/2/1964 -- 3:00 AM	45.0 °F	37.9 °F	76%	30.13 in	20.0 mi	SW	6.9 mph	  -	N/A	"	 "	Unknown
1418	3/2/1964 -- 4:00 AM	45.0 °F	37.9 °F	76%	30.14 in	15.0 mi	SW	8.1 mph	  -	N/A	"	 "	Unknown
1419	3/2/1964 -- 5:00 AM	44.1 °F	37.9 °F	79%	30.14 in	20.0 mi	SW	8.1 mph	  -	N/A	"	 "	Unknown
1420	3/2/1964 -- 6:00 AM	44.1 °F	37.9 °F	79%	30.15 in	15.0 mi	SW	6.9 mph	  -	N/A	"	 "	Unknown
1421	3/2/1964 -- 7:00 AM	43.0 °F	37.9 °F	82%	30.17 in	15.0 mi	Calm	Calm	  -	N/A	"	 "	Unknown
1422	3/2/1964 -- 8:00 AM	45.0 °F	39.9 °F	82%	30.19 in	10.0 mi	South	5.8 mph	  -	N/A	"	 "	Unknown
1423	3/2/1964 -- 9:00 AM	50.0 °F	42.1 °F	74%	30.18 in	10.0 mi	WSW	5.8 mph	  -	N/A	"	 "	Unknown
1424	3/2/1964 -- 10:00 AM	55.0 °F	43.0 °F	64%	30.16 in	10.0 mi	WSW	5.8 mph	  -	N/A	"	 "	Unknown
1425	3/2/1964 -- 11:00 AM	60.1 °F	43.0 °F	53%	30.14 in	15.0 mi	WSW	3.5 mph	  -	N/A	"	 "	Unknown
1426	3/2/1964 -- 12:00 PM	63.0 °F	41.0 °F	45%	30.10 in	15.0 mi	Calm	Calm	  -	N/A	"	 "	Unknown
1427	3/2/1964 -- 1:00 PM	64.9 °F	42.1 °F	43%	30.08 in	15.0 mi	SSE	8.1 mph	  -	N/A	"	 "	Unknown
1428	3/2/1964 -- 2:00 PM	66.0 °F	43.0 °F	43%	30.02 in	15.0 mi	ENE	5.8 mph	  -	N/A	"	 "	Unknown
1429	3/2/1964 -- 3:00 PM	64.9 °F	46.0 °F	50%	30.01 in	15.0 mi	SE	8.1 mph	  -	N/A	"	 "	Unknown
1430	3/2/1964 -- 4:00 PM	63.0 °F	46.9 °F	56%	30.04 in	15.0 mi	SSE	4.6 mph	  -	N/A	Rain	Light Rain
1431	3/2/1964 -- 5:00 PM	61.0 °F	48.0 °F	62%	30.03 in	10.0 mi	ESE	5.8 mph	  -	N/A	Rain	Light Rain
1432	3/2/1964 -- 6:00 PM	60.1 °F	48.0 °F	64%	30.06 in	10.0 mi	SSE	4.6 mph	  -	N/A	"	 "	Unknown
1433	3/2/1964 -- 7:00 PM	55.9 °F	53.1 °F	90%	30.11 in	6.0 mi	West	5.8 mph	  -	0.05 in	Rain	Light Rain
1434	3/2/1964 -- 8:00 PM	54.0 °F	53.1 °F	97%	30.04 in	6.0 mi	ESE	5.8 mph	  -	0.05 in	Rain	Light Rain
1435	3/2/1964 -- 9:00 PM	54.0 °F	53.1 °F	97%	29.98 in	6.0 mi	SE	13.8 mph	  -	0.04 in	Fog	Fog
1436	3/2/1964 -- 10:00 PM	54.0 °F	52.0 °F	93%	29.96 in	10.0 mi	SSE	9.2 mph	  -	N/A	"	 "	Unknown
1437	3/2/1964 -- 11:00 PM	54.0 °F	52.0 °F	93%	29.94 in	7.0 mi	SE	13.8 mph	  -	N/A	"	 "	Unknown
1438	8/15/1963 -- 12:00 AM	66.9 °F	52.0 °F	59%	30.00 in	20.0 mi	North	9.2 mph	  -	N/A	"	 "	Clear
1439	8/15/1963 -- 1:00 AM	63.0 °F	52.0 °F	67%	30.00 in	20.0 mi	North	8.1 mph	  -	N/A	"	 "	Clear
1440	8/15/1963 -- 2:00 AM	62.1 °F	52.0 °F	70%	30.00 in	20.0 mi	North	6.9 mph	  -	N/A	"	 "	Clear
1441	8/15/1963 -- 3:00 AM	60.1 °F	52.0 °F	75%	30.00 in	20.0 mi	North	5.8 mph	  -	N/A	"	 "	Clear
1442	8/15/1963 -- 4:00 AM	59.0 °F	52.0 °F	78%	30.00 in	20.0 mi	NNE	5.8 mph	  -	N/A	"	 "	Clear
1443	8/15/1963 -- 5:00 AM	60.1 °F	51.1 °F	72%	30.01 in	20.0 mi	NNE	5.8 mph	  -	N/A	"	 "	Clear
1444	8/15/1963 -- 6:00 AM	59.0 °F	52.0 °F	78%	30.01 in	20.0 mi	North	8.1 mph	  -	N/A	"	 "	Unknown
1445	8/15/1963 -- 7:00 AM	57.0 °F	52.0 °F	83%	30.04 in	10.0 mi	NNE	6.9 mph	  -	N/A	"	 "	Unknown
1446	8/15/1963 -- 8:00 AM	60.1 °F	52.0 °F	75%	30.06 in	15.0 mi	NNE	5.8 mph	  -	N/A	"	 "	Unknown
1447	8/15/1963 -- 9:00 AM	64.9 °F	51.1 °F	61%	30.08 in	15.0 mi	NE	10.4 mph	  -	N/A	"	 "	Unknown
1448	8/15/1963 -- 10:00 AM	69.1 °F	52.0 °F	54%	30.10 in	15.0 mi	NE	9.2 mph	  -	N/A	"	 "	Unknown
1449	8/15/1963 -- 11:00 AM	72.0 °F	53.1 °F	51%	30.11 in	15.0 mi	East	11.5 mph	  -	N/A	"	 "	Unknown
1450	8/15/1963 -- 12:00 PM	75.0 °F	54.0 °F	48%	30.10 in	15.0 mi	East	13.8 mph	  -	N/A	"	 "	Unknown
1451	8/15/1963 -- 1:00 PM	77.0 °F	54.0 °F	45%	30.07 in	15.0 mi	East	8.1 mph	  -	N/A	"	 "	Unknown
1452	8/15/1963 -- 2:00 PM	77.0 °F	55.9 °F	48%	30.05 in	15.0 mi	SE	6.9 mph	  -	N/A	"	 "	Unknown
1453	8/15/1963 -- 3:00 PM	79.0 °F	57.9 °F	48%	30.03 in	15.0 mi	East	9.2 mph	  -	N/A	"	 "	Unknown
1454	8/15/1963 -- 4:00 PM	78.1 °F	55.9 °F	46%	30.01 in	15.0 mi	East	8.1 mph	  -	N/A	"	 "	Unknown
1455	8/15/1963 -- 5:00 PM	80.1 °F	55.9 °F	43%	30.01 in	15.0 mi	Calm	Calm	  -	N/A	"	 "	Unknown
1456	8/15/1963 -- 6:00 PM	78.1 °F	57.0 °F	48%	30.01 in	15.0 mi	ENE	5.8 mph	  -	N/A	"	 "	Unknown
1457	8/15/1963 -- 7:00 PM	78.1 °F	55.9 °F	46%	30.01 in	15.0 mi	ENE	5.8 mph	  -	N/A	"	 "	Unknown
1458	8/15/1963 -- 8:00 PM	73.9 °F	60.1 °F	62%	30.02 in	15.0 mi	East	5.8 mph	  -	N/A	"	 "	Clear
1459	8/15/1963 -- 9:00 PM	69.1 °F	62.1 °F	78%	30.03 in	15.0 mi	ESE	4.6 mph	  -	N/A	"	 "	Unknown
1460	8/15/1963 -- 10:00 PM	69.1 °F	60.1 °F	73%	30.05 in	15.0 mi	ESE	4.6 mph	  -	N/A	"	 "	Clear
1461	8/15/1963 -- 11:00 PM	66.0 °F	61.0 °F	84%	30.06 in	15.0 mi	ESE	4.6 mph	  -	N/A	"	 "	Clear
1462	1/27/1963 -- 12:00 AM	30.0 °F	28.9 °F	96%	29.89 in	5.5 mi	NNW	4.6 mph	  -	N/A	Fog	Light Freezing Drizzle
1463	1/27/1963 -- 1:00 AM	30.0 °F	28.9 °F	96%	29.84 in	0.5 mi	West	4.6 mph	  -	N/A	Fog	Fog
1464	1/27/1963 -- 2:00 AM	30.0 °F	28.9 °F	96%	29.82 in	0.5 mi	SSW	6.9 mph	  -	N/A	Fog	Fog
1465	1/27/1963 -- 3:00 AM	30.0 °F	30.0 °F	100%	29.80 in	0.2 mi	SW	5.8 mph	  -	N/A	Fog	Fog
1466	1/27/1963 -- 4:00 AM	30.0 °F	30.0 °F	100%	29.77 in	0.2 mi	SSW	12.7 mph	  -	N/A	Fog	"	,"
1467	1/27/1963 -- 5:00 AM	30.0 °F	30.0 °F	100%	29.76 in	3.0 mi	SW	12.7 mph	  -	0.02 in	Fog	"	,"
1468	1/27/1963 -- 6:00 AM	30.0 °F	30.0 °F	100%	29.78 in	4.0 mi	WSW	8.1 mph	  -	N/A	Fog	Fog
1469	1/27/1963 -- 7:00 AM	30.9 °F	30.9 °F	100%	29.80 in	4.0 mi	SW	9.2 mph	  -	N/A	Fog	Fog
1470	1/27/1963 -- 8:00 AM	30.9 °F	30.9 °F	100%	29.81 in	10.5 mi	WSW	5.8 mph	  -	N/A	Fog	Fog
1471	1/27/1963 -- 9:00 AM	32.0 °F	30.9 °F	96%	29.83 in	3.0 mi	SW	9.2 mph	  -	N/A	Fog	Fog
1472	1/27/1963 -- 10:00 AM	34.0 °F	32.0 °F	92%	29.87 in	6.0 mi	WSW	8.1 mph	  -	N/A	"	 "	Drizzle
1473	1/27/1963 -- 11:00 AM	37.9 °F	35.1 °F	89%	29.87 in	8.0 mi	WNW	17.3 mph	  -	N/A	"	 "	Clear
1474	1/27/1963 -- 12:00 PM	39.9 °F	23.0 °F	51%	29.89 in	15.0 mi	WNW	23.0 mph	  -	N/A	"	 "	Clear
1475	1/27/1963 -- 1:00 PM	39.9 °F	23.0 °F	51%	29.91 in	15.0 mi	WNW	21.9 mph	  -	N/A	"	 "	Unknown
1476	1/27/1963 -- 2:00 PM	37.9 °F	16.0 °F	41%	29.95 in	15.0 mi	WNW	17.3 mph	  -	N/A	"	 "	Unknown
1477	1/27/1963 -- 3:00 PM	39.0 °F	14.0 °F	36%	29.97 in	15.0 mi	WNW	21.9 mph	  -	N/A	"	 "	Unknown
1478	1/27/1963 -- 4:00 PM	37.0 °F	15.1 °F	41%	30.00 in	15.0 mi	NW	18.4 mph	  -	N/A	"	 "	Clear
1479	1/27/1963 -- 5:00 PM	35.1 °F	3.9 °F	27%	30.04 in	15.0 mi	NNW	19.6 mph	  -	N/A	"	 "	Unknown
1480	1/27/1963 -- 6:00 PM	32.0 °F	6.1 °F	34%	30.09 in	15.0 mi	NW	13.8 mph	  -	N/A	"	 "	Unknown
1481	1/27/1963 -- 7:00 PM	30.9 °F	10.0 °F	42%	30.12 in	20.0 mi	NNW	16.1 mph	  -	N/A	"	 "	Clear
1482	1/27/1963 -- 8:00 PM	28.9 °F	12.0 °F	49%	30.15 in	20.0 mi	NNW	19.6 mph	  -	N/A	"	 "	Clear
1483	1/27/1963 -- 9:00 PM	26.1 °F	10.0 °F	51%	30.20 in	20.0 mi	NNW	15.0 mph	  -	N/A	"	 "	Clear
1484	1/27/1963 -- 10:00 PM	23.0 °F	7.0 °F	50%	30.25 in	20.0 mi	NNW	20.7 mph	  -	N/A	"	 "	Clear
1485	1/27/1963 -- 11:00 PM	21.0 °F	6.1 °F	53%	30.29 in	20.0 mi	NNW	17.3 mph	  -	N/A	"	 "	Clear
1486	7/11/1962 -- 12:00 AM	68.0 °F	62.1 °F	81%	30.03 in	15.0 mi	East	6.9 mph	  -	N/A	"	 "	Clear
1487	7/11/1962 -- 1:00 AM	64.9 °F	62.1 °F	90%	30.04 in	15.0 mi	SSW	6.9 mph	  -	N/A	"	 "	Clear
1488	7/11/1962 -- 2:00 AM	66.0 °F	62.1 °F	87%	30.03 in	15.0 mi	Calm	Calm	  -	N/A	"	 "	Clear
1489	7/11/1962 -- 3:00 AM	64.0 °F	61.0 °F	90%	30.04 in	10.0 mi	Calm	Calm	  -	N/A	"	 "	Clear
1490	7/11/1962 -- 4:00 AM	61.0 °F	59.0 °F	93%	30.04 in	10.0 mi	Calm	Calm	  -	N/A	"	 "	Clear
1491	7/11/1962 -- 5:00 AM	61.0 °F	60.1 °F	97%	30.05 in	10.0 mi	Calm	Calm	  -	N/A	"	 "	Clear
1492	7/11/1962 -- 6:00 AM	62.1 °F	59.0 °F	90%	30.05 in	5.0 mi	Calm	Calm	  -	N/A	Fog	Fog
1493	7/11/1962 -- 7:00 AM	61.0 °F	59.0 °F	93%	30.06 in	5.0 mi	Calm	Calm	  -	N/A	Fog	Fog
1494	7/11/1962 -- 8:00 AM	69.1 °F	64.0 °F	84%	30.07 in	7.0 mi	Calm	Calm	  -	N/A	"	 "	Clear
1495	7/11/1962 -- 9:00 AM	73.0 °F	64.9 °F	76%	30.08 in	7.0 mi	South	4.6 mph	  -	N/A	"	 "	Clear
1496	7/11/1962 -- 10:00 AM	79.0 °F	64.9 °F	62%	30.08 in	10.0 mi	SSW	8.1 mph	  -	N/A	"	 "	Clear
1497	7/11/1962 -- 11:00 AM	80.1 °F	62.1 °F	54%	30.08 in	10.0 mi	SSW	6.9 mph	  -	N/A	"	 "	Clear
1498	7/11/1962 -- 12:00 PM	84.0 °F	63.0 °F	49%	30.07 in	10.0 mi	SE	9.2 mph	  -	N/A	"	 "	Unknown
1499	7/11/1962 -- 1:00 PM	82.9 °F	62.1 °F	49%	30.07 in	10.0 mi	South	9.2 mph	  -	N/A	"	 "	Unknown
1500	7/11/1962 -- 2:00 PM	84.9 °F	61.0 °F	44%	30.05 in	15.0 mi	SW	11.5 mph	  -	N/A	"	 "	Unknown
1501	7/11/1962 -- 3:00 PM	86.0 °F	60.1 °F	41%	30.04 in	15.0 mi	SSW	11.5 mph	  -	N/A	"	 "	Unknown
1502	7/11/1962 -- 4:00 PM	87.1 °F	59.0 °F	39%	30.03 in	15.0 mi	SSW	9.2 mph	  -	N/A	"	 "	Unknown
1503	7/11/1962 -- 5:00 PM	87.1 °F	60.1 °F	40%	30.02 in	15.0 mi	South	8.1 mph	  -	N/A	"	 "	Clear
1504	7/11/1962 -- 6:00 PM	86.0 °F	63.0 °F	46%	29.99 in	15.0 mi	South	9.2 mph	  -	N/A	"	 "	Clear
1505	7/11/1962 -- 7:00 PM	84.0 °F	64.9 °F	53%	29.99 in	15.0 mi	SSE	9.2 mph	  -	N/A	"	 "	Unknown
1506	7/11/1962 -- 8:00 PM	81.0 °F	66.0 °F	60%	29.99 in	15.0 mi	SSE	8.1 mph	  -	N/A	"	 "	Unknown
1507	7/11/1962 -- 9:00 PM	78.1 °F	66.0 °F	66%	29.99 in	10.0 mi	SE	6.9 mph	  -	N/A	"	 "	Clear
1508	7/11/1962 -- 10:00 PM	75.9 °F	66.9 °F	74%	30.00 in	15.0 mi	SSE	6.9 mph	  -	N/A	"	 "	Clear
1509	7/11/1962 -- 11:00 PM	75.0 °F	64.9 °F	71%	30.01 in	15.0 mi	SSE	9.2 mph	  -	N/A	"	 "	Clear
1510	12/23/1961 -- 12:00 AM	37.9 °F	27.0 °F	65%	30.10 in	20.0 mi	SSE	10.4 mph	  -	N/A	"	 "	Unknown
1511	12/23/1961 -- 1:00 AM	36.0 °F	28.0 °F	73%	30.07 in	15.0 mi	South	11.5 mph	  -	N/A	"	 "	Unknown
1512	12/23/1961 -- 2:00 AM	33.1 °F	28.9 °F	85%	30.06 in	10.0 mi	SE	6.9 mph	  -	N/A	"	 "	Unknown
1513	12/23/1961 -- 3:00 AM	32.0 °F	28.0 °F	85%	30.03 in	10.0 mi	East	8.1 mph	  -	N/A	"	 "	Unknown
1514	12/23/1961 -- 4:00 AM	32.0 °F	28.0 °F	85%	30.00 in	9.0 mi	East	9.2 mph	  -	N/A	"	 "	Unknown
1515	12/23/1961 -- 5:00 AM	32.0 °F	28.9 °F	88%	29.99 in	8.0 mi	East	9.2 mph	  -	N/A	"	 "	Unknown
1516	12/23/1961 -- 6:00 AM	33.1 °F	30.0 °F	89%	29.97 in	8.0 mi	East	10.4 mph	  -	N/A	"	 "	Unknown
1517	12/23/1961 -- 7:00 AM	34.0 °F	30.0 °F	85%	29.94 in	10.0 mi	East	9.2 mph	  -	N/A	"	 "	Unknown
1518	12/23/1961 -- 8:00 AM	36.0 °F	32.0 °F	86%	29.92 in	10.0 mi	SE	10.4 mph	  -	N/A	"	 "	Unknown
1519	12/23/1961 -- 9:00 AM	39.0 °F	32.0 °F	76%	29.89 in	8.0 mi	ESE	17.3 mph	  -	N/A	"	 "	Unknown
1520	12/23/1961 -- 10:00 AM	39.9 °F	37.0 °F	89%	29.87 in	6.0 mi	East	8.1 mph	  -	0.02 in	Rain	Light Rain
1521	12/23/1961 -- 11:00 AM	41.0 °F	39.9 °F	96%	29.86 in	2.0 mi	NE	5.8 mph	  -	0.21 in	Fog	"	,"
1522	12/23/1961 -- 12:00 PM	43.0 °F	42.1 °F	97%	29.81 in	2.0 mi	East	8.1 mph	  -	0.20 in	Fog	Fog
1523	12/23/1961 -- 1:00 PM	42.1 °F	42.1 °F	100%	29.82 in	0.5 mi	WNW	10.4 mph	  -	0.12 in	Fog	Light Drizzle
1524	12/23/1961 -- 2:00 PM	42.1 °F	42.1 °F	100%	29.79 in	1.0 mi	NNE	8.1 mph	  -	0.03 in	Fog	"	,"
1525	12/23/1961 -- 3:00 PM	42.1 °F	42.1 °F	100%	29.76 in	1.0 mi	NNE	3.5 mph	  -	0.07 in	Fog	"	,"
1526	12/23/1961 -- 4:00 PM	43.0 °F	42.1 °F	97%	29.74 in	1.0 mi	East	6.9 mph	  -	0.05 in	Fog	"	,"
1527	12/23/1961 -- 5:00 PM	42.1 °F	42.1 °F	100%	29.72 in	0.2 mi	ESE	5.8 mph	  -	N/A	Fog	Fog
1528	12/23/1961 -- 6:00 PM	42.1 °F	42.1 °F	100%	29.73 in	0.0 mi	Calm	Calm	  -	N/A	Fog	Fog
1529	12/23/1961 -- 7:00 PM	42.1 °F	42.1 °F	100%	29.73 in	0.1 mi	Calm	Calm	  -	N/A	Fog	Light Drizzle
1530	12/23/1961 -- 8:00 PM	42.1 °F	42.1 °F	100%	29.73 in	0.1 mi	NW	9.2 mph	  -	0.01 in	Fog	Fog
1531	12/23/1961 -- 9:00 PM	39.9 °F	39.9 °F	100%	29.72 in	0.2 mi	North	4.6 mph	  -	N/A	Fog	Fog
1532	12/23/1961 -- 10:00 PM	39.9 °F	39.9 °F	100%	29.71 in	0.2 mi	Calm	Calm	  -	N/A	Fog	Fog
1533	12/23/1961 -- 11:00 PM	39.9 °F	39.9 °F	100%	29.69 in	0.3 mi	NNW	4.6 mph	  -	N/A	Fog	Fog
1534	6/6/1961 -- 12:00 AM	69.1 °F	64.0 °F	84%	30.06 in	10.0 mi	SSW	5.8 mph	  -	N/A	"	 "	Unknown
1535	6/6/1961 -- 1:00 AM	69.1 °F	64.9 °F	87%	30.05 in	10.0 mi	SSW	8.1 mph	  -	N/A	"	 "	Unknown
1536	6/6/1961 -- 2:00 AM	66.9 °F	64.9 °F	93%	30.05 in	10.0 mi	SE	4.6 mph	  -	N/A	"	 "	Unknown
1537	6/6/1961 -- 3:00 AM	66.9 °F	64.9 °F	93%	30.04 in	8.0 mi	SSW	8.1 mph	  -	N/A	"	 "	Unknown
1538	6/6/1961 -- 4:00 AM	66.9 °F	64.9 °F	93%	30.05 in	8.0 mi	SW	4.6 mph	  -	N/A	"	 "	Unknown
1539	6/6/1961 -- 5:00 AM	68.0 °F	66.0 °F	93%	30.04 in	7.0 mi	SSW	4.6 mph	  -	N/A	"	 "	Unknown
1540	6/6/1961 -- 6:00 AM	68.0 °F	66.0 °F	93%	30.05 in	7.0 mi	SSW	5.8 mph	  -	N/A	Rain	Light Rain
1541	6/6/1961 -- 7:00 AM	69.1 °F	66.0 °F	90%	30.06 in	7.0 mi	SSW	4.6 mph	  -	N/A	"	 "	Unknown
1542	6/6/1961 -- 8:00 AM	69.1 °F	66.0 °F	90%	30.07 in	7.0 mi	SSW	12.7 mph	  -	N/A	Rain	Light Rain
1543	6/6/1961 -- 9:00 AM	69.1 °F	66.9 °F	93%	30.08 in	4.0 mi	SW	9.2 mph	  -	N/A	Fog	Fog
1544	6/6/1961 -- 10:00 AM	71.1 °F	69.1 °F	93%	30.08 in	3.0 mi	SW	8.1 mph	  -	N/A	Fog	Fog
1545	6/6/1961 -- 11:00 AM	72.0 °F	69.1 °F	91%	30.08 in	4.0 mi	SW	5.8 mph	  -	N/A	Fog	Fog
1546	6/6/1961 -- 12:00 PM	73.9 °F	69.1 °F	85%	30.08 in	8.0 mi	SW	8.1 mph	  -	N/A	"	 "	Unknown
1547	6/6/1961 -- 1:00 PM	77.0 °F	70.0 °F	79%	30.07 in	10.0 mi	Calm	Calm	  -	N/A	"	 "	Unknown
1548	6/6/1961 -- 2:00 PM	82.9 °F	72.0 °F	69%	30.05 in	10.0 mi	Calm	Calm	  -	N/A	"	 "	Unknown
1549	6/6/1961 -- 3:00 PM	87.1 °F	71.1 °F	59%	30.01 in	10.0 mi	West	5.8 mph	  -	N/A	"	 "	Unknown
1550	6/6/1961 -- 4:00 PM	87.1 °F	71.1 °F	59%	29.99 in	10.0 mi	SW	8.1 mph	  -	N/A	"	 "	Unknown
1551	6/6/1961 -- 5:00 PM	88.0 °F	71.1 °F	57%	29.98 in	10.0 mi	West	8.1 mph	  -	N/A	"	 "	Unknown
1552	6/6/1961 -- 6:00 PM	84.0 °F	66.9 °F	56%	29.98 in	10.0 mi	SW	3.5 mph	  -	N/A	"	 "	Unknown
1553	6/6/1961 -- 7:00 PM	82.0 °F	68.0 °F	62%	29.97 in	10.0 mi	Calm	Calm	  -	N/A	"	 "	Unknown
1554	6/6/1961 -- 8:00 PM	72.0 °F	68.0 °F	87%	30.02 in	6.0 mi	SSE	8.1 mph	  -	N/A	"	 "	Drizzle
1555	6/6/1961 -- 9:00 PM	72.0 °F	68.0 °F	87%	30.00 in	10.0 mi	South	3.5 mph	  -	N/A	"	 "	Unknown
1556	6/6/1961 -- 10:00 PM	70.0 °F	69.1 °F	97%	30.01 in	15.0 mi	Calm	Calm	  -	0.02 in	"	 "	Unknown
1557	6/6/1961 -- 11:00 PM	69.1 °F	66.9 °F	93%	30.01 in	15.0 mi	SE	5.8 mph	  -	N/A	"	 "	Unknown
1558	11/18/1960 -- 12:00 AM	46.9 °F	39.9 °F	77%	30.18 in	15.0 mi	East	8.1 mph	  -	N/A	"	 "	Unknown
1559	11/18/1960 -- 1:00 AM	48.0 °F	39.9 °F	74%	30.15 in	20.0 mi	East	5.8 mph	  -	N/A	"	 "	Unknown
1560	11/18/1960 -- 2:00 AM	48.0 °F	41.0 °F	77%	30.14 in	20.0 mi	Calm	Calm	  -	N/A	"	 "	Unknown
1561	11/18/1960 -- 3:00 AM	46.9 °F	42.1 °F	83%	30.14 in	20.0 mi	ESE	4.6 mph	  -	N/A	"	 "	Unknown
1562	11/18/1960 -- 4:00 AM	46.0 °F	41.0 °F	83%	30.13 in	20.0 mi	ENE	2.3 mph	  -	N/A	"	 "	Unknown
1563	11/18/1960 -- 5:00 AM	46.9 °F	39.9 °F	77%	30.13 in	20.0 mi	Calm	Calm	  -	N/A	"	 "	Unknown
1564	11/18/1960 -- 6:00 AM	46.9 °F	39.9 °F	77%	30.12 in	20.0 mi	ENE	2.3 mph	  -	N/A	"	 "	Unknown
1565	11/18/1960 -- 7:00 AM	46.9 °F	39.0 °F	74%	30.11 in	10.0 mi	ENE	2.3 mph	  -	N/A	"	 "	Unknown
1566	11/18/1960 -- 8:00 AM	46.0 °F	41.0 °F	83%	30.12 in	8.0 mi	Calm	Calm	  -	N/A	"	 "	Unknown
1567	11/18/1960 -- 9:00 AM	53.1 °F	39.0 °F	59%	30.12 in	10.0 mi	ENE	9.2 mph	  -	N/A	"	 "	Unknown
1568	11/18/1960 -- 10:00 AM	55.9 °F	39.0 °F	53%	30.11 in	10.0 mi	ESE	9.2 mph	  -	N/A	"	 "	Unknown
1569	11/18/1960 -- 11:00 AM	60.1 °F	39.0 °F	46%	30.07 in	10.0 mi	East	5.8 mph	  -	N/A	"	 "	Unknown
1570	11/18/1960 -- 12:00 PM	61.0 °F	43.0 °F	52%	30.04 in	10.0 mi	SE	8.1 mph	  -	N/A	"	 "	Unknown
1571	11/18/1960 -- 1:00 PM	61.0 °F	45.0 °F	56%	30.02 in	10.0 mi	SE	10.4 mph	  -	N/A	"	 "	Unknown
1572	11/18/1960 -- 2:00 PM	61.0 °F	46.9 °F	60%	30.00 in	10.0 mi	SSW	4.6 mph	  -	N/A	Rain	Light Rain
1573	11/18/1960 -- 3:00 PM	61.0 °F	48.9 °F	64%	29.99 in	10.0 mi	Calm	Calm	  -	N/A	"	 "	Unknown
1574	11/18/1960 -- 4:00 PM	59.0 °F	51.1 °F	75%	29.98 in	6.0 mi	Calm	Calm	  -	N/A	Rain	Light Rain
1575	11/18/1960 -- 5:00 PM	57.0 °F	52.0 °F	83%	29.97 in	8.0 mi	Calm	Calm	  -	0.06 in	"	 "	Unknown
1576	11/18/1960 -- 6:00 PM	55.9 °F	52.0 °F	87%	29.98 in	8.0 mi	South	6.9 mph	  -	N/A	"	 "	Unknown
1577	11/18/1960 -- 7:00 PM	55.9 °F	53.1 °F	90%	29.98 in	7.0 mi	South	4.6 mph	  -	N/A	"	 "	Unknown
1578	11/18/1960 -- 8:00 PM	55.0 °F	53.1 °F	93%	29.98 in	7.0 mi	Calm	Calm	  -	N/A	"	 "	Unknown
1579	11/18/1960 -- 9:00 PM	54.0 °F	52.0 °F	93%	29.97 in	8.0 mi	Calm	Calm	  -	N/A	"	 "	Unknown
1580	11/18/1960 -- 10:00 PM	53.1 °F	52.0 °F	96%	29.97 in	10.0 mi	Calm	Calm	  -	N/A	"	 "	Unknown
1581	11/18/1960 -- 11:00 PM	50.0 °F	48.9 °F	96%	29.98 in	7.0 mi	NW	5.8 mph	  -	N/A	"	 "	Unknown
1582	5/2/1960 -- 12:00 AM	57.0 °F	37.0 °F	47%	30.03 in	20.0 mi	North	11.5 mph	  -	N/A	"	 "	Unknown
1583	5/2/1960 -- 1:00 AM	55.9 °F	39.0 °F	53%	30.05 in	20.0 mi	North	9.2 mph	  -	N/A	Rain	Light Rain
1584	5/2/1960 -- 2:00 AM	54.0 °F	41.0 °F	62%	30.07 in	20.0 mi	North	9.2 mph	  -	N/A	"	 "	Unknown
1585	5/2/1960 -- 3:00 AM	53.1 °F	39.0 °F	59%	30.07 in	20.0 mi	NNE	8.1 mph	  -	N/A	"	 "	Unknown
1586	5/2/1960 -- 4:00 AM	50.0 °F	37.0 °F	61%	30.08 in	20.0 mi	NNE	8.1 mph	  -	N/A	"	 "	Clear
1587	5/2/1960 -- 5:00 AM	48.9 °F	36.0 °F	61%	30.08 in	20.0 mi	NNE	10.4 mph	  -	N/A	"	 "	Clear
1588	5/2/1960 -- 6:00 AM	46.9 °F	35.1 °F	63%	30.11 in	20.0 mi	NNE	9.2 mph	  -	N/A	"	 "	Unknown
1589	5/2/1960 -- 7:00 AM	46.0 °F	35.1 °F	66%	30.14 in	15.0 mi	NE	9.2 mph	  -	N/A	"	 "	Unknown
1590	5/2/1960 -- 8:00 AM	48.9 °F	34.0 °F	56%	30.17 in	15.0 mi	NNE	6.9 mph	  -	N/A	"	 "	Unknown
1591	5/2/1960 -- 9:00 AM	51.1 °F	32.0 °F	48%	30.19 in	15.0 mi	NE	11.5 mph	  -	N/A	"	 "	Clear
1592	5/2/1960 -- 10:00 AM	54.0 °F	33.1 °F	45%	30.19 in	15.0 mi	NNE	12.7 mph	  -	N/A	"	 "	Clear
1593	5/2/1960 -- 11:00 AM	55.0 °F	33.1 °F	43%	30.19 in	15.0 mi	NE	12.7 mph	  -	N/A	"	 "	Clear
1594	5/2/1960 -- 12:00 PM	57.9 °F	32.0 °F	37%	30.17 in	15.0 mi	NNE	13.8 mph	  -	N/A	"	 "	Clear
1595	5/2/1960 -- 1:00 PM	60.1 °F	34.0 °F	38%	30.15 in	15.0 mi	NNE	9.2 mph	  -	N/A	"	 "	Clear
1596	5/2/1960 -- 2:00 PM	63.0 °F	35.1 °F	35%	30.13 in	15.0 mi	ENE	9.2 mph	  -	N/A	"	 "	Clear
1597	5/2/1960 -- 3:00 PM	64.0 °F	36.0 °F	35%	30.13 in	15.0 mi	North	9.2 mph	  -	N/A	"	 "	Clear
1598	5/2/1960 -- 4:00 PM	64.9 °F	35.1 °F	33%	30.11 in	15.0 mi	NNW	9.2 mph	  -	N/A	"	 "	Clear
1599	5/2/1960 -- 5:00 PM	64.9 °F	33.1 °F	31%	30.10 in	15.0 mi	NNE	6.9 mph	  -	N/A	"	 "	Clear
1600	5/2/1960 -- 6:00 PM	64.9 °F	36.0 °F	34%	30.09 in	15.0 mi	North	9.2 mph	  -	N/A	"	 "	Unknown
1601	5/2/1960 -- 7:00 PM	63.0 °F	35.1 °F	35%	30.12 in	15.0 mi	NNE	5.8 mph	  -	N/A	"	 "	Unknown
1602	5/2/1960 -- 8:00 PM	61.0 °F	36.0 °F	39%	30.15 in	15.0 mi	Calm	Calm	  -	N/A	"	 "	Unknown
1603	5/2/1960 -- 9:00 PM	54.0 °F	46.0 °F	75%	30.16 in	15.0 mi	NNW	4.6 mph	  -	N/A	"	 "	Unknown
1604	5/2/1960 -- 10:00 PM	55.0 °F	39.9 °F	57%	30.15 in	15.0 mi	ENE	6.9 mph	  -	N/A	"	 "	Unknown
1605	5/2/1960 -- 11:00 PM	50.0 °F	45.0 °F	83%	30.17 in	15.0 mi	Calm	Calm	  -	N/A	"	 "	Unknown
1606	10/15/1959 -- 12:00 AM	52.0 °F	51.1 °F	97%	29.90 in	4.0 mi	North	13.8 mph	  -	0.02 in	Rain	Light Rain
1607	10/15/1959 -- 1:00 AM	52.0 °F	51.1 °F	97%	29.91 in	3.0 mi	NNW	17.3 mph	  -	0.02 in	Fog	"	,"
1608	10/15/1959 -- 2:00 AM	52.0 °F	51.1 °F	97%	29.90 in	5.5 mi	North	12.7 mph	  -	0.02 in	Fog	Light Drizzle
1609	10/15/1959 -- 3:00 AM	52.0 °F	50.0 °F	93%	29.88 in	3.0 mi	NNE	11.5 mph	  -	0.02 in	Fog	"	,"
1610	10/15/1959 -- 4:00 AM	52.0 °F	50.0 °F	93%	29.90 in	3.0 mi	NNE	16.1 mph	  -	0.03 in	Fog	Fog
1611	10/15/1959 -- 5:00 AM	52.0 °F	48.9 °F	89%	29.91 in	3.0 mi	NNE	13.8 mph	  -	N/A	Fog	Fog
1612	10/15/1959 -- 6:00 AM	51.1 °F	48.9 °F	92%	29.94 in	4.0 mi	North	11.5 mph	  -	N/A	Fog	Fog
1613	10/15/1959 -- 7:00 AM	51.1 °F	48.9 °F	92%	29.97 in	7.0 mi	North	12.7 mph	  -	N/A	"	 "	Unknown
1614	10/15/1959 -- 8:00 AM	51.1 °F	48.9 °F	92%	30.00 in	7.0 mi	NNE	12.7 mph	  -	N/A	"	 "	Unknown
1615	10/15/1959 -- 9:00 AM	52.0 °F	48.0 °F	86%	30.02 in	8.0 mi	North	11.5 mph	  -	N/A	"	 "	Unknown
1616	10/15/1959 -- 10:00 AM	53.1 °F	48.0 °F	83%	30.04 in	10.0 mi	NE	9.2 mph	  -	N/A	"	 "	Unknown
1617	10/15/1959 -- 11:00 AM	54.0 °F	46.9 °F	77%	30.06 in	15.0 mi	North	15.0 mph	  -	N/A	"	 "	Unknown
1618	10/15/1959 -- 12:00 PM	55.9 °F	46.9 °F	72%	30.06 in	15.0 mi	NE	12.7 mph	  -	N/A	"	 "	Unknown
1619	10/15/1959 -- 1:00 PM	55.9 °F	46.0 °F	69%	30.07 in	15.0 mi	NE	13.8 mph	  -	N/A	"	 "	Unknown
1620	10/15/1959 -- 2:00 PM	55.9 °F	45.0 °F	67%	30.07 in	8.0 mi	NNE	11.5 mph	  -	N/A	"	 "	Unknown
1621	10/15/1959 -- 3:00 PM	57.9 °F	46.0 °F	65%	30.07 in	10.0 mi	NNE	11.5 mph	  -	N/A	"	 "	Unknown
1622	10/15/1959 -- 4:00 PM	57.0 °F	46.0 °F	67%	30.08 in	10.0 mi	NE	10.4 mph	  -	N/A	"	 "	Unknown
1623	10/15/1959 -- 5:00 PM	57.0 °F	46.0 °F	67%	30.10 in	8.0 mi	NNE	10.4 mph	  -	N/A	"	 "	Unknown
1624	10/15/1959 -- 6:00 PM	55.9 °F	45.0 °F	67%	30.12 in	10.0 mi	NE	6.9 mph	  -	N/A	"	 "	Unknown
1625	10/15/1959 -- 7:00 PM	53.1 °F	46.9 °F	80%	30.13 in	10.0 mi	ENE	8.1 mph	  -	N/A	"	 "	Unknown
1626	10/15/1959 -- 8:00 PM	51.1 °F	46.0 °F	83%	30.15 in	15.0 mi	NE	4.6 mph	  -	N/A	"	 "	Unknown
1627	10/15/1959 -- 9:00 PM	50.0 °F	46.0 °F	86%	30.16 in	15.0 mi	ENE	5.8 mph	  -	N/A	"	 "	Clear
1628	10/15/1959 -- 10:00 PM	46.9 °F	45.0 °F	93%	30.20 in	15.0 mi	NNE	4.6 mph	  -	N/A	"	 "	Clear
1629	10/15/1959 -- 11:00 PM	46.0 °F	45.0 °F	96%	30.22 in	15.0 mi	NNE	3.5 mph	  -	N/A	"	 "	Clear
1630	3/29/1959 -- 12:00 AM	32.0 °F	19.0 °F	59%	30.39 in	20.0 mi	East	10.4 mph	  -	N/A	"	 "	Clear
1631	3/29/1959 -- 1:00 AM	32.0 °F	19.0 °F	59%	30.40 in	20.0 mi	ESE	6.9 mph	  -	N/A	"	 "	Clear
1632	3/29/1959 -- 2:00 AM	32.0 °F	17.1 °F	54%	30.41 in	15.0 mi	East	6.9 mph	  -	N/A	"	 "	Clear
1633	3/29/1959 -- 3:00 AM	30.9 °F	17.1 °F	57%	30.41 in	15.0 mi	East	5.8 mph	  -	N/A	"	 "	Clear
1634	3/29/1959 -- 4:00 AM	32.0 °F	17.1 °F	54%	30.42 in	20.0 mi	ENE	3.5 mph	  -	N/A	"	 "	Clear
1635	3/29/1959 -- 5:00 AM	28.0 °F	18.0 °F	66%	30.44 in	20.0 mi	Calm	Calm	  -	N/A	"	 "	Clear
1636	3/29/1959 -- 6:00 AM	28.0 °F	18.0 °F	66%	30.46 in	15.0 mi	NNE	2.3 mph	  -	N/A	"	 "	Unknown
1637	3/29/1959 -- 7:00 AM	28.0 °F	19.0 °F	69%	30.48 in	15.0 mi	Calm	Calm	  -	N/A	"	 "	Clear
1638	3/29/1959 -- 8:00 AM	37.9 °F	19.0 °F	47%	30.49 in	15.0 mi	ESE	5.8 mph	  -	N/A	"	 "	Unknown
1639	3/29/1959 -- 9:00 AM	42.1 °F	21.0 °F	43%	30.48 in	15.0 mi	SSE	9.2 mph	  -	N/A	"	 "	Unknown
1640	3/29/1959 -- 10:00 AM	45.0 °F	19.9 °F	37%	30.46 in	15.0 mi	ESE	13.8 mph	  -	N/A	"	 "	Unknown
1641	3/29/1959 -- 11:00 AM	48.0 °F	19.0 °F	32%	30.46 in	15.0 mi	SE	9.2 mph	  -	N/A	"	 "	Unknown
1642	3/29/1959 -- 12:00 PM	48.0 °F	18.0 °F	30%	30.40 in	15.0 mi	ESE	12.7 mph	  -	N/A	"	 "	Unknown
1643	3/29/1959 -- 1:00 PM	48.9 °F	16.0 °F	27%	30.39 in	15.0 mi	ENE	8.1 mph	  -	N/A	"	 "	Unknown
1644	3/29/1959 -- 2:00 PM	53.1 °F	19.9 °F	27%	30.36 in	15.0 mi	ENE	11.5 mph	  -	N/A	"	 "	Unknown
1645	3/29/1959 -- 3:00 PM	51.1 °F	23.0 °F	33%	30.34 in	15.0 mi	ESE	15.0 mph	  -	N/A	"	 "	Unknown
1646	3/29/1959 -- 4:00 PM	50.0 °F	25.0 °F	38%	30.34 in	15.0 mi	ENE	9.2 mph	  -	N/A	"	 "	Unknown
1647	3/29/1959 -- 5:00 PM	50.0 °F	25.0 °F	38%	30.34 in	15.0 mi	NE	10.4 mph	  -	N/A	"	 "	Unknown
1648	3/29/1959 -- 6:00 PM	46.9 °F	32.0 °F	56%	30.36 in	10.0 mi	NE	8.1 mph	  -	N/A	Rain	Light Rain
1649	3/29/1959 -- 7:00 PM	46.0 °F	36.0 °F	68%	30.33 in	10.0 mi	ENE	9.2 mph	  -	N/A	Rain	Light Rain
1650	3/29/1959 -- 8:00 PM	45.0 °F	41.0 °F	86%	30.34 in	10.0 mi	East	6.9 mph	  -	N/A	"	 "	Unknown
1651	3/29/1959 -- 9:00 PM	44.1 °F	37.9 °F	79%	30.32 in	8.0 mi	East	8.1 mph	  -	N/A	Rain	Light Rain
1652	3/29/1959 -- 10:00 PM	43.0 °F	39.9 °F	89%	30.30 in	7.0 mi	East	10.4 mph	  -	0.05 in	Rain	Light Rain
1653	3/29/1959 -- 11:00 PM	44.1 °F	42.1 °F	93%	30.28 in	7.0 mi	East	9.2 mph	  -	N/A	Rain	Light Rain
1654	9/10/1958 -- 12:00 AM	61.0 °F	53.1 °F	75%	30.06 in	15.0 mi	South	8.1 mph	  -	N/A	"	 "	Clear
1655	9/10/1958 -- 1:00 AM	59.0 °F	53.1 °F	81%	30.07 in	15.0 mi	Calm	Calm	  -	N/A	"	 "	Clear
1656	9/10/1958 -- 2:00 AM	61.0 °F	53.1 °F	75%	30.05 in	15.0 mi	SSW	8.1 mph	  -	N/A	"	 "	Clear
1657	9/10/1958 -- 3:00 AM	61.0 °F	55.9 °F	83%	30.05 in	15.0 mi	SSW	8.1 mph	  -	N/A	"	 "	Clear
1658	9/10/1958 -- 4:00 AM	60.1 °F	55.9 °F	86%	30.03 in	15.0 mi	SSW	8.1 mph	  -	N/A	"	 "	Clear
1659	9/10/1958 -- 5:00 AM	59.0 °F	57.0 °F	93%	30.02 in	15.0 mi	SSW	4.6 mph	  -	N/A	"	 "	Clear
1660	9/10/1958 -- 6:00 AM	57.9 °F	57.0 °F	97%	30.02 in	15.0 mi	SW	3.5 mph	  -	N/A	"	 "	Clear
1661	9/10/1958 -- 7:00 AM	57.9 °F	57.0 °F	97%	30.02 in	4.0 mi	SW	5.8 mph	  -	N/A	Fog	Fog
1662	9/10/1958 -- 8:00 AM	60.1 °F	59.0 °F	96%	30.03 in	3.0 mi	SSW	5.8 mph	  -	N/A	Fog	Fog
1663	9/10/1958 -- 9:00 AM	64.0 °F	63.0 °F	96%	30.05 in	4.0 mi	SW	5.8 mph	  -	N/A	Fog	Fog
1664	9/10/1958 -- 10:00 AM	66.9 °F	64.9 °F	93%	30.04 in	3.0 mi	SW	9.2 mph	  -	N/A	Fog	Fog
1665	9/10/1958 -- 11:00 AM	71.1 °F	66.0 °F	84%	30.03 in	8.0 mi	WSW	8.1 mph	  -	N/A	"	 "	Unknown
1666	9/10/1958 -- 12:00 PM	78.1 °F	66.9 °F	68%	30.02 in	10.0 mi	WSW	11.5 mph	  -	N/A	"	 "	Unknown
1667	9/10/1958 -- 1:00 PM	81.0 °F	64.0 °F	56%	29.99 in	15.0 mi	WSW	15.0 mph	  -	N/A	"	 "	Unknown
1668	9/10/1958 -- 2:00 PM	84.0 °F	63.0 °F	49%	29.97 in	15.0 mi	WNW	10.4 mph	  -	N/A	"	 "	Unknown
1669	9/10/1958 -- 3:00 PM	84.9 °F	61.0 °F	44%	29.95 in	15.0 mi	SW	9.2 mph	  -	N/A	"	 "	Unknown
1670	9/10/1958 -- 4:00 PM	82.9 °F	60.1 °F	46%	29.93 in	15.0 mi	SW	8.1 mph	  -	N/A	"	 "	Unknown
1671	9/10/1958 -- 5:00 PM	84.9 °F	61.0 °F	44%	29.92 in	15.0 mi	SW	9.2 mph	  -	N/A	"	 "	Unknown
1672	9/10/1958 -- 6:00 PM	82.0 °F	61.0 °F	49%	29.90 in	15.0 mi	WSW	4.6 mph	  -	N/A	"	 "	Unknown
1673	9/10/1958 -- 7:00 PM	81.0 °F	63.0 °F	54%	29.92 in	15.0 mi	WSW	4.6 mph	  -	N/A	"	 "	Unknown
1674	9/10/1958 -- 8:00 PM	75.9 °F	64.9 °F	69%	29.93 in	10.0 mi	SW	5.8 mph	  -	N/A	"	 "	Unknown
1675	9/10/1958 -- 9:00 PM	73.9 °F	64.9 °F	73%	29.94 in	10.0 mi	SSW	4.6 mph	  -	N/A	"	 "	Unknown
1676	9/10/1958 -- 10:00 PM	73.9 °F	64.0 °F	71%	29.95 in	10.0 mi	SSW	4.6 mph	  -	N/A	"	 "	Unknown
1677	9/10/1958 -- 11:00 PM	73.9 °F	63.0 °F	68%	29.96 in	15.0 mi	SSW	5.8 mph	  -	N/A	"	 "	Unknown
1678	2/22/1958 -- 12:00 AM	36.0 °F	18.0 °F	48%	30.20 in	20.0 mi	SSW	6.9 mph	  -	N/A	"	 "	Clear
1679	2/22/1958 -- 1:00 AM	35.1 °F	16.0 °F	46%	30.17 in	15.0 mi	South	6.9 mph	  -	N/A	"	 "	Clear
1680	2/22/1958 -- 2:00 AM	36.0 °F	17.1 °F	46%	30.16 in	15.0 mi	South	8.1 mph	  -	N/A	"	 "	Unknown
1681	2/22/1958 -- 3:00 AM	36.0 °F	18.0 °F	48%	30.12 in	15.0 mi	South	9.2 mph	  -	N/A	"	 "	Unknown
1682	2/22/1958 -- 4:00 AM	37.0 °F	18.0 °F	46%	30.10 in	15.0 mi	South	4.6 mph	  -	N/A	"	 "	Unknown
1683	2/22/1958 -- 5:00 AM	37.9 °F	19.0 °F	47%	30.09 in	10.0 mi	South	8.1 mph	  -	N/A	Rain	Light Rain
1684	2/22/1958 -- 6:00 AM	37.9 °F	21.0 °F	51%	30.08 in	10.0 mi	SSW	10.4 mph	  -	0.01 in	"	 "	Unknown
1685	2/22/1958 -- 7:00 AM	39.0 °F	21.0 °F	49%	30.07 in	10.0 mi	SW	8.1 mph	  -	N/A	Rain	Light Rain
1686	2/22/1958 -- 8:00 AM	39.0 °F	21.0 °F	49%	30.07 in	10.0 mi	SW	9.2 mph	  -	N/A	"	 "	Unknown
1687	2/22/1958 -- 9:00 AM	42.1 °F	23.0 °F	47%	30.06 in	10.0 mi	WSW	9.2 mph	  -	N/A	"	 "	Unknown
1688	2/22/1958 -- 10:00 AM	45.0 °F	24.1 °F	44%	30.06 in	10.0 mi	SW	5.8 mph	  -	N/A	"	 "	Unknown
1689	2/22/1958 -- 11:00 AM	54.0 °F	32.0 °F	43%	30.03 in	10.0 mi	WSW	6.9 mph	  -	N/A	"	 "	Unknown
1690	2/22/1958 -- 12:00 PM	60.1 °F	37.0 °F	42%	30.00 in	15.0 mi	West	15.0 mph	  -	N/A	"	 "	Unknown
1691	2/22/1958 -- 1:00 PM	61.0 °F	39.9 °F	46%	29.98 in	15.0 mi	West	13.8 mph	  -	N/A	"	 "	Unknown
1692	2/22/1958 -- 2:00 PM	57.0 °F	37.9 °F	49%	29.97 in	10.0 mi	West	10.4 mph	  -	N/A	"	 "	Unknown
1693	2/22/1958 -- 3:00 PM	57.0 °F	37.0 °F	47%	29.96 in	10.0 mi	West	17.3 mph	  -	N/A	"	 "	Unknown
1694	2/22/1958 -- 4:00 PM	55.0 °F	37.0 °F	51%	29.97 in	15.0 mi	WNW	12.7 mph	  -	N/A	"	 "	Unknown
1695	2/22/1958 -- 5:00 PM	52.0 °F	34.0 °F	50%	30.00 in	15.0 mi	WNW	16.1 mph	  -	N/A	"	 "	Unknown
1696	2/22/1958 -- 6:00 PM	48.0 °F	30.9 °F	52%	30.04 in	15.0 mi	NW	17.3 mph	  -	N/A	"	 "	Unknown
1697	2/22/1958 -- 7:00 PM	45.0 °F	30.9 °F	58%	30.06 in	20.0 mi	NW	12.7 mph	  -	N/A	"	 "	Clear
1698	2/22/1958 -- 8:00 PM	43.0 °F	28.9 °F	58%	30.07 in	20.0 mi	NW	10.4 mph	  -	N/A	"	 "	Clear
1699	2/22/1958 -- 9:00 PM	39.9 °F	28.9 °F	65%	30.08 in	20.0 mi	NW	9.2 mph	  -	N/A	"	 "	Clear
1700	2/22/1958 -- 10:00 PM	39.9 °F	27.0 °F	60%	30.08 in	20.0 mi	WNW	8.1 mph	  -	N/A	"	 "	Clear
1701	2/22/1958 -- 11:00 PM	37.9 °F	27.0 °F	65%	30.08 in	20.0 mi	WNW	5.8 mph	  -	N/A	"	 "	Clear
1702	8/6/1957 -- 12:00 AM	73.0 °F	62.1 °F	68%	29.96 in	10.0 mi	North	10.4 mph	  -	N/A	"	 "	Unknown
1703	8/6/1957 -- 1:00 AM	73.0 °F	53.1 °F	49%	29.98 in	10.0 mi	North	12.7 mph	  -	N/A	"	 "	Unknown
1704	8/6/1957 -- 2:00 AM	72.0 °F	50.0 °F	46%	29.98 in	15.0 mi	NNE	13.8 mph	  -	N/A	"	 "	Unknown
1705	8/6/1957 -- 3:00 AM	70.0 °F	48.0 °F	46%	29.99 in	15.0 mi	NNE	12.7 mph	  -	N/A	"	 "	Unknown
1706	8/6/1957 -- 4:00 AM	68.0 °F	51.1 °F	55%	30.01 in	15.0 mi	North	8.1 mph	  -	N/A	"	 "	Unknown
1707	8/6/1957 -- 5:00 AM	66.0 °F	51.1 °F	59%	30.02 in	15.0 mi	NNE	6.9 mph	  -	N/A	"	 "	Unknown
1708	8/6/1957 -- 6:00 AM	64.9 °F	48.0 °F	54%	30.05 in	15.0 mi	NNE	10.4 mph	  -	N/A	"	 "	Unknown
1709	8/6/1957 -- 7:00 AM	63.0 °F	50.0 °F	63%	30.07 in	15.0 mi	North	9.2 mph	  -	N/A	"	 "	Unknown
1710	8/6/1957 -- 8:00 AM	63.0 °F	52.0 °F	67%	30.09 in	15.0 mi	NNW	9.2 mph	  -	N/A	"	 "	Unknown
1711	8/6/1957 -- 9:00 AM	68.0 °F	52.0 °F	56%	30.11 in	15.0 mi	NNE	10.4 mph	  -	N/A	"	 "	Unknown
1712	8/6/1957 -- 10:00 AM	72.0 °F	51.1 °F	48%	30.12 in	15.0 mi	NNE	13.8 mph	  -	N/A	"	 "	Clear
1713	8/6/1957 -- 11:00 AM	75.0 °F	50.0 °F	41%	30.13 in	15.0 mi	NNE	13.8 mph	  -	N/A	"	 "	Clear
1714	8/6/1957 -- 12:00 PM	75.9 °F	51.1 °F	42%	30.13 in	15.0 mi	North	11.5 mph	  -	N/A	"	 "	Clear
1715	8/6/1957 -- 1:00 PM	77.0 °F	48.9 °F	37%	30.12 in	15.0 mi	ESE	8.1 mph	  -	N/A	"	 "	Clear
1716	8/6/1957 -- 2:00 PM	78.1 °F	48.9 °F	36%	30.11 in	15.0 mi	ENE	11.5 mph	  -	N/A	"	 "	Unknown
1717	8/6/1957 -- 3:00 PM	79.0 °F	48.0 °F	34%	30.10 in	15.0 mi	NNE	11.5 mph	  -	N/A	"	 "	Unknown
1718	8/6/1957 -- 4:00 PM	81.0 °F	48.0 °F	31%	30.10 in	15.0 mi	NW	9.2 mph	  -	N/A	"	 "	Unknown
1719	8/6/1957 -- 5:00 PM	80.1 °F	48.9 °F	34%	30.10 in	15.0 mi	NE	9.2 mph	  -	N/A	"	 "	Clear
1720	8/6/1957 -- 6:00 PM	80.1 °F	48.9 °F	34%	30.10 in	15.0 mi	NNE	10.4 mph	  -	N/A	"	 "	Clear
1721	8/6/1957 -- 7:00 PM	79.0 °F	46.0 °F	31%	30.10 in	15.0 mi	NNE	8.1 mph	  -	N/A	"	 "	Clear
1722	8/6/1957 -- 8:00 PM	75.0 °F	48.9 °F	40%	30.11 in	10.0 mi	NNE	8.1 mph	  -	N/A	"	 "	Clear
1723	8/6/1957 -- 9:00 PM	73.0 °F	46.0 °F	38%	30.13 in	10.0 mi	NNE	6.9 mph	  -	N/A	"	 "	Clear
1724	8/6/1957 -- 10:00 PM	68.0 °F	48.9 °F	50%	30.16 in	15.0 mi	NE	4.6 mph	  -	N/A	"	 "	Clear
1725	8/6/1957 -- 11:00 PM	63.0 °F	53.1 °F	70%	30.17 in	15.0 mi	NNE	3.5 mph	  -	N/A	"	 "	Clear
1726	1/18/1957 -- 12:00 AM	17.1 °F	14.0 °F	88%	30.25 in	10.0 mi	WNW	5.8 mph	  -	N/A	"	 "	Clear
1727	1/18/1957 -- 1:00 AM	16.0 °F	12.0 °F	84%	30.27 in	10.0 mi	West	6.9 mph	  -	N/A	"	 "	Clear
1728	1/18/1957 -- 2:00 AM	15.1 °F	10.0 °F	80%	30.29 in	10.0 mi	SW	4.6 mph	  -	N/A	"	 "	Clear
1729	1/18/1957 -- 3:00 AM	14.0 °F	9.0 °F	80%	30.30 in	10.0 mi	Calm	Calm	  -	N/A	"	 "	Clear
1730	1/18/1957 -- 4:00 AM	12.9 °F	9.0 °F	84%	30.30 in	10.0 mi	SSW	8.1 mph	  -	N/A	"	 "	Clear
1731	1/18/1957 -- 5:00 AM	12.9 °F	10.0 °F	88%	30.31 in	10.0 mi	South	9.2 mph	  -	N/A	"	 "	Clear
1732	1/18/1957 -- 6:00 AM	12.9 °F	10.0 °F	88%	30.31 in	10.0 mi	South	9.2 mph	  -	N/A	"	 "	Clear
1733	1/18/1957 -- 7:00 AM	12.9 °F	9.0 °F	84%	30.33 in	10.0 mi	SSW	4.6 mph	  -	N/A	"	 "	Clear
1734	1/18/1957 -- 8:00 AM	16.0 °F	1.9 °F	54%	30.36 in	10.0 mi	SSW	8.1 mph	  -	N/A	"	 "	Clear
1735	1/18/1957 -- 9:00 AM	21.9 °F	6.1 °F	51%	30.38 in	10.0 mi	SW	9.2 mph	  -	N/A	"	 "	Clear
1736	1/18/1957 -- 10:00 AM	28.9 °F	7.0 °F	40%	30.40 in	10.0 mi	WSW	13.8 mph	  -	N/A	"	 "	Clear
1737	1/18/1957 -- 11:00 AM	32.0 °F	12.0 °F	44%	30.37 in	15.0 mi	WSW	13.8 mph	  -	N/A	"	 "	Unknown
1738	1/18/1957 -- 12:00 PM	33.1 °F	12.0 °F	42%	30.37 in	15.0 mi	WSW	17.3 mph	  -	N/A	"	 "	Clear
1739	1/18/1957 -- 1:00 PM	33.1 °F	12.0 °F	42%	30.37 in	15.0 mi	WSW	20.7 mph	  -	N/A	"	 "	Unknown
1740	1/18/1957 -- 2:00 PM	35.1 °F	16.0 °F	46%	30.36 in	15.0 mi	West	12.7 mph	  -	N/A	"	 "	Unknown
1741	1/18/1957 -- 3:00 PM	34.0 °F	18.0 °F	52%	30.38 in	15.0 mi	West	18.4 mph	  -	N/A	"	 "	Clear
1742	1/18/1957 -- 4:00 PM	34.0 °F	10.9 °F	38%	30.40 in	15.0 mi	West	12.7 mph	  -	N/A	"	 "	Clear
1743	1/18/1957 -- 5:00 PM	32.0 °F	15.1 °F	50%	30.42 in	15.0 mi	West	11.5 mph	  -	N/A	"	 "	Clear
1744	1/18/1957 -- 6:00 PM	28.9 °F	9.0 °F	43%	30.45 in	15.0 mi	West	6.9 mph	  -	N/A	"	 "	Clear
1745	1/18/1957 -- 7:00 PM	28.9 °F	8.1 °F	41%	30.48 in	15.0 mi	WSW	5.8 mph	  -	N/A	"	 "	Clear
1746	1/18/1957 -- 8:00 PM	24.1 °F	10.0 °F	55%	30.51 in	15.0 mi	Calm	Calm	  -	N/A	"	 "	Clear
1747	1/18/1957 -- 9:00 PM	24.1 °F	10.0 °F	55%	30.53 in	15.0 mi	Calm	Calm	  -	N/A	"	 "	Clear
1748	1/18/1957 -- 10:00 PM	23.0 °F	10.0 °F	58%	30.55 in	15.0 mi	SW	5.8 mph	  -	N/A	"	 "	Clear
1749	1/18/1957 -- 11:00 PM	23.0 °F	9.0 °F	55%	30.57 in	15.0 mi	WSW	4.6 mph	  -	N/A	"	 "	Clear
1750	7/2/1956 -- 12:00 AM	77.0 °F	70.0 °F	79%	30.01 in	10.0 mi	South	6.9 mph	  -	N/A	"	 "	Clear
1751	7/2/1956 -- 1:00 AM	75.9 °F	70.0 °F	82%	30.00 in	15.0 mi	SSW	9.2 mph	  -	N/A	"	 "	Clear
1752	7/2/1956 -- 2:00 AM	75.0 °F	70.0 °F	84%	29.98 in	15.0 mi	SSW	6.9 mph	  -	N/A	"	 "	Clear
1753	7/2/1956 -- 3:00 AM	75.0 °F	70.0 °F	84%	29.98 in	10.0 mi	SSW	11.5 mph	  -	N/A	"	 "	Clear
1754	7/2/1956 -- 4:00 AM	73.0 °F	70.0 °F	90%	29.98 in	10.0 mi	SSW	6.9 mph	  -	N/A	"	 "	Clear
1755	7/2/1956 -- 5:00 AM	72.0 °F	69.1 °F	91%	29.99 in	10.0 mi	SSW	5.8 mph	  -	N/A	"	 "	Clear
1756	7/2/1956 -- 6:00 AM	71.1 °F	69.1 °F	93%	30.01 in	10.0 mi	SW	5.8 mph	  -	N/A	"	 "	Unknown
1757	7/2/1956 -- 7:00 AM	72.0 °F	69.1 °F	91%	30.03 in	15.0 mi	SSW	8.1 mph	  -	N/A	"	 "	Unknown
1758	7/2/1956 -- 8:00 AM	75.0 °F	70.0 °F	84%	30.04 in	15.0 mi	SW	8.1 mph	  -	N/A	"	 "	Unknown
1759	7/2/1956 -- 9:00 AM	81.0 °F	71.1 °F	72%	30.04 in	15.0 mi	West	9.2 mph	  -	N/A	"	 "	Unknown
1760	7/2/1956 -- 10:00 AM	84.9 °F	71.1 °F	63%	30.03 in	15.0 mi	SW	9.2 mph	  -	N/A	"	 "	Unknown
1761	7/2/1956 -- 11:00 AM	88.0 °F	71.1 °F	57%	30.03 in	15.0 mi	SW	9.2 mph	  -	N/A	"	 "	Clear
1762	7/2/1956 -- 12:00 PM	91.9 °F	69.1 °F	47%	30.02 in	15.0 mi	SW	8.1 mph	  -	N/A	"	 "	Unknown
1763	7/2/1956 -- 1:00 PM	93.9 °F	66.9 °F	41%	29.99 in	15.0 mi	WSW	11.5 mph	  -	N/A	"	 "	Unknown
1764	7/2/1956 -- 2:00 PM	95.0 °F	66.9 °F	40%	29.98 in	15.0 mi	WSW	12.7 mph	  -	N/A	"	 "	Unknown
1765	7/2/1956 -- 3:00 PM	93.9 °F	69.1 °F	44%	29.95 in	15.0 mi	SW	6.9 mph	  -	N/A	"	 "	Unknown
1766	7/2/1956 -- 4:00 PM	95.0 °F	70.0 °F	44%	29.94 in	15.0 mi	South	5.8 mph	  -	N/A	"	 "	Unknown
1767	7/2/1956 -- 5:00 PM	95.0 °F	70.0 °F	44%	29.93 in	15.0 mi	South	8.1 mph	  -	N/A	"	 "	Unknown
1768	7/2/1956 -- 6:00 PM	93.9 °F	70.0 °F	46%	29.95 in	15.0 mi	South	10.4 mph	  -	N/A	"	 "	Unknown
1769	7/2/1956 -- 7:00 PM	91.0 °F	70.0 °F	50%	29.95 in	15.0 mi	SSW	6.9 mph	  -	N/A	"	 "	Unknown
1770	7/2/1956 -- 8:00 PM	88.0 °F	71.1 °F	57%	29.96 in	15.0 mi	SSW	10.4 mph	  -	N/A	"	 "	Unknown
1771	7/2/1956 -- 9:00 PM	84.9 °F	71.1 °F	63%	29.96 in	15.0 mi	SSW	8.1 mph	  -	N/A	"	 "	Unknown
1772	7/2/1956 -- 10:00 PM	82.0 °F	71.1 °F	69%	29.98 in	10.0 mi	South	8.1 mph	  -	N/A	"	 "	Clear
1773	7/2/1956 -- 11:00 PM	80.1 °F	72.0 °F	76%	29.98 in	10.0 mi	SSW	6.9 mph	  -	N/A	"	 "	Clear
1774	12/15/1955 -- 12:00 AM	30.0 °F	25.0 °F	82%	30.18 in	7.0 mi	SW	4.6 mph	  -	N/A	"	 "	Clear
1775	12/15/1955 -- 1:00 AM	27.0 °F	24.1 °F	89%	30.16 in	7.0 mi	SW	4.6 mph	  -	N/A	"	 "	Clear
1776	12/15/1955 -- 2:00 AM	28.0 °F	26.1 °F	92%	30.14 in	7.0 mi	SSE	4.6 mph	  -	N/A	"	 "	Clear
1777	12/15/1955 -- 3:00 AM	26.1 °F	25.0 °F	96%	30.12 in	7.0 mi	West	4.6 mph	  -	N/A	"	 "	Unknown
1778	12/15/1955 -- 4:00 AM	23.0 °F	19.0 °F	85%	30.11 in	7.0 mi	SW	4.6 mph	  -	N/A	"	 "	Clear
1779	12/15/1955 -- 5:00 AM	23.0 °F	19.9 °F	88%	30.11 in	7.0 mi	South	6.9 mph	  -	N/A	"	 "	Clear
1780	12/15/1955 -- 6:00 AM	27.0 °F	19.9 °F	75%	30.10 in	7.0 mi	SW	5.8 mph	  -	N/A	"	 "	Unknown
1781	12/15/1955 -- 7:00 AM	26.1 °F	17.1 °F	69%	30.09 in	8.0 mi	South	8.1 mph	  -	N/A	"	 "	Unknown
1782	12/15/1955 -- 8:00 AM	30.0 °F	19.0 °F	64%	30.09 in	10.0 mi	SSW	11.5 mph	  -	N/A	"	 "	Unknown
1783	12/15/1955 -- 9:00 AM	36.0 °F	21.0 °F	55%	30.08 in	10.0 mi	SSW	5.8 mph	  -	N/A	"	 "	Unknown
1784	12/15/1955 -- 10:00 AM	42.1 °F	21.9 °F	45%	30.05 in	10.0 mi	WSW	6.9 mph	  -	N/A	"	 "	Unknown
1785	12/15/1955 -- 11:00 AM	48.0 °F	24.1 °F	39%	30.02 in	10.0 mi	WSW	6.9 mph	  -	N/A	"	 "	Unknown
1786	12/15/1955 -- 12:00 PM	52.0 °F	24.1 °F	34%	29.98 in	10.0 mi	WSW	6.9 mph	  -	N/A	"	 "	Unknown
1787	12/15/1955 -- 1:00 PM	54.0 °F	24.1 °F	31%	29.94 in	10.0 mi	West	16.1 mph	  -	N/A	"	 "	Unknown
1788	12/15/1955 -- 2:00 PM	55.0 °F	28.0 °F	35%	29.93 in	10.0 mi	WSW	11.5 mph	  -	N/A	"	 "	Unknown
1789	12/15/1955 -- 3:00 PM	53.1 °F	26.1 °F	35%	29.93 in	10.0 mi	WSW	15.0 mph	  -	N/A	"	 "	Unknown
1790	12/15/1955 -- 4:00 PM	48.0 °F	28.0 °F	46%	29.95 in	8.0 mi	NNW	13.8 mph	  -	N/A	"	 "	Unknown
1791	12/15/1955 -- 5:00 PM	42.1 °F	25.0 °F	51%	29.97 in	8.0 mi	NW	11.5 mph	  -	N/A	"	 "	Unknown
1792	12/15/1955 -- 6:00 PM	39.9 °F	24.1 °F	53%	29.98 in	8.0 mi	NW	11.5 mph	  -	N/A	"	 "	Clear
1793	12/15/1955 -- 7:00 PM	37.9 °F	21.0 °F	51%	29.99 in	10.0 mi	NW	11.5 mph	  -	N/A	"	 "	Clear
1794	12/15/1955 -- 8:00 PM	36.0 °F	16.0 °F	44%	30.01 in	10.0 mi	NW	11.5 mph	  -	N/A	"	 "	Clear
1795	12/15/1955 -- 9:00 PM	34.0 °F	14.0 °F	44%	30.01 in	10.0 mi	NW	11.5 mph	  -	N/A	"	 "	Clear
1796	12/15/1955 -- 10:00 PM	32.0 °F	12.9 °F	45%	30.00 in	10.0 mi	NNW	11.5 mph	  -	N/A	"	 "	Clear
1797	12/15/1955 -- 11:00 PM	30.9 °F	12.0 °F	46%	30.01 in	10.0 mi	NNW	12.7 mph	  -	N/A	"	 "	Clear
1798	5/29/1955 -- 12:00 AM	75.0 °F	66.0 °F	73%	29.99 in	15.0 mi	South	11.5 mph	  -	N/A	"	 "	Clear
1799	5/29/1955 -- 1:00 AM	73.9 °F	66.9 °F	79%	29.98 in	15.0 mi	SSW	12.7 mph	  -	N/A	"	 "	Unknown
1800	5/29/1955 -- 2:00 AM	73.0 °F	68.0 °F	84%	29.96 in	15.0 mi	SSW	13.8 mph	  -	N/A	"	 "	Unknown
1801	5/29/1955 -- 3:00 AM	72.0 °F	68.0 °F	87%	29.95 in	15.0 mi	SSW	11.5 mph	  -	N/A	"	 "	Unknown
1802	5/29/1955 -- 4:00 AM	72.0 °F	68.0 °F	87%	29.94 in	15.0 mi	SSW	12.7 mph	  -	N/A	"	 "	Unknown
1803	5/29/1955 -- 5:00 AM	71.1 °F	68.0 °F	90%	29.95 in	15.0 mi	SSW	9.2 mph	  -	N/A	"	 "	Unknown
1804	5/29/1955 -- 6:00 AM	71.1 °F	66.9 °F	87%	29.96 in	15.0 mi	SSW	9.2 mph	  -	N/A	"	 "	Unknown
1805	5/29/1955 -- 7:00 AM	72.0 °F	68.0 °F	87%	29.97 in	15.0 mi	SW	12.7 mph	  -	N/A	"	 "	Unknown
1806	5/29/1955 -- 8:00 AM	73.9 °F	68.0 °F	82%	29.97 in	15.0 mi	SSW	12.7 mph	  -	N/A	"	 "	Unknown
1807	5/29/1955 -- 9:00 AM	78.1 °F	69.1 °F	74%	29.97 in	15.0 mi	SSW	13.8 mph	  -	N/A	"	 "	Unknown
1808	5/29/1955 -- 10:00 AM	81.0 °F	70.0 °F	69%	29.95 in	15.0 mi	SSW	11.5 mph	  -	N/A	"	 "	Unknown
1809	5/29/1955 -- 11:00 AM	84.0 °F	69.1 °F	61%	29.94 in	15.0 mi	SW	11.5 mph	  -	N/A	"	 "	Unknown
1810	5/29/1955 -- 12:00 PM	84.9 °F	68.0 °F	57%	29.91 in	15.0 mi	SW	11.5 mph	  -	N/A	"	 "	Unknown
1811	5/29/1955 -- 1:00 PM	86.0 °F	68.0 °F	55%	29.88 in	15.0 mi	SSW	13.8 mph	  -	N/A	Rain	"	,"
1812	5/29/1955 -- 2:00 PM	84.9 °F	68.0 °F	57%	29.84 in	15.0 mi	SSW	17.3 mph	  -	N/A	"	 "	Unknown
1813	5/29/1955 -- 3:00 PM	87.1 °F	69.1 °F	55%	29.84 in	15.0 mi	SSW	13.8 mph	  -	N/A	"	 "	Unknown
1814	5/29/1955 -- 4:00 PM	84.9 °F	66.0 °F	53%	29.83 in	15.0 mi	SW	9.2 mph	  -	N/A	"	 "	Unknown
1815	5/29/1955 -- 5:00 PM	86.0 °F	66.9 °F	53%	29.80 in	15.0 mi	WSW	16.1 mph	  -	N/A	"	 "	Unknown
1816	5/29/1955 -- 6:00 PM	86.0 °F	64.0 °F	48%	29.78 in	15.0 mi	SSW	10.4 mph	  -	N/A	"	 "	Unknown
1817	5/29/1955 -- 7:00 PM	84.0 °F	66.0 °F	55%	29.79 in	15.0 mi	SSW	12.7 mph	  -	N/A	Rain	"	,"
1818	5/29/1955 -- 8:00 PM	78.1 °F	64.9 °F	64%	29.81 in	15.0 mi	SSW	16.1 mph	  -	N/A	"	 "	Unknown
1819	5/29/1955 -- 9:00 PM	75.9 °F	66.9 °F	74%	29.82 in	15.0 mi	SSW	10.4 mph	  -	N/A	"	 "	Unknown
1820	5/29/1955 -- 10:00 PM	75.0 °F	66.0 °F	73%	29.83 in	15.0 mi	SSW	10.4 mph	  -	N/A	Rain	"	,"
1821	5/29/1955 -- 11:00 PM	72.0 °F	66.0 °F	81%	29.86 in	4.0 mi	SSW	17.3 mph	  -	N/A	Rain	"	,"
1822	11/10/1954 -- 12:00 AM	44.1 °F	34.0 °F	68%	30.45 in	15.0 mi	NE	10.4 mph	  -	N/A	"	 "	Clear
1823	11/10/1954 -- 1:00 AM	41.0 °F	35.1 °F	79%	30.47 in	15.0 mi	ENE	9.2 mph	  -	N/A	"	 "	Clear
1824	11/10/1954 -- 2:00 AM	41.0 °F	36.0 °F	82%	30.47 in	15.0 mi	NNE	4.6 mph	  -	N/A	"	 "	Clear
1825	11/10/1954 -- 3:00 AM	36.0 °F	34.0 °F	93%	30.47 in	10.0 mi	NNE	5.8 mph	  -	N/A	"	 "	Clear
1826	11/10/1954 -- 4:00 AM	37.0 °F	36.0 °F	96%	30.49 in	10.0 mi	NE	6.9 mph	  -	N/A	"	 "	Unknown
1827	11/10/1954 -- 5:00 AM	37.0 °F	34.0 °F	89%	30.52 in	10.0 mi	NNE	8.1 mph	  -	N/A	"	 "	Unknown
1828	11/10/1954 -- 6:00 AM	36.0 °F	33.1 °F	89%	30.54 in	7.0 mi	NNE	10.4 mph	  -	N/A	"	 "	Unknown
1829	11/10/1954 -- 7:00 AM	35.1 °F	33.1 °F	92%	30.56 in	7.0 mi	NNE	5.8 mph	  -	N/A	"	 "	Unknown
1830	11/10/1954 -- 8:00 AM	39.9 °F	34.0 °F	79%	30.60 in	10.0 mi	NE	13.8 mph	  -	N/A	"	 "	Unknown
1831	11/10/1954 -- 9:00 AM	45.0 °F	32.0 °F	60%	30.62 in	15.0 mi	NE	13.8 mph	  -	N/A	"	 "	Unknown
1832	11/10/1954 -- 10:00 AM	50.0 °F	30.0 °F	46%	30.63 in	15.0 mi	NE	17.3 mph	  -	N/A	"	 "	Unknown
1833	11/10/1954 -- 11:00 AM	50.0 °F	30.0 °F	46%	30.62 in	15.0 mi	NE	18.4 mph	  -	N/A	"	 "	Unknown
1834	11/10/1954 -- 12:00 PM	51.1 °F	28.9 °F	43%	30.60 in	15.0 mi	NE	9.2 mph	  -	N/A	"	 "	Unknown
1835	11/10/1954 -- 1:00 PM	52.0 °F	30.0 °F	43%	30.59 in	15.0 mi	NE	12.7 mph	  -	N/A	"	 "	Unknown
1836	11/10/1954 -- 2:00 PM	53.1 °F	30.9 °F	43%	30.59 in	15.0 mi	NE	15.0 mph	  -	N/A	"	 "	Unknown
1837	11/10/1954 -- 3:00 PM	52.0 °F	32.0 °F	47%	30.58 in	15.0 mi	NNE	12.7 mph	  -	N/A	"	 "	Unknown
1838	11/10/1954 -- 4:00 PM	50.0 °F	28.9 °F	44%	30.58 in	15.0 mi	NE	10.4 mph	  -	N/A	"	 "	Unknown
1839	11/10/1954 -- 5:00 PM	46.0 °F	30.9 °F	56%	30.60 in	15.0 mi	NE	9.2 mph	  -	N/A	"	 "	Unknown
1840	11/10/1954 -- 6:00 PM	44.1 °F	30.9 °F	60%	30.61 in	15.0 mi	NE	8.1 mph	  -	N/A	"	 "	Unknown
1841	11/10/1954 -- 7:00 PM	43.0 °F	30.0 °F	60%	30.62 in	15.0 mi	NE	8.1 mph	  -	N/A	"	 "	Unknown
1842	11/10/1954 -- 8:00 PM	39.9 °F	30.0 °F	68%	30.63 in	15.0 mi	NE	5.8 mph	  -	N/A	"	 "	Unknown
1843	11/10/1954 -- 9:00 PM	39.0 °F	30.0 °F	70%	30.64 in	15.0 mi	NE	6.9 mph	  -	N/A	"	 "	Unknown
1844	11/10/1954 -- 10:00 PM	37.9 °F	30.9 °F	76%	30.63 in	15.0 mi	NNE	6.9 mph	  -	N/A	"	 "	Unknown
1845	11/10/1954 -- 11:00 PM	37.0 °F	30.0 °F	76%	30.64 in	15.0 mi	NE	6.9 mph	  -	N/A	"	 "	Clear
1846	4/24/1954 -- 12:00 AM	64.0 °F	59.0 °F	84%	30.17 in	15.0 mi	SW	8.1 mph	  -	N/A	"	 "	Clear
1847	4/24/1954 -- 1:00 AM	63.0 °F	59.0 °F	87%	30.17 in	15.0 mi	SW	5.8 mph	  -	N/A	"	 "	Clear
1848	4/24/1954 -- 2:00 AM	62.1 °F	59.0 °F	90%	30.17 in	15.0 mi	Calm	Calm	  -	N/A	"	 "	Clear
1849	4/24/1954 -- 3:00 AM	61.0 °F	57.9 °F	90%	30.17 in	10.0 mi	Calm	Calm	  -	N/A	"	 "	Clear
1850	4/24/1954 -- 4:00 AM	60.1 °F	57.9 °F	93%	30.18 in	10.0 mi	SW	5.8 mph	  -	N/A	"	 "	Unknown
1851	4/24/1954 -- 5:00 AM	59.0 °F	57.9 °F	96%	30.19 in	10.0 mi	Calm	Calm	  -	N/A	"	 "	Unknown
1852	4/24/1954 -- 6:00 AM	60.1 °F	57.9 °F	93%	30.21 in	10.0 mi	Calm	Calm	  -	N/A	"	 "	Unknown
1853	4/24/1954 -- 7:00 AM	64.9 °F	60.1 °F	84%	30.22 in	10.0 mi	WSW	5.8 mph	  -	N/A	"	 "	Unknown
1854	4/24/1954 -- 8:00 AM	70.0 °F	62.1 °F	76%	30.22 in	15.0 mi	NNW	4.6 mph	  -	N/A	"	 "	Unknown
1855	4/24/1954 -- 9:00 AM	73.9 °F	62.1 °F	66%	30.23 in	15.0 mi	North	4.6 mph	  -	N/A	"	 "	Unknown
1856	4/24/1954 -- 10:00 AM	78.1 °F	62.1 °F	58%	30.22 in	15.0 mi	Calm	Calm	  -	N/A	"	 "	Unknown
1857	4/24/1954 -- 11:00 AM	81.0 °F	62.1 °F	52%	30.21 in	15.0 mi	South	3.5 mph	  -	N/A	"	 "	Unknown
1858	4/24/1954 -- 12:00 PM	84.0 °F	61.0 °F	46%	30.19 in	15.0 mi	SSW	6.9 mph	  -	N/A	"	 "	Unknown
1859	4/24/1954 -- 1:00 PM	82.0 °F	60.1 °F	47%	30.17 in	15.0 mi	East	6.9 mph	  -	N/A	"	 "	Unknown
1860	4/24/1954 -- 2:00 PM	80.1 °F	57.9 °F	47%	30.15 in	15.0 mi	ENE	6.9 mph	  -	N/A	"	 "	Unknown
1861	4/24/1954 -- 3:00 PM	81.0 °F	55.9 °F	42%	30.14 in	15.0 mi	Calm	Calm	  -	N/A	"	 "	Unknown
1862	4/24/1954 -- 4:00 PM	84.9 °F	55.0 °F	36%	30.14 in	15.0 mi	Calm	Calm	  -	N/A	"	 "	Unknown
1863	4/24/1954 -- 5:00 PM	81.0 °F	55.9 °F	42%	30.15 in	15.0 mi	NE	10.4 mph	  -	N/A	"	 "	Unknown
1864	4/24/1954 -- 6:00 PM	75.9 °F	59.0 °F	56%	30.16 in	15.0 mi	NE	12.7 mph	  -	N/A	"	 "	Unknown
1865	4/24/1954 -- 7:00 PM	70.0 °F	59.0 °F	68%	30.20 in	15.0 mi	NE	16.1 mph	  -	N/A	"	 "	Unknown
1866	4/24/1954 -- 8:00 PM	69.1 °F	61.0 °F	75%	30.22 in	15.0 mi	SE	4.6 mph	  -	N/A	Rain	"	,"
1867	4/24/1954 -- 9:00 PM	66.9 °F	62.1 °F	84%	30.24 in	15.0 mi	ESE	4.6 mph	  -	N/A	"	 "	Unknown
1868	4/24/1954 -- 10:00 PM	64.9 °F	62.1 °F	90%	30.24 in	15.0 mi	ESE	3.5 mph	  -	N/A	"	 "	Clear
1869	4/24/1954 -- 11:00 PM	63.0 °F	61.0 °F	93%	30.23 in	15.0 mi	Calm	Calm	  -	N/A	"	 "	Clear
1870	10/6/1953 -- 12:00 AM	61.0 °F	57.9 °F	90%	29.72 in	10.0 mi	NE	3.5 mph	  -	N/A	"	 "	Clear
1871	10/6/1953 -- 1:00 AM	57.9 °F	55.9 °F	93%	29.71 in	10.0 mi	Calm	Calm	  -	N/A	"	 "	Clear
1872	10/6/1953 -- 2:00 AM	57.0 °F	55.0 °F	93%	29.70 in	10.0 mi	Calm	Calm	  -	N/A	"	 "	Clear
1873	10/6/1953 -- 3:00 AM	55.9 °F	55.9 °F	100%	29.68 in	9.0 mi	Calm	Calm	  -	N/A	"	 "	Clear
1874	10/6/1953 -- 4:00 AM	57.0 °F	57.0 °F	100%	29.68 in	0.2 mi	Calm	Calm	  -	N/A	Fog	Fog
1875	10/6/1953 -- 5:00 AM	57.9 °F	57.0 °F	97%	29.70 in	0.1 mi	Calm	Calm	  -	N/A	Fog	Fog
1876	10/6/1953 -- 6:00 AM	57.9 °F	57.0 °F	97%	29.71 in	0.1 mi	North	3.5 mph	  -	N/A	Fog	Fog
1877	10/6/1953 -- 7:00 AM	57.9 °F	57.0 °F	97%	29.72 in	0.1 mi	Calm	Calm	  -	N/A	Fog	Fog
1878	10/6/1953 -- 8:00 AM	60.1 °F	59.0 °F	96%	29.73 in	1.0 mi	Calm	Calm	  -	N/A	Fog	Fog
1879	10/6/1953 -- 9:00 AM	62.1 °F	60.1 °F	93%	29.74 in	3.0 mi	Calm	Calm	  -	N/A	Fog	Fog
1880	10/6/1953 -- 10:00 AM	68.0 °F	63.0 °F	84%	29.74 in	7.0 mi	Calm	Calm	  -	N/A	"	 "	Unknown
1881	10/6/1953 -- 11:00 AM	73.9 °F	62.1 °F	66%	29.72 in	8.0 mi	Calm	Calm	  -	N/A	"	 "	Unknown
1882	10/6/1953 -- 12:00 PM	75.9 °F	59.0 °F	56%	29.69 in	10.0 mi	WSW	8.1 mph	  -	N/A	"	 "	Unknown
1883	10/6/1953 -- 1:00 PM	78.1 °F	59.0 °F	52%	29.67 in	15.0 mi	WSW	6.9 mph	  -	N/A	"	 "	Unknown
1884	10/6/1953 -- 2:00 PM	79.0 °F	59.0 °F	50%	29.65 in	15.0 mi	WSW	6.9 mph	  -	N/A	"	 "	Unknown
1885	10/6/1953 -- 3:00 PM	66.0 °F	93%	29.67 in	2.0 mi	NNW	18.4 mph	  -	N/A	Rain	"	,"	Thunderstorm
1886	10/6/1953 -- 4:00 PM	64.9 °F	61.0 °F	87%	29.73 in	4.0 mi	North	8.1 mph	  -	0.27 in	Fog	Fog
1887	10/6/1953 -- 5:00 PM	63.0 °F	54.0 °F	72%	29.76 in	8.0 mi	North	5.8 mph	  -	0.02 in	"	 "	Unknown
1888	10/6/1953 -- 6:00 PM	62.1 °F	50.0 °F	65%	29.79 in	15.0 mi	NNW	4.6 mph	  -	N/A	"	 "	Unknown
1889	10/6/1953 -- 7:00 PM	62.1 °F	48.0 °F	60%	29.81 in	15.0 mi	North	5.8 mph	  -	N/A	"	 "	Unknown
1890	10/6/1953 -- 8:00 PM	62.1 °F	46.0 °F	56%	29.85 in	15.0 mi	NNW	8.1 mph	  -	N/A	Rain	Light Rain
1891	10/6/1953 -- 9:00 PM	62.1 °F	42.1 °F	48%	29.86 in	15.0 mi	North	6.9 mph	  -	N/A	"	 "	Unknown
1892	10/6/1953 -- 10:00 PM	62.1 °F	39.0 °F	43%	29.90 in	15.0 mi	North	8.1 mph	  -	N/A	"	 "	Unknown
1893	10/6/1953 -- 11:00 PM	60.1 °F	39.9 °F	47%	29.93 in	15.0 mi	NNW	9.2 mph	  -	N/A	"	 "	Unknown
1894	3/20/1953 -- 12:00 AM	50.0 °F	30.9 °F	48%	29.95 in	10.0 mi	Calm	Calm	  -	N/A	"	 "	Clear
1895	3/20/1953 -- 1:00 AM	50.0 °F	32.0 °F	50%	29.96 in	10.0 mi	Calm	Calm	  -	N/A	"	 "	Clear
1896	3/20/1953 -- 2:00 AM	52.0 °F	28.0 °F	40%	29.98 in	10.0 mi	NNW	6.9 mph	  -	N/A	"	 "	Clear
1897	3/20/1953 -- 3:00 AM	50.0 °F	26.1 °F	39%	29.99 in	10.0 mi	NNW	5.8 mph	  -	N/A	"	 "	Clear
1898	3/20/1953 -- 4:00 AM	48.0 °F	28.0 °F	46%	30.01 in	10.0 mi	NNW	5.8 mph	  -	N/A	"	 "	Clear
1899	3/20/1953 -- 5:00 AM	46.0 °F	28.9 °F	51%	30.03 in	10.0 mi	Calm	Calm	  -	N/A	"	 "	Clear
1900	3/20/1953 -- 6:00 AM	44.1 °F	28.9 °F	55%	30.06 in	10.0 mi	North	3.5 mph	  -	N/A	"	 "	Clear
1901	3/20/1953 -- 7:00 AM	46.0 °F	32.0 °F	58%	30.09 in	15.0 mi	Calm	Calm	  -	N/A	"	 "	Clear
1902	3/20/1953 -- 8:00 AM	52.0 °F	32.0 °F	47%	30.09 in	20.0 mi	Calm	Calm	  -	N/A	"	 "	Clear
1903	3/20/1953 -- 9:00 AM	55.9 °F	30.9 °F	39%	30.10 in	20.0 mi	NNW	10.4 mph	  -	N/A	"	 "	Clear
1904	3/20/1953 -- 10:00 AM	60.1 °F	28.9 °F	31%	30.09 in	20.0 mi	West	3.5 mph	  -	N/A	"	 "	Clear
1905	3/20/1953 -- 11:00 AM	62.1 °F	32.0 °F	32%	30.07 in	20.0 mi	North	3.5 mph	  -	N/A	"	 "	Clear
1906	3/20/1953 -- 12:00 PM	64.9 °F	28.9 °F	26%	30.06 in	20.0 mi	West	12.7 mph	  -	N/A	"	 "	Clear
1907	3/20/1953 -- 1:00 PM	64.0 °F	30.0 °F	28%	30.04 in	20.0 mi	WNW	8.1 mph	  -	N/A	"	 "	Unknown
1908	3/20/1953 -- 2:00 PM	66.9 °F	30.9 °F	26%	30.03 in	20.0 mi	West	5.8 mph	  -	N/A	"	 "	Unknown
1909	3/20/1953 -- 3:00 PM	66.9 °F	30.0 °F	25%	30.04 in	20.0 mi	WNW	5.8 mph	  -	N/A	"	 "	Unknown
1910	3/20/1953 -- 4:00 PM	68.0 °F	28.0 °F	22%	30.03 in	20.0 mi	NW	3.5 mph	  -	N/A	"	 "	Clear
1911	3/20/1953 -- 5:00 PM	66.9 °F	30.9 °F	26%	30.05 in	20.0 mi	WSW	3.5 mph	  -	N/A	"	 "	Clear
1912	3/20/1953 -- 6:00 PM	63.0 °F	30.9 °F	30%	30.08 in	20.0 mi	SW	5.8 mph	  -	N/A	"	 "	Clear
1913	3/20/1953 -- 7:00 PM	54.0 °F	33.1 °F	45%	30.10 in	15.0 mi	SE	3.5 mph	  -	N/A	"	 "	Unknown
1914	3/20/1953 -- 8:00 PM	51.1 °F	35.1 °F	54%	30.12 in	15.0 mi	ESE	6.9 mph	  -	N/A	"	 "	Unknown
1915	3/20/1953 -- 9:00 PM	50.0 °F	35.1 °F	57%	30.14 in	15.0 mi	ESE	8.1 mph	  -	N/A	"	 "	Unknown
1916	3/20/1953 -- 10:00 PM	48.0 °F	35.1 °F	61%	30.14 in	15.0 mi	ESE	8.1 mph	  -	N/A	"	 "	Clear
1917	3/20/1953 -- 11:00 PM	48.0 °F	36.0 °F	63%	30.15 in	15.0 mi	ESE	8.1 mph	  -	N/A	"	 "	Clear
1918	9/1/1952 -- 12:00 AM	75.9 °F	73.9 °F	94%	29.87 in	7.0 mi	SSW	19.6 mph	  -	N/A	Rain	Light Rain
1919	9/1/1952 -- 1:00 AM	75.9 °F	73.9 °F	94%	29.89 in	8.0 mi	SSW	19.6 mph	  -	0.04 in	"	 "	Unknown
1920	9/1/1952 -- 2:00 AM	75.9 °F	73.9 °F	94%	29.89 in	10.0 mi	SW	15.0 mph	  -	N/A	"	 "	Unknown
1921	9/1/1952 -- 3:00 AM	75.0 °F	73.0 °F	94%	29.89 in	10.0 mi	SW	15.0 mph	  -	N/A	"	 "	Unknown
1922	9/1/1952 -- 4:00 AM	75.0 °F	73.0 °F	94%	29.89 in	10.0 mi	SW	10.4 mph	  -	N/A	"	 "	Unknown
1923	9/1/1952 -- 5:00 AM	75.0 °F	73.0 °F	94%	29.91 in	10.0 mi	SW	11.5 mph	  -	N/A	"	 "	Unknown
1924	9/1/1952 -- 6:00 AM	73.9 °F	73.0 °F	97%	29.93 in	10.0 mi	SW	12.7 mph	  -	N/A	"	 "	Unknown
1925	9/1/1952 -- 7:00 AM	73.9 °F	73.0 °F	97%	29.94 in	10.0 mi	SW	9.2 mph	  -	N/A	"	 "	Unknown
1926	9/1/1952 -- 8:00 AM	75.9 °F	73.9 °F	94%	29.96 in	10.0 mi	SW	11.5 mph	  -	N/A	"	 "	Unknown
1927	9/1/1952 -- 9:00 AM	80.1 °F	73.9 °F	81%	29.96 in	20.0 mi	SW	10.4 mph	  -	N/A	"	 "	Unknown
1928	9/1/1952 -- 10:00 AM	82.9 °F	75.0 °F	77%	29.97 in	20.0 mi	SW	11.5 mph	  -	N/A	"	 "	Unknown
1929	9/1/1952 -- 11:00 AM	84.9 °F	73.9 °F	69%	29.96 in	20.0 mi	WSW	6.9 mph	  -	N/A	"	 "	Unknown
1930	9/1/1952 -- 12:00 PM	84.9 °F	73.0 °F	67%	29.96 in	20.0 mi	SW	8.1 mph	  -	N/A	"	 "	Unknown
1931	9/1/1952 -- 1:00 PM	88.0 °F	73.9 °F	63%	29.95 in	20.0 mi	WSW	3.5 mph	  -	N/A	"	 "	Unknown
1932	9/1/1952 -- 2:00 PM	89.1 °F	73.0 °F	59%	29.94 in	20.0 mi	SW	9.2 mph	  -	N/A	"	 "	Unknown
1933	9/1/1952 -- 3:00 PM	88.0 °F	73.9 °F	63%	29.92 in	20.0 mi	SW	6.9 mph	  -	N/A	"	 "	Unknown
1934	9/1/1952 -- 4:00 PM	90.0 °F	73.9 °F	59%	29.91 in	20.0 mi	SW	6.9 mph	  -	N/A	"	 "	Unknown
1935	9/1/1952 -- 5:00 PM	90.0 °F	73.0 °F	57%	29.90 in	20.0 mi	SSW	9.2 mph	  -	N/A	"	 "	Unknown
1936	9/1/1952 -- 6:00 PM	88.0 °F	73.9 °F	63%	29.91 in	20.0 mi	SW	8.1 mph	  -	N/A	"	 "	Clear
1937	9/1/1952 -- 7:00 PM	82.9 °F	73.9 °F	74%	29.91 in	20.0 mi	SSW	5.8 mph	  -	N/A	"	 "	Clear
1938	9/1/1952 -- 8:00 PM	80.1 °F	73.0 °F	79%	29.92 in	15.0 mi	SSW	6.9 mph	  -	N/A	"	 "	Clear
1939	9/1/1952 -- 9:00 PM	79.0 °F	72.0 °F	79%	29.93 in	15.0 mi	SSW	9.2 mph	  -	N/A	"	 "	Clear
1940	9/1/1952 -- 10:00 PM	77.0 °F	73.0 °F	88%	29.93 in	15.0 mi	SW	6.9 mph	  -	N/A	"	 "	Unknown
1941	9/1/1952 -- 11:00 PM	75.9 °F	73.0 °F	91%	29.93 in	15.0 mi	SW	6.9 mph	  -	N/A	"	 "	Unknown
1942	2/14/1952 -- 12:00 AM	48.0 °F	35.1 °F	61%	29.98 in	7.0 mi	ESE	16.1 mph	  -	N/A	"	 "	Unknown
1943	2/14/1952 -- 1:00 AM	46.9 °F	34.0 °F	61%	29.97 in	7.0 mi	East	10.4 mph	  -	N/A	"	 "	Unknown
1944	2/14/1952 -- 2:00 AM	46.0 °F	34.0 °F	63%	29.96 in	8.0 mi	East	11.5 mph	  -	N/A	"	 "	Unknown
1945	2/14/1952 -- 3:00 AM	42.1 °F	37.9 °F	85%	29.93 in	7.0 mi	ENE	6.9 mph	  -	N/A	Rain	Light Rain Showers
1946	2/14/1952 -- 4:00 AM	39.9 °F	39.0 °F	97%	29.95 in	4.0 mi	ENE	6.9 mph	  -	0.23 in	Rain	Light Rain
1947	2/14/1952 -- 5:00 AM	39.9 °F	37.9 °F	93%	29.97 in	4.0 mi	NE	10.4 mph	  -	0.01 in	Fog	Light Drizzle
1948	2/14/1952 -- 6:00 AM	37.9 °F	36.0 °F	93%	29.98 in	4.0 mi	NE	16.1 mph	  -	0.01 in	Fog	"	,"
1949	2/14/1952 -- 7:00 AM	37.0 °F	35.1 °F	93%	29.98 in	4.0 mi	NE	12.7 mph	  -	N/A	Fog	"	,"
1950	2/14/1952 -- 8:00 AM	37.9 °F	35.1 °F	89%	30.00 in	4.0 mi	NE	8.1 mph	  -	N/A	Fog	Fog
1951	2/14/1952 -- 9:00 AM	37.9 °F	35.1 °F	89%	30.00 in	5.0 mi	NE	12.7 mph	  -	N/A	"	 "	Drizzle
1952	2/14/1952 -- 10:00 AM	37.9 °F	35.1 °F	89%	30.00 in	5.0 mi	NNE	8.1 mph	  -	N/A	"	 "	Drizzle
1953	2/14/1952 -- 11:00 AM	39.0 °F	35.1 °F	86%	30.03 in	5.0 mi	NNE	6.9 mph	  -	N/A	"	 "	Drizzle
1954	2/14/1952 -- 12:00 PM	37.9 °F	35.1 °F	89%	30.02 in	4.0 mi	NNE	11.5 mph	  -	N/A	Fog	Light Drizzle
1955	2/14/1952 -- 1:00 PM	37.0 °F	34.0 °F	89%	30.00 in	5.0 mi	NE	9.2 mph	  -	N/A	"	 "	Drizzle
1956	2/14/1952 -- 2:00 PM	37.9 °F	34.0 °F	86%	30.01 in	5.0 mi	NE	10.4 mph	  -	N/A	"	 "	Drizzle
1957	2/14/1952 -- 3:00 PM	37.9 °F	35.1 °F	89%	30.01 in	5.0 mi	NE	8.1 mph	  -	N/A	"	 "	Drizzle
1958	2/14/1952 -- 4:00 PM	39.0 °F	35.1 °F	86%	30.03 in	6.0 mi	NNE	6.9 mph	  -	N/A	"	 "	Drizzle
1959	2/14/1952 -- 5:00 PM	39.0 °F	35.1 °F	86%	30.04 in	7.0 mi	NE	3.5 mph	  -	N/A	"	 "	Unknown
1960	2/14/1952 -- 6:00 PM	39.0 °F	35.1 °F	86%	30.06 in	6.0 mi	NE	3.5 mph	  -	N/A	"	 "	Drizzle
1961	2/14/1952 -- 7:00 PM	39.0 °F	35.1 °F	86%	30.06 in	6.0 mi	NE	2.3 mph	  -	N/A	"	 "	Drizzle
1962	2/14/1952 -- 8:00 PM	37.9 °F	35.1 °F	89%	30.08 in	6.0 mi	NE	3.5 mph	  -	N/A	"	 "	Drizzle
1963	2/14/1952 -- 9:00 PM	35.1 °F	33.1 °F	92%	30.08 in	7.0 mi	NE	3.5 mph	  -	N/A	"	 "	Clear
1964	2/14/1952 -- 10:00 PM	35.1 °F	33.1 °F	92%	30.09 in	7.0 mi	NE	6.9 mph	  -	N/A	"	 "	Unknown
1965	2/14/1952 -- 11:00 PM	35.1 °F	33.1 °F	92%	30.10 in	7.0 mi	NE	3.5 mph	  -	N/A	"	 "	Clear
1966	7/29/1951 -- 12:00 AM	70.0 °F	69.1 °F	97%	29.93 in	8.0 mi	East	6.9 mph	  -	N/A	"	 "	Unknown
1967	7/29/1951 -- 1:00 AM	71.1 °F	69.1 °F	93%	29.93 in	8.0 mi	NE	3.5 mph	  -	N/A	"	 "	Unknown
1968	7/29/1951 -- 2:00 AM	70.0 °F	69.1 °F	97%	29.94 in	8.0 mi	SSW	9.2 mph	  -	N/A	"	 "	Unknown
1969	7/29/1951 -- 3:00 AM	70.0 °F	69.1 °F	97%	29.94 in	7.0 mi	NW	2.3 mph	  -	N/A	"	 "	Unknown
1970	7/29/1951 -- 4:00 AM	70.0 °F	69.1 °F	97%	29.93 in	5.0 mi	North	2.3 mph	  -	N/A	Fog	Fog
1971	7/29/1951 -- 5:00 AM	70.0 °F	69.1 °F	97%	29.93 in	7.0 mi	North	4.6 mph	  -	N/A	"	 "	Unknown
1972	7/29/1951 -- 6:00 AM	69.1 °F	66.0 °F	90%	29.93 in	8.0 mi	NNE	3.5 mph	  -	N/A	"	 "	Unknown
1973	7/29/1951 -- 7:00 AM	70.0 °F	66.9 °F	90%	29.96 in	7.0 mi	North	1.2 mph	  -	N/A	"	 "	Unknown
1974	7/29/1951 -- 8:00 AM	71.1 °F	68.0 °F	90%	29.96 in	7.0 mi	NE	2.3 mph	  -	N/A	"	 "	Unknown
1975	7/29/1951 -- 9:00 AM	75.9 °F	66.9 °F	74%	29.98 in	10.0 mi	ENE	3.5 mph	  -	N/A	"	 "	Unknown
1976	7/29/1951 -- 10:00 AM	75.9 °F	68.0 °F	76%	29.99 in	10.0 mi	Calm	Calm	  -	N/A	"	 "	Unknown
1977	7/29/1951 -- 11:00 AM	78.1 °F	69.1 °F	74%	29.99 in	10.0 mi	West	2.3 mph	  -	N/A	"	 "	Unknown
1978	7/29/1951 -- 12:00 PM	79.0 °F	69.1 °F	72%	29.99 in	10.0 mi	WNW	5.8 mph	  -	N/A	"	 "	Unknown
1979	7/29/1951 -- 1:00 PM	82.9 °F	69.1 °F	63%	29.97 in	10.0 mi	SW	2.3 mph	  -	N/A	"	 "	Unknown
1980	7/29/1951 -- 2:00 PM	82.9 °F	66.9 °F	58%	29.97 in	10.0 mi	ENE	1.2 mph	  -	N/A	"	 "	Unknown
1981	7/29/1951 -- 3:00 PM	82.0 °F	70.0 °F	67%	29.95 in	10.0 mi	NW	6.9 mph	  -	N/A	"	 "	Unknown
1982	7/29/1951 -- 4:00 PM	80.1 °F	68.0 °F	67%	29.95 in	10.0 mi	NE	12.7 mph	  -	N/A	"	 "	Unknown
1983	7/29/1951 -- 5:00 PM	82.0 °F	69.1 °F	65%	29.97 in	10.0 mi	NE	9.2 mph	  -	N/A	"	 "	Unknown
1984	7/29/1951 -- 6:00 PM	80.1 °F	70.0 °F	71%	29.97 in	10.0 mi	ENE	6.9 mph	  -	N/A	"	 "	Unknown
1985	7/29/1951 -- 7:00 PM	79.0 °F	70.0 °F	74%	29.99 in	10.0 mi	NE	6.9 mph	  -	N/A	"	 "	Unknown
1986	7/29/1951 -- 8:00 PM	75.9 °F	70.0 °F	82%	30.00 in	10.0 mi	Calm	Calm	  -	N/A	"	 "	Unknown
1987	7/29/1951 -- 9:00 PM	75.0 °F	71.1 °F	87%	29.99 in	7.0 mi	Calm	Calm	  -	N/A	"	 "	Unknown
1988	7/29/1951 -- 10:00 PM	73.0 °F	70.0 °F	90%	30.01 in	7.0 mi	SE	6.9 mph	  -	N/A	"	 "	Unknown
1989	7/29/1951 -- 11:00 PM	73.0 °F	69.1 °F	87%	30.01 in	7.0 mi	SE	3.5 mph	  -	N/A	"	 "	Unknown
1990	1/10/1951 -- 12:00 AM	26.1 °F	10.9 °F	53%	30.36 in	15.0 mi	SSW	4.6 mph	  -	N/A	"	 "	Clear
1991	1/10/1951 -- 1:00 AM	26.1 °F	12.0 °F	55%	30.36 in	10.0 mi	SSW	6.9 mph	  -	N/A	"	 "	Clear
1992	1/10/1951 -- 2:00 AM	25.0 °F	12.0 °F	58%	30.36 in	10.0 mi	SW	5.8 mph	  -	N/A	"	 "	Clear
1993	1/10/1951 -- 3:00 AM	24.1 °F	10.9 °F	57%	30.35 in	10.0 mi	SW	4.6 mph	  -	N/A	"	 "	Clear
1994	1/10/1951 -- 4:00 AM	24.1 °F	12.9 °F	62%	30.35 in	10.0 mi	SW	5.8 mph	  -	N/A	"	 "	Clear
1995	1/10/1951 -- 5:00 AM	23.0 °F	12.9 °F	65%	30.36 in	10.0 mi	SW	8.1 mph	  -	N/A	"	 "	Clear
1996	1/10/1951 -- 6:00 AM	24.1 °F	12.9 °F	62%	30.36 in	10.0 mi	SW	8.1 mph	  -	N/A	"	 "	Clear
1997	1/10/1951 -- 7:00 AM	23.0 °F	12.9 °F	65%	30.37 in	8.0 mi	SSW	5.8 mph	  -	N/A	"	 "	Unknown
1998	1/10/1951 -- 8:00 AM	28.0 °F	12.9 °F	53%	30.38 in	15.0 mi	SW	8.1 mph	  -	N/A	"	 "	Clear
1999	1/10/1951 -- 9:00 AM	34.0 °F	15.1 °F	46%	30.39 in	15.0 mi	SW	10.4 mph	  -	N/A	"	 "	Clear
2000	1/10/1951 -- 10:00 AM	39.9 °F	12.9 °F	33%	30.38 in	15.0 mi	SW	9.2 mph	  -	N/A	"	 "	Unknown
2001	1/10/1951 -- 11:00 AM	44.1 °F	19.0 °F	37%	30.36 in	15.0 mi	SW	12.7 mph	  -	N/A	"	 "	Clear
2002	1/10/1951 -- 12:00 PM	46.0 °F	16.0 °F	30%	30.32 in	15.0 mi	SW	10.4 mph	  -	N/A	"	 "	Clear
2003	1/10/1951 -- 1:00 PM	48.0 °F	18.0 °F	30%	30.29 in	15.0 mi	SW	10.4 mph	  -	N/A	"	 "	Unknown
2004	1/10/1951 -- 2:00 PM	50.0 °F	21.9 °F	33%	30.27 in	15.0 mi	SW	11.5 mph	  -	N/A	"	 "	Clear
2005	1/10/1951 -- 3:00 PM	50.0 °F	21.0 °F	32%	30.25 in	15.0 mi	SSW	9.2 mph	  -	N/A	"	 "	Clear
2006	1/10/1951 -- 4:00 PM	48.0 °F	23.0 °F	37%	30.25 in	20.0 mi	SW	8.1 mph	  -	N/A	"	 "	Clear
2007	1/10/1951 -- 5:00 PM	42.1 °F	28.0 °F	58%	30.25 in	20.0 mi	SSW	6.9 mph	  -	N/A	"	 "	Clear
2008	1/10/1951 -- 6:00 PM	37.9 °F	24.1 °F	57%	30.24 in	15.0 mi	South	5.8 mph	  -	N/A	"	 "	Clear
2009	1/10/1951 -- 7:00 PM	37.0 °F	19.9 °F	50%	30.22 in	15.0 mi	South	10.4 mph	  -	N/A	"	 "	Clear
2010	1/10/1951 -- 8:00 PM	37.9 °F	18.0 °F	45%	30.21 in	15.0 mi	SSW	8.1 mph	  -	N/A	"	 "	Clear
2011	1/10/1951 -- 9:00 PM	37.9 °F	19.9 °F	48%	30.20 in	15.0 mi	SSW	9.2 mph	  -	N/A	"	 "	Clear
2012	1/10/1951 -- 10:00 PM	39.0 °F	24.1 °F	55%	30.18 in	15.0 mi	SSW	10.4 mph	  -	N/A	"	 "	Unknown
2013	1/10/1951 -- 11:00 PM	37.9 °F	21.0 °F	51%	30.16 in	15.0 mi	SW	6.9 mph	  -	N/A	"	 "	Clear
2014	6/24/1950 -- 12:00 AM	73.9 °F	71.1 °F	91%	29.98 in	10.0 mi	Calm	Calm	  -	N/A	"	 "	Clear
2015	6/24/1950 -- 1:00 AM	73.9 °F	70.0 °F	87%	29.98 in	10.0 mi	North	10.4 mph	  -	N/A	Rain	"	,"
2016	6/24/1950 -- 2:00 AM	73.9 °F	71.1 °F	91%	29.96 in	10.0 mi	Calm	Calm	  -	0.02 in	"	 "	Unknown
2017	6/24/1950 -- 3:00 AM	71.1 °F	70.0 °F	96%	29.95 in	10.0 mi	Calm	Calm	  -	0.01 in	"	 "	Clear
2018	6/24/1950 -- 4:00 AM	71.1 °F	70.0 °F	96%	29.95 in	10.0 mi	Calm	Calm	  -	N/A	"	 "	Clear
2019	6/24/1950 -- 5:00 AM	70.0 °F	69.1 °F	97%	29.96 in	10.0 mi	Calm	Calm	  -	N/A	"	 "	Clear
2020	6/24/1950 -- 6:00 AM	70.0 °F	69.1 °F	97%	29.98 in	10.0 mi	Calm	Calm	  -	N/A	"	 "	Clear
2021	6/24/1950 -- 7:00 AM	75.9 °F	71.1 °F	85%	29.98 in	10.0 mi	Calm	Calm	  -	N/A	"	 "	Clear
2022	6/24/1950 -- 8:00 AM	78.1 °F	71.1 °F	79%	29.99 in	10.0 mi	Calm	Calm	  -	N/A	"	 "	Clear
2023	6/24/1950 -- 9:00 AM	84.0 °F	73.0 °F	69%	30.00 in	10.0 mi	Calm	Calm	  -	N/A	"	 "	Clear
2024	6/24/1950 -- 10:00 AM	87.1 °F	71.1 °F	59%	30.00 in	10.0 mi	North	4.6 mph	  -	N/A	"	 "	Clear
2025	6/24/1950 -- 11:00 AM	89.1 °F	71.1 °F	55%	30.00 in	15.0 mi	WNW	4.6 mph	  -	N/A	"	 "	Unknown
2026	6/24/1950 -- 12:00 PM	91.0 °F	68.0 °F	47%	29.99 in	20.0 mi	Calm	Calm	  -	N/A	"	 "	Clear
2027	6/24/1950 -- 1:00 PM	93.0 °F	69.1 °F	45%	29.98 in	20.0 mi	NW	4.6 mph	  -	N/A	"	 "	Clear
2028	6/24/1950 -- 2:00 PM	93.9 °F	69.1 °F	44%	29.97 in	20.0 mi	WSW	8.1 mph	  -	N/A	"	 "	Unknown
2029	6/24/1950 -- 3:00 PM	95.0 °F	70.0 °F	44%	29.95 in	20.0 mi	West	4.6 mph	  -	N/A	"	 "	Clear
2030	6/24/1950 -- 4:00 PM	95.0 °F	70.0 °F	44%	29.94 in	20.0 mi	WSW	11.5 mph	  -	N/A	"	 "	Clear
2031	6/24/1950 -- 5:00 PM	91.9 °F	69.1 °F	47%	29.93 in	20.0 mi	West	8.1 mph	  -	N/A	"	 "	Unknown
2032	6/24/1950 -- 6:00 PM	88.0 °F	70.0 °F	55%	29.91 in	20.0 mi	WSW	6.9 mph	  -	N/A	"	 "	Clear
2033	6/24/1950 -- 7:00 PM	89.1 °F	70.0 °F	53%	29.92 in	20.0 mi	WSW	6.9 mph	  -	N/A	"	 "	Clear
2034	6/24/1950 -- 8:00 PM	84.9 °F	71.1 °F	63%	29.92 in	20.0 mi	Calm	Calm	  -	N/A	"	 "	Unknown
2035	6/24/1950 -- 9:00 PM	82.0 °F	71.1 °F	69%	29.92 in	15.0 mi	Calm	Calm	  -	N/A	"	 "	Clear
2036	6/24/1950 -- 10:00 PM	78.1 °F	72.0 °F	81%	29.92 in	15.0 mi	Calm	Calm	  -	N/A	"	 "	Clear
2037	6/24/1950 -- 11:00 PM	78.1 °F	71.1 °F	79%	29.92 in	15.0 mi	Calm	Calm	  -	N/A	"	 "	Unknown
2038	12/6/1949 -- 12:00 AM	32.0 °F	16.0 °F	52%	30.18 in	15.0 mi	South	3.5 mph	  -	N/A	"	 "	Clear
2039	12/6/1949 -- 1:00 AM	30.0 °F	21.0 °F	69%	30.18 in	15.0 mi	SW	3.5 mph	  -	N/A	"	 "	Clear
2040	12/6/1949 -- 2:00 AM	30.0 °F	19.9 °F	66%	30.17 in	15.0 mi	WSW	4.6 mph	  -	N/A	"	 "	Clear
2041	12/6/1949 -- 3:00 AM	28.9 °F	16.0 °F	58%	30.18 in	15.0 mi	SSW	2.3 mph	  -	N/A	"	 "	Clear
2042	12/6/1949 -- 4:00 AM	28.0 °F	17.1 °F	63%	30.18 in	15.0 mi	Calm	Calm	  -	N/A	"	 "	Clear
2043	12/6/1949 -- 5:00 AM	28.0 °F	17.1 °F	63%	30.20 in	15.0 mi	Calm	Calm	  -	N/A	"	 "	Clear
2044	12/6/1949 -- 6:00 AM	27.0 °F	17.1 °F	66%	30.24 in	15.0 mi	Calm	Calm	  -	N/A	"	 "	Clear
2045	12/6/1949 -- 7:00 AM	27.0 °F	18.0 °F	69%	30.26 in	15.0 mi	Calm	Calm	  -	N/A	"	 "	Clear
2046	12/6/1949 -- 8:00 AM	34.0 °F	18.0 °F	52%	30.27 in	15.0 mi	Calm	Calm	  -	N/A	"	 "	Clear
2047	12/6/1949 -- 9:00 AM	41.0 °F	21.9 °F	47%	30.28 in	20.0 mi	SW	5.8 mph	  -	N/A	"	 "	Clear
2048	12/6/1949 -- 10:00 AM	48.9 °F	23.0 °F	36%	30.27 in	20.0 mi	WSW	2.3 mph	  -	N/A	"	 "	Clear
2049	12/6/1949 -- 11:00 AM	55.9 °F	21.0 °F	26%	30.23 in	20.0 mi	West	4.6 mph	  -	N/A	"	 "	Clear
2050	12/6/1949 -- 12:00 PM	55.9 °F	18.0 °F	23%	30.19 in	20.0 mi	WSW	10.4 mph	  -	N/A	"	 "	Clear
2051	12/6/1949 -- 1:00 PM	57.0 °F	21.9 °F	26%	30.17 in	20.0 mi	WSW	3.5 mph	  -	N/A	"	 "	Clear
2052	12/6/1949 -- 2:00 PM	57.9 °F	21.0 °F	24%	30.14 in	20.0 mi	SW	12.7 mph	  -	N/A	"	 "	Clear
2053	12/6/1949 -- 3:00 PM	57.9 °F	19.9 °F	23%	30.13 in	20.0 mi	SSW	13.8 mph	  -	N/A	"	 "	Clear
2054	12/6/1949 -- 4:00 PM	53.1 °F	21.9 °F	30%	30.12 in	20.0 mi	SSW	8.1 mph	  -	N/A	"	 "	Unknown
2055	12/6/1949 -- 5:00 PM	50.0 °F	21.9 °F	33%	30.12 in	15.0 mi	SSW	11.5 mph	  -	N/A	"	 "	Clear
2056	12/6/1949 -- 6:00 PM	48.9 °F	19.9 °F	32%	30.10 in	15.0 mi	SSW	11.5 mph	  -	N/A	"	 "	Clear
2057	12/6/1949 -- 7:00 PM	48.0 °F	21.0 °F	34%	30.09 in	15.0 mi	SSW	12.7 mph	  -	N/A	"	 "	Unknown
2058	12/6/1949 -- 8:00 PM	48.9 °F	21.0 °F	33%	30.06 in	15.0 mi	SSW	17.3 mph	  -	N/A	"	 "	Clear
2059	12/6/1949 -- 9:00 PM	48.9 °F	21.0 °F	33%	30.05 in	15.0 mi	SSW	16.1 mph	  -	N/A	"	 "	Clear
2060	12/6/1949 -- 10:00 PM	48.0 °F	23.0 °F	37%	30.06 in	15.0 mi	SSW	16.1 mph	  -	N/A	"	 "	Unknown
2061	12/6/1949 -- 11:00 PM	45.0 °F	23.0 °F	42%	30.05 in	15.0 mi	SSW	12.7 mph	  -	N/A	"	 "	Clear
2062	5/20/1949 -- 12:00 AM	70.0 °F	59.0 °F	68%	29.93 in	15.0 mi	SW	8.1 mph	  -	N/A	"	 "	Clear
2063	5/20/1949 -- 1:00 AM	69.1 °F	57.9 °F	68%	29.91 in	15.0 mi	SW	10.4 mph	  -	N/A	"	 "	Clear
2064	5/20/1949 -- 2:00 AM	68.0 °F	57.9 °F	70%	29.89 in	15.0 mi	SW	9.2 mph	  -	N/A	"	 "	Clear
2065	5/20/1949 -- 3:00 AM	66.9 °F	57.0 °F	70%	29.87 in	15.0 mi	SSW	9.2 mph	  -	N/A	"	 "	Clear
2066	5/20/1949 -- 4:00 AM	66.0 °F	57.0 °F	73%	29.87 in	15.0 mi	SW	9.2 mph	  -	N/A	"	 "	Clear
2067	5/20/1949 -- 5:00 AM	64.0 °F	57.0 °F	78%	29.86 in	15.0 mi	SW	10.4 mph	  -	N/A	"	 "	Clear
2068	5/20/1949 -- 6:00 AM	64.0 °F	57.0 °F	78%	29.87 in	15.0 mi	SSW	6.9 mph	  -	N/A	"	 "	Clear
2069	5/20/1949 -- 7:00 AM	66.0 °F	59.0 °F	78%	29.87 in	15.0 mi	SW	8.1 mph	  -	N/A	"	 "	Clear
2070	5/20/1949 -- 8:00 AM	71.1 °F	60.1 °F	68%	29.87 in	15.0 mi	WSW	6.9 mph	  -	N/A	"	 "	Unknown
2071	5/20/1949 -- 9:00 AM	72.0 °F	63.0 °F	73%	29.86 in	15.0 mi	WSW	6.9 mph	  -	N/A	"	 "	Clear
2072	5/20/1949 -- 10:00 AM	79.0 °F	63.0 °F	58%	29.85 in	20.0 mi	WSW	10.4 mph	  -	N/A	"	 "	Clear
2073	5/20/1949 -- 11:00 AM	82.0 °F	61.0 °F	49%	29.84 in	20.0 mi	WNW	9.2 mph	  -	N/A	"	 "	Unknown
2074	5/20/1949 -- 12:00 PM	84.9 °F	63.0 °F	48%	29.83 in	20.0 mi	WNW	15.0 mph	  -	N/A	"	 "	Clear
2075	5/20/1949 -- 1:00 PM	84.9 °F	61.0 °F	44%	29.82 in	20.0 mi	WNW	17.3 mph	  -	N/A	"	 "	Clear
2076	5/20/1949 -- 2:00 PM	86.0 °F	60.1 °F	41%	29.81 in	20.0 mi	West	13.8 mph	  -	N/A	"	 "	Unknown
2077	5/20/1949 -- 3:00 PM	84.9 °F	59.0 °F	41%	29.80 in	20.0 mi	WNW	13.8 mph	  -	N/A	"	 "	Clear
2078	5/20/1949 -- 4:00 PM	86.0 °F	57.0 °F	37%	29.79 in	20.0 mi	West	11.5 mph	  -	N/A	"	 "	Clear
2079	5/20/1949 -- 5:00 PM	86.0 °F	55.9 °F	36%	29.79 in	20.0 mi	NW	10.4 mph	  -	N/A	"	 "	Unknown
2080	5/20/1949 -- 6:00 PM	84.0 °F	57.0 °F	40%	29.79 in	20.0 mi	NNW	6.9 mph	  -	N/A	"	 "	Clear
2081	5/20/1949 -- 7:00 PM	81.0 °F	55.9 °F	42%	29.81 in	20.0 mi	NNE	4.6 mph	  -	N/A	"	 "	Clear
2082	5/20/1949 -- 8:00 PM	77.0 °F	57.0 °F	50%	29.84 in	20.0 mi	NNE	3.5 mph	  -	N/A	"	 "	Unknown
2083	5/20/1949 -- 9:00 PM	72.0 °F	57.0 °F	59%	29.85 in	15.0 mi	North	4.6 mph	  -	N/A	"	 "	Clear
2084	5/20/1949 -- 10:00 PM	71.1 °F	55.0 °F	57%	29.87 in	15.0 mi	North	4.6 mph	  -	N/A	"	 "	Clear
2085	5/20/1949 -- 11:00 PM	68.0 °F	55.0 °F	63%	29.89 in	15.0 mi	NE	6.9 mph	  -	N/A	"	 "	Unknown
2086	11/1/1948 -- 12:00 AM	55.9 °F	54.0 °F	93%	30.08 in	8.0 mi	SSW	4.6 mph	  -	0.04 in	Rain	Light Rain
2087	11/1/1948 -- 1:00 AM	55.0 °F	53.1 °F	93%	30.07 in	8.0 mi	East	4.6 mph	  -	0.02 in	"	 "	Unknown
2088	11/1/1948 -- 2:00 AM	55.9 °F	53.1 °F	90%	30.07 in	8.0 mi	SE	3.5 mph	  -	N/A	"	 "	Clear
2089	11/1/1948 -- 3:00 AM	55.9 °F	53.1 °F	90%	30.05 in	8.0 mi	SSE	3.5 mph	  -	N/A	"	 "	Clear
2090	11/1/1948 -- 4:00 AM	55.0 °F	53.1 °F	93%	30.06 in	8.0 mi	SW	3.5 mph	  -	N/A	"	 "	Unknown
2091	11/1/1948 -- 5:00 AM	55.0 °F	52.0 °F	89%	30.07 in	8.0 mi	SW	3.5 mph	  -	N/A	"	 "	Clear
2092	11/1/1948 -- 6:00 AM	55.0 °F	51.1 °F	86%	30.06 in	6.0 mi	South	3.5 mph	  -	N/A	"	 "	Drizzle
2093	11/1/1948 -- 7:00 AM	55.0 °F	52.0 °F	89%	30.07 in	7.0 mi	SW	4.6 mph	  -	N/A	"	 "	Unknown
2094	11/1/1948 -- 8:00 AM	59.0 °F	54.0 °F	83%	30.09 in	8.0 mi	SW	5.8 mph	  -	N/A	"	 "	Clear
2095	11/1/1948 -- 9:00 AM	62.1 °F	55.0 °F	78%	30.09 in	8.0 mi	SW	4.6 mph	  -	N/A	"	 "	Clear
2096	11/1/1948 -- 10:00 AM	69.1 °F	55.9 °F	63%	30.09 in	10.0 mi	SW	6.9 mph	  -	N/A	"	 "	Unknown
2097	11/1/1948 -- 11:00 AM	73.0 °F	55.9 °F	55%	30.07 in	10.0 mi	WNW	9.2 mph	  -	N/A	"	 "	Clear
2098	11/1/1948 -- 12:00 PM	75.0 °F	54.0 °F	48%	30.05 in	15.0 mi	NW	9.2 mph	  -	N/A	"	 "	Clear
2099	11/1/1948 -- 1:00 PM	75.9 °F	55.0 °F	48%	30.02 in	15.0 mi	NNW	6.9 mph	  -	N/A	"	 "	Unknown
2100	11/1/1948 -- 2:00 PM	75.0 °F	54.0 °F	48%	30.01 in	15.0 mi	WNW	4.6 mph	  -	N/A	"	 "	Clear
2101	11/1/1948 -- 3:00 PM	72.0 °F	54.0 °F	53%	30.01 in	15.0 mi	NW	4.6 mph	  -	N/A	"	 "	Clear
2102	11/1/1948 -- 4:00 PM	71.1 °F	55.0 °F	57%	30.01 in	20.0 mi	NNE	5.8 mph	  -	N/A	"	 "	Unknown
2103	11/1/1948 -- 5:00 PM	66.9 °F	55.0 °F	66%	30.04 in	20.0 mi	NNE	4.6 mph	  -	N/A	"	 "	Clear
2104	11/1/1948 -- 6:00 PM	64.9 °F	55.9 °F	73%	30.05 in	15.0 mi	NNW	3.5 mph	  -	N/A	"	 "	Clear
2105	11/1/1948 -- 7:00 PM	61.0 °F	59.0 °F	93%	30.08 in	15.0 mi	NNW	3.5 mph	  -	N/A	"	 "	Unknown
2106	11/1/1948 -- 8:00 PM	64.0 °F	55.0 °F	73%	30.10 in	15.0 mi	NNE	4.6 mph	  -	N/A	"	 "	Clear
2107	11/1/1948 -- 9:00 PM	62.1 °F	55.9 °F	80%	30.11 in	15.0 mi	NNW	3.5 mph	  -	N/A	"	 "	Clear
2108	11/1/1948 -- 10:00 PM	61.0 °F	55.0 °F	81%	30.11 in	15.0 mi	NNW	3.5 mph	  -	N/A	"	 "	Unknown
2109	11/1/1948 -- 11:00 PM	59.0 °F	55.0 °F	87%	30.11 in	15.0 mi	North	4.6 mph	  -	N/A	"	 "	Clear
2110	4/15/1948 -- 12:00 AM	61.3 °F	61.3 °F	100%	30.03 in	8.0 mi	SW	3.5 mph	  -	N/A	Rain	Light Rain
2111	4/15/1948 -- 1:00 AM	60.3 °F	60.3 °F	100%	30.05 in	6.0 mi	West	3.5 mph	  -	N/A	Rain	Light Rain
2112	4/15/1948 -- 2:00 AM	61.3 °F	100%	30.05 in	3.0 mi	Calm	Calm	  -	N/A	Fog	"	,"	Rain
2113	4/15/1948 -- 3:00 AM	56.3 °F	93%	30.05 in	5.0 mi	North	12.7 mph	  -	N/A	Fog	"	,"	Rain
2114	4/15/1948 -- 4:00 AM	55.4 °F	53.4 °F	93%	30.06 in	5.0 mi	NNW	11.5 mph	  -	N/A	Fog	Fog
2115	4/15/1948 -- 5:00 AM	55.4 °F	52.3 °F	89%	30.07 in	6.0 mi	NNE	10.4 mph	  -	N/A	Fog	Fog
2116	4/15/1948 -- 6:00 AM	54.3 °F	46.4 °F	75%	30.12 in	7.0 mi	North	11.5 mph	  -	N/A	"	 "	Clear
2117	4/15/1948 -- 7:00 AM	53.4 °F	44.4 °F	72%	30.15 in	7.0 mi	NNW	10.4 mph	  -	N/A	"	 "	Overcast
2118	4/15/1948 -- 8:00 AM	54.3 °F	42.4 °F	64%	30.19 in	8.0 mi	North	6.9 mph	  -	N/A	"	 "	Clear
2119	4/15/1948 -- 9:00 AM	55.4 °F	43.3 °F	64%	30.21 in	8.0 mi	North	8.1 mph	  -	N/A	"	 "	Clear
2120	4/15/1948 -- 10:00 AM	57.4 °F	44.4 °F	62%	30.21 in	8.0 mi	North	8.1 mph	  -	N/A	"	 "	Overcast
2121	4/15/1948 -- 11:00 AM	59.4 °F	45.3 °F	60%	30.19 in	10.0 mi	NE	9.2 mph	  -	N/A	"	 "	Clear
2122	4/15/1948 -- 12:00 PM	62.4 °F	47.3 °F	58%	30.19 in	10.0 mi	ENE	9.2 mph	  -	N/A	"	 "	Clear
2123	4/15/1948 -- 1:00 PM	62.4 °F	46.4 °F	56%	30.15 in	10.0 mi	NNE	6.9 mph	  -	N/A	"	 "	Overcast
2124	4/15/1948 -- 2:00 PM	65.3 °F	51.3 °F	60%	30.13 in	10.0 mi	NE	6.9 mph	  -	N/A	"	 "	Clear
2125	4/15/1948 -- 3:00 PM	64.4 °F	49.3 °F	58%	30.13 in	10.0 mi	East	8.1 mph	  -	N/A	"	 "	Clear
2126	4/15/1948 -- 4:00 PM	65.3 °F	50.4 °F	58%	30.13 in	15.0 mi	East	5.8 mph	  -	N/A	"	 "	Overcast
2127	4/15/1948 -- 5:00 PM	63.3 °F	51.3 °F	65%	30.13 in	10.0 mi	ENE	10.4 mph	  -	N/A	"	 "	Clear
2128	4/15/1948 -- 6:00 PM	60.3 °F	50.4 °F	70%	30.13 in	10.0 mi	ENE	5.8 mph	  -	N/A	"	 "	Clear
2129	4/15/1948 -- 7:00 PM	57.4 °F	52.3 °F	83%	30.15 in	10.0 mi	ENE	8.1 mph	  -	N/A	"	 "	Scattered Clouds
2130	4/15/1948 -- 8:00 PM	54.3 °F	50.4 °F	86%	30.17 in	8.0 mi	East	3.5 mph	  -	N/A	"	 "	Clear
2131	4/15/1948 -- 9:00 PM	52.3 °F	50.4 °F	93%	30.17 in	8.0 mi	East	4.6 mph	  -	N/A	"	 "	Clear
2132	4/15/1948 -- 10:00 PM	52.3 °F	49.3 °F	89%	30.18 in	8.0 mi	East	3.5 mph	  -	N/A	"	 "	Clear
2133	4/15/1948 -- 11:00 PM	50.4 °F	49.3 °F	96%	30.18 in	7.0 mi	East	3.5 mph	  -	N/A	"	 "	Clear
2134	9/28/1947 -- 12:00 AM	44.4 °F	36.3 °F	73%	30.51 in	15.0 mi	NNE	5.8 mph	  -	N/A	"	 "	Clear
2135	9/28/1947 -- 1:00 AM	43.3 °F	37.4 °F	80%	30.51 in	15.0 mi	NNE	3.5 mph	  -	N/A	"	 "	Clear
2136	9/28/1947 -- 1:00 AM	42.4 °F	36.3 °F	79%	30.51 in	15.0 mi	NNE	4.6 mph	  -	N/A	"	 "	Clear
2137	9/28/1947 -- 2:00 AM	41.4 °F	36.3 °F	82%	30.51 in	15.0 mi	NNE	4.6 mph	  -	N/A	"	 "	Clear
2138	9/28/1947 -- 3:00 AM	41.4 °F	36.3 °F	82%	30.49 in	15.0 mi	NNE	5.8 mph	  -	N/A	"	 "	Clear
2139	9/28/1947 -- 4:00 AM	40.3 °F	35.4 °F	83%	30.48 in	15.0 mi	NNE	6.9 mph	  -	N/A	"	 "	Clear
2140	9/28/1947 -- 5:00 AM	39.4 °F	35.4 °F	86%	30.49 in	15.0 mi	NNE	8.1 mph	  -	N/A	"	 "	Clear
2141	9/28/1947 -- 6:00 AM	41.4 °F	36.3 °F	82%	30.51 in	20.0 mi	NNE	5.8 mph	  -	N/A	"	 "	Clear
2142	9/28/1947 -- 7:00 AM	42.4 °F	37.4 °F	82%	30.49 in	15.0 mi	NNE	6.9 mph	  -	N/A	"	 "	Clear
2143	9/28/1947 -- 8:00 AM	50.4 °F	38.3 °F	63%	30.49 in	15.0 mi	NNE	10.4 mph	  -	N/A	"	 "	Clear
2144	9/28/1947 -- 9:00 AM	56.3 °F	42.4 °F	60%	30.49 in	15.0 mi	NE	13.8 mph	  -	N/A	"	 "	Clear
2145	9/28/1947 -- 10:00 AM	59.4 °F	41.4 °F	51%	30.48 in	15.0 mi	NNE	13.8 mph	  -	N/A	"	 "	Clear
2146	9/28/1947 -- 11:00 AM	63.3 °F	44.4 °F	50%	30.48 in	15.0 mi	NE	18.4 mph	  -	N/A	"	 "	Clear
2147	9/28/1947 -- 12:00 PM	65.3 °F	45.3 °F	48%	30.44 in	20.0 mi	NE	19.6 mph	  -	N/A	"	 "	Clear
2148	9/28/1947 -- 1:00 PM	65.3 °F	45.3 °F	48%	30.42 in	15.0 mi	NE	18.4 mph	  -	N/A	"	 "	Scattered Clouds
2149	9/28/1947 -- 2:00 PM	67.3 °F	46.4 °F	47%	30.41 in	15.0 mi	ENE	15.0 mph	  -	N/A	"	 "	Clear
2150	9/28/1947 -- 3:00 PM	66.4 °F	47.3 °F	50%	30.40 in	15.0 mi	NE	13.8 mph	  -	N/A	"	 "	Clear
2151	9/28/1947 -- 4:00 PM	65.3 °F	47.3 °F	52%	30.39 in	20.0 mi	NE	15.0 mph	  -	N/A	"	 "	Scattered Clouds
2152	9/28/1947 -- 5:00 PM	62.4 °F	49.3 °F	62%	30.38 in	20.0 mi	NE	15.0 mph	  -	N/A	"	 "	Clear
2153	9/28/1947 -- 6:00 PM	57.4 °F	50.4 °F	77%	30.38 in	20.0 mi	NNE	6.9 mph	  -	N/A	"	 "	Clear
2154	9/28/1947 -- 7:00 PM	55.4 °F	51.3 °F	86%	30.40 in	20.0 mi	NNE	8.1 mph	  -	N/A	"	 "	Clear
2155	9/28/1947 -- 8:00 PM	54.3 °F	49.3 °F	83%	30.40 in	15.0 mi	NNE	5.8 mph	  -	N/A	"	 "	Clear
2156	9/28/1947 -- 9:00 PM	52.3 °F	50.4 °F	93%	30.40 in	15.0 mi	NNE	4.6 mph	  -	N/A	"	 "	Clear
2157	9/28/1947 -- 10:00 PM	52.3 °F	49.3 °F	89%	30.40 in	15.0 mi	NNE	3.5 mph	  -	N/A	"	 "	Clear
2158	3/12/1947 -- 12:00 AM	35.4 °F	23.4 °F	62%	30.40 in	8.0 mi	NE	4.6 mph	  -	N/A	"	 "	Clear
2159	3/12/1947 -- 1:00 AM	35.4 °F	22.5 °F	59%	30.39 in	10.0 mi	ENE	3.5 mph	  -	N/A	"	 "	Clear
2160	3/12/1947 -- 2:00 AM	32.4 °F	24.4 °F	73%	30.41 in	10.0 mi	ENE	5.8 mph	  -	N/A	"	 "	Clear
2161	3/12/1947 -- 3:00 AM	32.4 °F	24.4 °F	73%	30.39 in	10.0 mi	ENE	4.6 mph	  -	N/A	"	 "	Clear
2162	3/12/1947 -- 4:00 AM	31.3 °F	25.3 °F	79%	30.40 in	10.0 mi	NE	3.5 mph	  -	N/A	"	 "	Mostly Cloudy
2163	3/12/1947 -- 5:00 AM	29.3 °F	22.5 °F	76%	30.41 in	15.0 mi	North	3.5 mph	  -	N/A	"	 "	Clear
2164	3/12/1947 -- 6:00 AM	30.4 °F	24.4 °F	79%	30.44 in	10.0 mi	North	6.9 mph	  -	N/A	"	 "	Clear
2165	3/12/1947 -- 7:00 AM	30.4 °F	24.4 °F	79%	30.46 in	8.0 mi	North	9.2 mph	  -	N/A	"	 "	Overcast
2166	3/12/1947 -- 8:00 AM	38.3 °F	25.3 °F	60%	30.47 in	9.0 mi	NNE	6.9 mph	  -	N/A	"	 "	Clear
2167	3/12/1947 -- 9:00 AM	43.3 °F	24.4 °F	47%	30.48 in	10.0 mi	North	11.5 mph	  -	N/A	"	 "	Clear
2168	3/12/1947 -- 10:00 AM	46.4 °F	25.3 °F	44%	30.49 in	15.0 mi	NNE	9.2 mph	  -	N/A	"	 "	Clear
2169	3/12/1947 -- 11:00 AM	49.3 °F	25.3 °F	39%	30.48 in	15.0 mi	NE	15.0 mph	  -	N/A	"	 "	Clear
2170	3/12/1947 -- 12:00 PM	51.3 °F	25.3 °F	37%	30.47 in	15.0 mi	NNE	13.8 mph	  -	N/A	"	 "	Clear
2171	3/12/1947 -- 1:00 PM	52.3 °F	26.4 °F	37%	30.45 in	15.0 mi	ENE	11.5 mph	  -	N/A	"	 "	Scattered Clouds
2172	3/12/1947 -- 2:00 PM	54.3 °F	25.3 °F	33%	30.43 in	20.0 mi	ENE	17.3 mph	  -	N/A	"	 "	Clear
2173	3/12/1947 -- 3:00 PM	55.4 °F	24.4 °F	30%	30.43 in	20.0 mi	ENE	13.8 mph	  -	N/A	"	 "	Clear
2174	3/12/1947 -- 4:00 PM	54.3 °F	25.3 °F	33%	30.41 in	20.0 mi	NNE	5.8 mph	  -	N/A	"	 "	Partly Cloudy
2175	3/12/1947 -- 5:00 PM	52.3 °F	26.4 °F	37%	30.42 in	20.0 mi	ENE	10.4 mph	  -	N/A	"	 "	Clear
2176	3/12/1947 -- 6:00 PM	48.4 °F	26.4 °F	42%	30.42 in	20.0 mi	ENE	8.1 mph	  -	N/A	"	 "	Clear
2177	3/12/1947 -- 7:00 PM	44.4 °F	27.3 °F	51%	30.42 in	15.0 mi	ENE	6.9 mph	  -	N/A	"	 "	Clear
2178	3/12/1947 -- 8:00 PM	43.3 °F	26.4 °F	51%	30.43 in	15.0 mi	ENE	6.9 mph	  -	N/A	"	 "	Clear
2179	3/12/1947 -- 9:00 PM	42.4 °F	26.4 °F	53%	30.43 in	15.0 mi	ENE	8.1 mph	  -	N/A	"	 "	Clear
2180	3/12/1947 -- 10:00 PM	41.4 °F	25.3 °F	53%	30.43 in	10.0 mi	ENE	10.4 mph	  -	N/A	"	 "	Scattered Clouds
2181	3/12/1947 -- 11:00 PM	38.3 °F	27.3 °F	65%	30.42 in	15.0 mi	ENE	6.9 mph	  -	N/A	"	 "	Clear
2182	8/24/1946 -- 12:00 AM	66.4 °F	65.3 °F	96%	30.13 in	10.0 mi	ENE	5.8 mph	  -	N/A	"	 "	Clear
2183	8/24/1946 -- 1:00 AM	67.3 °F	65.3 °F	93%	30.13 in	8.0 mi	NNE	4.6 mph	  -	N/A	"	 "	Clear
2184	8/24/1946 -- 2:00 AM	67.3 °F	65.3 °F	93%	30.11 in	7.0 mi	ENE	6.9 mph	  -	N/A	"	 "	Mostly Cloudy
2185	8/24/1946 -- 3:00 AM	67.3 °F	64.4 °F	90%	30.11 in	7.0 mi	NNE	3.5 mph	  -	N/A	"	 "	Clear
2186	8/24/1946 -- 4:00 AM	65.3 °F	62.4 °F	90%	30.11 in	5.0 mi	NNE	11.5 mph	  -	N/A	"	 "	Drizzle
2187	8/24/1946 -- 5:00 AM	65.3 °F	60.3 °F	84%	30.11 in	5.0 mi	NE	4.6 mph	  -	N/A	"	 "	Drizzle
2188	8/24/1946 -- 6:00 AM	64.4 °F	59.4 °F	84%	30.13 in	6.0 mi	NE	10.4 mph	  -	N/A	"	 "	Drizzle
2189	8/24/1946 -- 7:00 AM	64.4 °F	58.3 °F	80%	30.13 in	5.0 mi	ENE	11.5 mph	  -	N/A	"	 "	Drizzle
2190	8/24/1946 -- 8:00 AM	64.4 °F	58.3 °F	80%	30.15 in	6.0 mi	NE	9.2 mph	  -	N/A	"	 "	Drizzle
2191	8/24/1946 -- 9:00 AM	68.4 °F	60.3 °F	75%	30.15 in	8.0 mi	ENE	8.1 mph	  -	N/A	"	 "	Clear
2192	8/24/1946 -- 10:00 AM	70.3 °F	63.3 °F	78%	30.15 in	8.0 mi	ENE	6.9 mph	  -	N/A	"	 "	Clear
2193	8/24/1946 -- 11:00 AM	73.4 °F	64.4 °F	73%	30.15 in	10.0 mi	ENE	6.9 mph	  -	N/A	"	 "	Overcast
2194	8/24/1946 -- 12:00 PM	74.3 °F	64.4 °F	71%	30.14 in	8.0 mi	ENE	9.2 mph	  -	N/A	"	 "	Clear
2195	8/24/1946 -- 1:00 PM	75.4 °F	65.3 °F	71%	30.13 in	8.0 mi	East	6.9 mph	  -	N/A	"	 "	Clear
2196	8/24/1946 -- 2:00 PM	77.4 °F	65.3 °F	66%	30.11 in	10.0 mi	ESE	4.6 mph	  -	N/A	"	 "	Overcast
2197	8/24/1946 -- 3:00 PM	78.3 °F	64.4 °F	62%	30.11 in	10.0 mi	North	1.2 mph	  -	N/A	"	 "	Clear
2198	8/24/1946 -- 4:00 PM	78.3 °F	64.4 °F	62%	30.09 in	10.0 mi	NE	6.9 mph	  -	N/A	"	 "	Clear
2199	8/24/1946 -- 5:00 PM	77.4 °F	65.3 °F	66%	30.07 in	10.0 mi	ENE	8.1 mph	  -	N/A	"	 "	Mostly Cloudy
2200	8/24/1946 -- 6:00 PM	75.4 °F	66.4 °F	73%	30.07 in	10.0 mi	ENE	4.6 mph	  -	N/A	"	 "	Clear
2201	8/24/1946 -- 7:00 PM	73.4 °F	67.3 °F	81%	30.07 in	10.0 mi	NE	3.5 mph	  -	N/A	"	 "	Clear
2202	8/24/1946 -- 8:00 PM	71.2 °F	66.4 °F	85%	30.08 in	10.0 mi	NE	3.5 mph	  -	N/A	"	 "	Overcast
2203	8/24/1946 -- 9:00 PM	69.3 °F	66.4 °F	91%	30.08 in	10.0 mi	ENE	3.5 mph	  -	N/A	"	 "	Clear
2204	8/24/1946 -- 10:00 PM	70.3 °F	66.4 °F	87%	30.09 in	10.0 mi	ENE	4.6 mph	  -	N/A	"	 "	Clear
2205	8/24/1946 -- 11:00 PM	69.3 °F	65.3 °F	87%	30.09 in	10.0 mi	ENE	8.1 mph	  -	N/A	"	 "	Overcast
2206	2/5/1946 -- 12:00 AM	38.3 °F	29.3 °F	70%	30.47 in	10.0 mi	NE	8.1 mph	  -	N/A	Rain	Light Rain
2207	2/5/1946 -- 1:00 AM	37.4 °F	30.4 °F	76%	30.48 in	10.0 mi	NE	8.1 mph	  -	N/A	Rain	Light Rain
2208	2/5/1946 -- 2:00 AM	37.4 °F	26.4 °F	65%	30.46 in	8.0 mi	East	4.6 mph	  -	N/A	Rain	Light Rain
2209	2/5/1946 -- 3:00 AM	35.4 °F	30.4 °F	82%	30.46 in	5.0 mi	NE	8.1 mph	  -	N/A	Rain	Light Rain
2210	2/5/1946 -- 4:00 AM	35.4 °F	30.4 °F	82%	30.45 in	8.0 mi	NE	3.5 mph	  -	N/A	Rain	Light Rain
2211	2/5/1946 -- 5:00 AM	34.3 °F	30.4 °F	85%	30.45 in	2.0 mi	NE	5.8 mph	  -	N/A	Fog	"	,"
2212	2/5/1946 -- 6:00 AM	33.4 °F	31.3 °F	92%	30.47 in	4.0 mi	NE	3.5 mph	  -	N/A	Fog	"	,"
2213	2/5/1946 -- 7:00 AM	33.4 °F	32.4 °F	96%	30.47 in	4.0 mi	NE	10.4 mph	  -	N/A	Fog	"	,"
2214	2/5/1946 -- 8:00 AM	34.3 °F	33.4 °F	97%	30.47 in	3.0 mi	East	8.1 mph	  -	N/A	Fog	"	,"
2215	2/5/1946 -- 9:00 AM	34.3 °F	33.4 °F	97%	30.47 in	3.0 mi	East	6.9 mph	  -	N/A	Fog	"	,"
2216	2/5/1946 -- 10:00 AM	35.4 °F	34.3 °F	96%	30.47 in	4.0 mi	East	6.9 mph	  -	N/A	Rain	Light Rain
2217	2/5/1946 -- 11:00 AM	36.3 °F	34.3 °F	93%	30.47 in	5.0 mi	ESE	8.1 mph	  -	N/A	Rain	Light Rain
2218	2/5/1946 -- 12:00 PM	37.4 °F	35.4 °F	93%	30.43 in	5.0 mi	SE	5.8 mph	  -	N/A	Rain	Light Rain
2219	2/5/1946 -- 1:00 PM	38.3 °F	36.3 °F	93%	30.41 in	5.0 mi	ESE	3.5 mph	  -	N/A	"	 "	Drizzle
2220	2/5/1946 -- 2:00 PM	40.3 °F	37.4 °F	89%	30.38 in	5.0 mi	East	8.1 mph	  -	N/A	"	 "	Drizzle
2221	2/5/1946 -- 3:00 PM	40.3 °F	37.4 °F	89%	30.37 in	5.0 mi	ESE	6.9 mph	  -	N/A	"	 "	Drizzle
2222	2/5/1946 -- 4:00 PM	40.3 °F	38.3 °F	93%	30.37 in	5.0 mi	SE	9.2 mph	  -	N/A	"	 "	Drizzle
2223	2/5/1946 -- 5:00 PM	40.3 °F	38.3 °F	93%	30.36 in	4.0 mi	SE	5.8 mph	  -	N/A	"	 "	Drizzle
2224	2/5/1946 -- 6:00 PM	40.3 °F	38.3 °F	93%	30.35 in	3.0 mi	SE	4.6 mph	  -	N/A	Fog	"	,"
2225	2/5/1946 -- 7:00 PM	40.3 °F	38.3 °F	93%	30.37 in	3.0 mi	SE	4.6 mph	  -	N/A	Fog	"	,"
2226	2/5/1946 -- 8:00 PM	39.4 °F	38.3 °F	96%	30.37 in	4.0 mi	NNE	3.5 mph	  -	N/A	Fog	Fog
2227	2/5/1946 -- 9:00 PM	39.4 °F	38.3 °F	96%	30.35 in	4.0 mi	ESE	3.5 mph	  -	N/A	Fog	"	,"
2228	2/5/1946 -- 10:00 PM	38.3 °F	38.3 °F	100%	30.33 in	4.0 mi	East	3.5 mph	  -	N/A	"	 "	Mostly Cloudy
2229	2/5/1946 -- 11:00 PM	39.4 °F	38.3 °F	96%	30.32 in	4.0 mi	East	3.5 mph	  -	N/A	Fog	Fog
